segment_S,accession_S,country,admin1,location,latitude,longitude
GU830819|Lib05-4094|Human|LIB|2005,GU830819,LBR,,,NA,NA
KF478766|Bamba_R114|Mouse|Mali|2012-03,KF478766,MLI,,Bamba,10.3831,-7.1517
KF478768|Ouoma-R123|Mn|NGA|2012-03,KF478768,MLI,,Ouoma,10.397222,-7.259167
GU573551|Soromba_R245|Mouse|Mali|2009,GU573551,MLI,,Soromba,10.5891,-7.1558
KF478769|Soromba-R30|Mn|NGA|2012-03-03,KF478769,MLI,,Soromba,10.5891,-7.1558
GU573547|Soromba_R240|Mouse|Mali|2009,GU573547,MLI,,Soromba,10.5891,-7.1558
KF478767|Komina_R16|Mouse|Mali|2012-03-03,KF478767,MLI,,Komina,10.6164,-7.1583
FJ824031|Soromba|Human|MLI|2009-02-17,FJ824031,MLI,,Soromba,10.5891,-7.1558
MG812679|811606|Human|Liberia|2010,MG812679,LBR,,,NA,NA
MH215287|LF18041|Human|Liberia_Monsterrado|2018-03-03,MH215287,LBR,Montserrado,,NA,NA
GU830814|Lib05-406/90|Human|LIB|2005,GU830814,LBR,,,NA,NA
GU830823|Lib06-383|Human|LIB|2006,GU830823,LBR,,,NA,NA
GU830822|Lib06-295|Human|LIB|2006,GU830822,LBR,,,NA,NA
MG812650|812673|Human|Liberia|2015,MG812650,LBR,,,NA,NA
GU830815|Lib05-1580/121|Human|LIB|2005,GU830815,LBR,,,NA,NA
GU830818|Lib05-3800|Human|LIB|2005,GU830818,LBR,,,NA,NA
GU830824|Lib06-1099|Human|Liberia|2006,GU830824,LBR,,,NA,NA
MH215279|LF18001|Human|Liberia_Bong|2018-01-10,MH215279,LBR,Bong,,NA,NA
MG812653|LF11003|Human|Liberia_Bong|2011-02-20,MG812653,LBR,Bong,Suakoko,6.98986,-9.580031
GU830834|Lib07-444|Human|LIB|2007,GU830834,LBR,,,NA,NA
MG812677|LF17013|Human|Liberia_Bong|2017-02-13,MG812677,LBR,Bong,Jorquelleh,6.99556,-9.47222
GU830829|Lib07-30|Human|LIB|2007,GU830829,LBR,,,NA,NA
MG812655|LF11011|Human|Liberia_Bong|2011-04-14,MG812655,LBR,Bong,Jorquelleh,6.99556,-9.47222
MG812663|LF16004|Human|Liberia_Bong|2016-02-26,MG812663,LBR,Bong,Jorquelleh,6.99556,-9.47222
GU830812|Lib04-2739|Human|LIB|2004,GU830812,LBR,,,NA,NA
GU830837|Lib07-624|Human|LIB|2007,GU830837,LBR,,,NA,NA
GU830836|Lib07-612|Human|LIB|2007,GU830836,LBR,,,NA,NA
MG812667|LF17007|Human|Liberia_Nimba|2017-01-09,MG812667,LBR,Nimba,Saclepea-Mah,NA,NA
MG812657|LF13006|Human|Liberia_Nimba|2013-04-29,MG812657,LBR,Nimba,Saclepea-Mah,NA,NA
GU830835|Lib07-515|Human|LIB|2007,GU830835,LBR,,,NA,NA
GU830828|Lib07-29|Human|LIB|2007,GU830828,LBR,,,NA,NA
MG812670|LF17020|Human|Liberia_Nimba|2017-05-02,MG812670,LBR,Nimba,Saclepea-Mah,NA,NA
GU830825|Lib06-1101|Human|Liberia|2006,GU830825,LBR,,,NA,NA
GU830827|Lib06-2442|Human|LIB|2006,GU830827,LBR,,,NA,NA
GU830820|Lib06-120|Human|LIB|2006,GU830820,LBR,,,NA,NA
GU830832|Lib07-56|Human|LIB|2007,GU830832,LBR,,,NA,NA
GU830831|Lib07-55|Human|LIB|2007,GU830831,LBR,,,NA,NA
MG812632|807978|Human|Liberia|1981,MG812632,LBR,,,NA,NA
MG812669|LF17019|Human|Liberia_Bong|2017-05-04,MG812669,LBR,Bong,Jorquelleh,6.99556,-9.47222
GU830816|Lib05-2096/127|Human|LIB|2005,GU830816,LBR,,,NA,NA
MH215289|LF18042|Human|Liberia_Nimba|2018-03-01,MH215289,LBR,Nimba,,NA,NA
GU830826|Lib06-1826|Human|LIB|2006,GU830826,LBR,,,NA,NA
MH215281|LF18002|Human|Liberia_Nimba|2018-01-10,MH215281,GIN,Yomou,,NA,NA
GU830817|Lib05-2406/129|Human|LIB|2005,GU830817,LBR,,,NA,NA
GU830833|Lib07-206|Human|LIB|2007,GU830833,LBR,,,NA,NA
MG812665|LF16016|Human|Liberia_Nimba|2016-04-13,MG812665,LBR,Nimba,Garr bain,7.24306,-8.87194
MG812658|812337|Human|Liberia|2014,MG812658,LBR,,,NA,NA
GU830830|Lib07-54|Human|LIB|2007,GU830830,LBR,,,NA,NA
MG812661|LF13007|Human|Liberia_Nimba|2013-04-29,MG812661,LBR,Nimba,Saclepea-Mah,NA,NA
MH215283|LF18037|Human|Liberia_Nimba|2018-02-13,MH215283,LBR,Nimba,,NA,NA
MG812673|LF17001|Human|Liberia_Nimba|2017-01-09,MG812673,LBR,Nimba,,NA,NA
KT833189|Yar20|GIN|Guinea|2013-11-20,KT833189,GIN,Faranah,Yarawalia,9.95445,-10.7318833
KT833190|Yar24|GIN|Guinea|2013-11-21,KT833190,GIN,Faranah,Yarawalia,9.95445,-10.7318833
AF182269|las807868|Human|Guinea|1996,AF182269,GIN,Faranah,Faranah,10.045385,-10.750165
KT833197|Dal04|GIN|Guinea|2013-11-28,KT833197,GIN,Faranah,Dalafilani,10.1431667,-10.60505
KT833214|Sok61|GIN|Guinea|2014-4-4,KT833214,GIN,Faranah,Sokourala,10.0567833,-10.6658333
KT833183|Dam05|GIN|Guinea|2013-11-15,KT833183,GIN,Faranah,Damania,9.806833,-10.863267
DQ832676|BA375|Mouse|Guinea|2003,DQ832676,GIN,Faranah,Bantou,10.059767,-10.58615
KT833209|Dam90|GIN|Guinea|2014-3-27,KT833209,GIN,Faranah,Damania,9.806833,-10.863267
KT833187|Dam49|GIN|Guinea|2013-11-17,KT833187,GIN,Faranah,Damania,9.806833,-10.863267
KT833207|Dam71|GIN|Guinea|2014-3-26,KT833207,GIN,Faranah,Damania,9.806833,-10.863267
KT833184|Dam15|GIN|Guinea|2013-11-15,KT833184,GIN,Faranah,Damania,9.806833,-10.863267
KP339054|170|Mastomys natalensis|Guinea|2003-5-23,KP339054,GIN,Faranah,Gbetaya,9.841017,-11.04015
DQ832686|TA464|Mouse|Guinea|2003,DQ832686,GIN,Faranah,Tanganya,10.0004,-10.972783
DQ832690|TA820|Mouse|Guinea|2004,DQ832690,GIN,Faranah,Tanganya,10.0004,-10.972783
DQ832683|TA341|Mouse|Guinea|2003,DQ832683,GIN,Faranah,Tanganya,10.0004,-10.972783
DQ832682|TA416|Mouse|Guinea|2003,DQ832682,GIN,Faranah,Tanganya,10.0004,-10.972783
KP339127|1858|Mastomys natalensis|Guinea|2011-10-23,KP339127,GIN,Faranah,Tanganya,10.0004,-10.972783
KT833192|Yar46|GIN|Guinea|2013-11-21,KT833192,GIN,Faranah,Yarawalia,9.95445,-10.7318833
KT833221|Yar51|GIN|Guinea|2014-4-13,KT833221,GIN,Faranah,Yarawalia,9.95445,-10.7318833
KP339132|1925|Mastomys natalensis|Guinea|2011-10-25,KP339132,GIN,Faranah,Tanganya,10.0004,-10.972783
AF182270|las808255|Mouse|Guinea|1996,AF182270,GIN,Faranah,Faranah,10.045385,-10.750165
KT833194|Kho29|GIN|Guinea|2013-11-26,KT833194,GIN,Faranah,Khoria,9.9422667,-10.8930333
KT833193|Kho10|GIN|Guinea|2013-11-24,KT833193,GIN,Faranah,Khoria,9.9422667,-10.8930333
DQ832668|GB132|Mouse|Guinea|2003,DQ832668,GIN,Faranah,Gbetaya,9.841017,-11.04015
DQ832667|GB129|Mouse|Guinea|2003,DQ832667,GIN,Faranah,Gbetaya,9.841017,-11.04015
DQ832689|TA817|Mouse|Guinea|2004,DQ832689,GIN,Faranah,Tanganya,10.0004,-10.972783
KP339083|813|Mastomys natalensis|Guinea|2004-2-1,KP339083,GIN,Faranah,Tanganya,10.0004,-10.972783
DQ832684|TA444|Mouse|Guinea|2003,DQ832684,GIN,Faranah,Tanganya,10.0004,-10.972783
KT833182|Dam03|GIN|Guinea|2013-11-15,KT833182,GIN,Faranah,Damania,9.806833,-10.863267
KT833186|Dam38|GIN|Guinea|2013-11-16,KT833186,GIN,Faranah,Damania,9.806833,-10.863267
KT833188|Yar14|GIN|Guinea|2013-11-20,KT833188,GIN,Faranah,Yarawalia,9.95445,-10.7318833
KT833203|Saf01|GIN|Guinea|2013-12-3,KT833203,GIN,Faranah,Safrani,10.0578167,-10.7383667
KT833191|Yar36|GIN|Guinea|2013-11-21,KT833191,GIN,Faranah,Yarawalia,9.95445,-10.7318833
DQ832671|BA302|Mouse|Guinea|2003,DQ832671,GIN,Faranah,Bantou,10.059767,-10.58615
KT833220|Son109|GIN|Guinea|2014-4-9,KT833220,GIN,Faranah,Sonkonia,9.912717,-10.798133
KT833219|Son85|GIN|Guinea|2014-4-8,KT833219,GIN,Faranah,Sonkonia,9.912717,-10.798133
DQ832678|BA378|Mouse|Guinea|2003,DQ832678,GIN,Faranah,Bantou,10.059767,-10.58615
KP339121|1755|Mastomys natalensis|Guinea|2011-10-19,KP339121,GIN,Faranah,Bantou,10.059767,-10.58615
KP339089|936|Mastomys natalensis|Guinea|2004-5-22,KP339089,GIN,Faranah,Bantou,10.059767,-10.58615
DQ832674|BA356|Mouse|Guinea|2003,DQ832674,GIN,Faranah,Bantou,10.059767,-10.58615
KT833205|Bri08|GIN|Guinea|2013-12-14,KT833205,GIN,Faranah,Brissa,10.2168333,-10.6887667
KT833206|Bri39|GIN|Guinea|2013-12-16,KT833206,GIN,Faranah,Brissa,10.2168333,-10.6887667
KT833178|Sok21|GIN|Guinea|2013-11-9,KT833178,GIN,Faranah,Sokourala,10.0567833,-10.6658333
KT833196|Dal02|GIN|Guinea|2013-11-28,KT833196,GIN,Faranah,Dalafilani,10.1431667,-10.60505
KT833198|Dal11|GIN|Guinea|2013-11-28,KT833198,GIN,Faranah,Dalafilani,10.1431667,-10.60505
KT833200|Dal25|GIN|Guinea|2013-11-29,KT833200,GIN,Faranah,Dalafilani,10.1431667,-10.60505
KP339103|1198|Mastomys natalensis|Guinea|2004-10-4,KP339103,GIN,Faranah,Bantou,10.059767,-10.58615
DQ832672|BA350|Mouse|Guinea|2003,DQ832672,GIN,Faranah,Bantou,10.059767,-10.58615
KT833180|Sok32|GIN|Guinea|2013-11-10,KT833180,GIN,Faranah,Sokourala,10.0567833,-10.6658333
KP339122|1770|Mastomys natalensis|Guinea|2011-10-19,KP339122,GIN,Faranah,Bantou,10.059767,-10.58615
DQ832669|BA263|Mouse|Guinea|2003,DQ832669,GIN,Faranah,Bantou,10.059767,-10.58615
KP339126|1840|Mastomys natalensis|Guinea|2011-10-21,KP339126,GIN,Faranah,Bantou,10.059767,-10.58615
KT833213|Sok51|GIN|Guinea|2014-4-3,KT833213,GIN,Faranah,Sokourala,10.0567833,-10.6658333
KT833175|Sok07|GIN|Guinea|2013-11-8,KT833175,GIN,Faranah,Sokourala,10.0567833,-10.6658333
KT833177|Sok18|GIN|Guinea|2013-11-9,KT833177,GIN,Faranah,Sokourala,10.0567833,-10.6658333
KT833176|Sok10|GIN|Guinea|2013-11-8,KT833176,GIN,Faranah,Sokourala,10.0567833,-10.6658333
KT833211|Sok40|GIN|Guinea|2014-4-3,KT833211,GIN,Faranah,Sokourala,10.0567833,-10.6658333
DQ832692|DGD4|Mouse|Guinea|2005,DQ832692,GIN,Gueckedou,Denguedou,8.338811,-10.543925
DQ832694|DGD28|Mouse|Guinea|2005,DQ832694,GIN,Gueckedou,Denguedou,8.338811,-10.543925
MG812631|807987|Human|Liberia|1981,MG812631,LBR,,,NA,NA
AF182267|las807992|Human|Guinea|1997,AF182267,GIN,Faranah,Kissidougou,9.192085,-10.113945
MH732623|GUIN-1739-Mn-2018|Mastomys_natalensis|Guinea|2018,MH732623,GIN,Nzerekore,,7.758615,-8.815928
AF182265|las807998|Human|Guinea|1997,AF182265,GIN,Nzerekore,Nzerekore,7.758615,-8.815928
GU830821|Lib06-174|Human|LIB|2006,GU830821,LBR,,,NA,NA
MH215285|LF18040|Human|Liberia_Monsterrado|2018-03-02,MH215285,LBR,Montserrado,,NA,NA
AY628205|Z148|?|LIB|1981,AY628205,LIB,,,NA,NA
MG812645|806387|Human|Guinea|1981,MG812645,GIN,,,NA,NA
AF182261|las806828|Human|GIN|1981,AF182261,GIN,,,NA,NA
KM821798|G1200_LIB_2010|Human|Liberia|2010,KM821798,LBR,,,NA,NA
KT992417|Mad41|Mouse|Guinea|2014-05-08,KT992417,GIN,Kindia,MadinaOula,9.87,-12.43
KT992421|Mad83|Mouse|Guinea|2014-05-10,KT992421,GIN,Kindia,MadinaOula,9.87,-12.43
KT992416|Mad39|Mouse|Guinea|2014-05-08,KT992416,GIN,Kindia,MadinaOula,9.87,-12.43
KT992419|Mad63|Mouse|Guinea|2014-05-09,KT992419,GIN,Kindia,MadinaOula,9.87,-12.43
KT992420|Mad69|Mouse|Guinea|2014-05-09,KT992420,GIN,Kindia,MadinaOula,9.87,-12.43
AF182256|las803972|Human|Sierra_Leone|1982,AF182256,SLE,Kailahun,Mano,NA,NA
AF182257|las807974|Human|Sierra_Leone|1976,AF182257,SLE,Kailahun,Mobai,7.9935681,-10.7537466
KM821800|G1442_SLE_2011|Human|Sierra_Leone|2011-01-20,KM821800,SLE,Kenema,Tongo,8.2188562,-11.0604289
KM821856|G2431_SLE_2012|Human|Sierra_Leone|2012-04-02,KM821856,SLE,Bo,Gondama,7.86688,-11.70931
GU979508|SL06-2057|Human|SLE|2006,GU979508,SLE,,,NA,NA
KM406543|LM0619|Mastomys_natalensis|SierraLeone|2009-08-08,KM406543,SLE,Bo,Barlie,8.02,-11.58
KM406540|LM0513|Mastomys_natalensis|SierraLeone|2009-08-01,KM406540,SLE,Kenema,Saama,8.28,-11.01
KM821872|G2789_SLE_2012|Human|Sierra_Leone|2012-09-08,KM821872,SLE,,,NA,NA
KM821885|G3034_SLE_2013|Human|Sierra_Leone|2013-02-27,KM821885,SLE,Bo,Bo,7.954896,-11.740823
KM821847|G2363_SLE_2012|Human|Sierra_Leone|2012-02-27,KM821847,SLE,Bo,Gondama,7.86688,-11.70931
KM821802|G1529_SLE_2011|Human|Sierra_Leone|2011-03-02,KM821802,SLE,Bo,Gondama,7.86688,-11.70931
KM821904|G3234_SLE_2013|Human|Sierra_Leone|2013-07-15,KM821904,SLE,Bo,Upper Saama,7.666711,-11.859363
KM821822|G2141_SLE_2011|Human|Sierra_Leone|2011-11-11,KM821822,SLE,Kenema,Ngomba Wandoh,NA,NA
KM821861|G2557_SLE_2012|Human|Sierra_Leone|2012-06-26,KM821861,SLE,Bo,Taninahun Malin,7.891162,-12.086255
KM821869|G2615_SLE_2012|Human|Sierra_Leone|2012-07-24,KM821869,SLE,Bo,Gondama,7.86688,-11.70931
KM821835|G2259_SLE_2012|Human|Sierra_Leone|2012-01-16,KM821835,SLE,Bo,Gondama,7.86688,-11.70931
KM821833|G2230_SLE_2012|Human|Sierra_Leone|2011-12-29,KM821833,SLE,Bo,Gondama,7.86688,-11.70931
KM821871|G2723_SLE_2012|Human|Sierra_Leone|2012-08-21,KM821871,SLE,Bo,Gondama,7.86688,-11.70931
KM821909|G3278_SLE_2013|Human|Sierra_Leone|2013-08-02,KM821909,SLE,Bo,Torpkoi Town,7.9538763,-11.7132483
AY179173|NL|Human|Sierra_Leone|2000-07,AY179173,SLE,,,NA,NA
MG812647|las803209|Human|Sierra_Leone|1975,MG812647,SLE,Kailahun,Segbwema,7.997399,-10.950236
AF182235|las803205|Human|Sierra_Leone|1976,AF182235,SLE,Kailahun,Segbwema,7.997399,-10.950236
AF182233|las802662|Human|Sierra_Leone|1980,AF182233,SLE,Kailahun,Niahun,NA,NA
KM821854|G2427_SLE_2012|Human|Sierra_Leone|2012-03-31,KM821854,SLE,Kenema,Nekabu,7.925974,-11.054267
KM821894|G3151_SLE_2013|Human|Sierra_Leone|2013-06-05,KM821894,SLE,Kenema,Kebawana,7.65,-11.133333
KM821850|G2392_SLE_2012|Human|Sierra_Leone|2012-03-14,KM821850,SLE,Kenema,Patama,NA,NA
KM821890|G3110_SLE_2013|Human|Sierra_Leone|2013,KM821890,SLE,Bombali,Makeni,8.87184,-12.038183
KM821902|G3229_SLE_2013|Human|Sierra_Leone|2013-07-13,KM821902,SLE,Kenema,Kenema,7.862212,-11.196247
MG812639|las806827|Human|Sierra_Leone|1977,MG812639,SLE,Kenema,Gondama,NA,NA
KM821804|G1618_SLE_2011|Human|Sierra_Leone|2011-03-26,KM821804,SLE,Kailahun,Segbwema,7.997399,-10.950236
KM821806|G1646_SLE_2011|Human|Sierra_Leone|2011-04-13,KM821806,SLE,Kenema,Daabu,NA,NA
KM821787|G733_SLE_2010|Human|Sierra_Leone|2010-01-17,KM821787,SLE,Kenema,Panguma,8.184479,-11.134313
AF182237|las9607290|Human|Sierra_Leone|1996,AF182237,SLE,Kailahun,Segbwema,7.997399,-10.950236
KM406554|LM0729|Mastomys_natalensis|SierraLeone|2009-08-15,KM406554,SLE,Kenema,Yawei,7.82,-10.95
KM821859|G2554_SLE_2012|Human|Sierra_Leone|2012-06-24,KM821859,SLE,Kenema,Kenema,7.862212,-11.196247
KM821837|G2263_SLE_2012|Human|Sierra_Leone|2012-01-17,KM821837,SLE,Kailahun,Borbohun,NA,NA
KM821830|G2197_SLE_2011|Human|Sierra_Leone|2011-12-04,KM821830,SLE,Kenema,Panguma,8.184479,-11.134313
KM822111|LM032_SLE_2010|Mouse|Sierra_Leone|2010,KM822111,SLE,,,NA,NA
KM406538|LM0396|Mastomys_natalensis|SierraLeone|2009-07-22,KM406538,SLE,Kenema,Ngiehun,8.18,-11.08
KM821777|G610_SLE_2009|Human|Sierra_Leone|2009-08-28,KM821777,SLE,Kenema,Tongo,8.2188562,-11.0604289
KM821820|G1960_SLE_2011|Human|Sierra_Leone|2011-09-11,KM821820,SLE,Kenema,Tongo Field,NA,NA
KM821814|G1792_SLE_2011|Human|Sierra_Leone|2011-06-17,KM821814,SLE,Kenema,Tongo,8.2188562,-11.0604289
KM821878|G2934_SLE_2012|Human|Sierra_Leone|2012-11-27,KM821878,SLE,Kenema,Tongo,8.2188562,-11.0604289
KM821863|G2565_SLE_2012|Human|Sierra_Leone|2012-07-02,KM821863,SLE,Kenema,Tongo Field,NA,NA
AF182253|las801100|Mouse|Sierra_Leone|1978,AF182253,SLE,Kenema,Tongo,8.2188562,-11.0604289
KM821775|G503_SLE_2009|Human|Sierra_Leone|2009-04-30,KM821775,SLE,Kenema,Tongo,8.2188562,-11.0604289
KM821845|G2318_SLE_2012|Human|Sierra_Leone|2012-02-12,KM821845,SLE,Kenema,Ngiehun,8.18,-11.08
KM821773|G502_SLE_2009|Human|Sierra_Leone|2009-04-29,KM821773,SLE,Kenema,Kenema,7.862212,-11.196247
KM821794|G1180_SLE_2010|Human|Sierra_Leone|2010-09-02,KM821794,SLE,Kenema,Melegohun,NA,NA
KM821824|G2147_SLE_2011|Human|Sierra_Leone|2011-11-16,KM821824,SLE,Kenema,Tongo Tongola old town,8.21154,-11.05124
AF182254|las806843|Human|Sierra_Leone|1993,AF182254,SLE,Kenema,Tongo,8.2188562,-11.0604289
AF182239|las801105|Mouse|Sierra_Leone|1978,AF182239,SLE,Kailahun,Konia,NA,NA
AF182244|las801108|Mouse|Sierra_Leone|1978,AF182244,SLE,Kailahun,Konia,NA,NA
KM821882|G3010_SLE_2013|Human|Sierra_Leone|2013-02-05,KM821882,SLE,Kenema,Nyadeyama,8.3188107,-11.3151104
KM821818|G1959_SLE_2011|Human|Sierra_Leone|2011-09-09,KM821818,SLE,Kenema,Kenema,7.862212,-11.196247
KM821877|G2906_SLE_2012|Human|Sierra_Leone|2012-11-03,KM821877,SLE,Kenema,Kenema,7.862212,-11.196247
KM822113|LM222_SLE_2010|Mouse|Sierra_Leone|2010,KM822113,SLE,,,NA,NA
KM822124|LM778_SLE_2012|Mouse|Sierra_Leone|2012,KM822124,SLE,,,NA,NA
KM822120|LM774_SLE_2012|Mouse|Sierra_Leone|2012,KM822120,SLE,,,NA,NA
KM821826|G2165_SLE_2011|Human|Sierra_Leone|2011-11-18,KM821826,SLE,Kenema,Panguma,8.184479,-11.134313
KM821828|G2184_SLE_2011|Human|Sierra_Leone|2011-11-26,KM821828,SLE,Bo,Gondama,7.86688,-11.70931
KM822118|LM771_SLE_2012|Mouse|Sierra_Leone|2012,KM822118,SLE,,,NA,NA
MN275173|LF2384-NS-DIA-1|Human|SLE|2012,MN275173,SLE,,,NA,NA
KM821848|G2384_SLE_2012|Human|Sierra_Leone|2012-03-09,KM821848,SLE,Kailahun,Segbwema,7.997399,-10.950236
AF182245|las807875|Mouse|Sierra_Leone|1982,AF182245,SLE,,,NA,NA
AF182246|las807976|Human|Sierra_Leone|1977,AF182246,SLE,Kenema,Tongo,8.2188562,-11.0604289
KM821792|G808_SLE_2010|Human|Sierra_Leone|2010-02-27,KM821792,SLE,Kenema,Panguma,8.184479,-11.134313
KM821874|G2868_SLE_2012|Human|Sierra_Leone|2012-10-08,KM821874,SLE,Kenema,Kpetema-Brewaya,8.355083,-11.324278
KM821899|G3206_SLE_2013|Human|Sierra_Leone|2013-07-01,KM821899,SLE,Kenema,Panguma,8.184479,-11.134313
KM821876|G2903_SLE_2012|Human|Sierra_Leone|2012-10-30,KM821876,SLE,Bo,Gondama,7.86688,-11.70931
KM821779|G636_SLE_2009|Human|Sierra_Leone|2009-10-09,KM821779,SLE,Kenema,Kono Gorama,8.38727,-11.0879
KM821843|G2315_SLE_2012|Human|Sierra_Leone|2012-02-10,KM821843,SLE,Kenema,Panguma,8.184479,-11.134313
AF182247|las803211|Human|Sierra_Leone|1972,AF182247,SLE,Kenema,Panguma,8.184479,-11.134313
AF182250|las803206|Human|Sierra_Leone|1976,AF182250,SLE,Kenema,Panguma,8.184479,-11.134313
AF182252|las9607300|Human|Sierra_Leone|1996,AF182252,SLE,Kenema,Tongo,8.2188562,-11.0604289
KM821812|G1774_SLE_2011|Human|Sierra_Leone|2011-06-11,KM821812,SLE,Kenema,Largo,8.05,-11.11
KM821832|G2222_SLE_2011|Human|Sierra_Leone|2011-12-19,KM821832,SLE,Kenema,Largo,8.05,-11.11
KM821790|G806_SLE_2010|Human|Sierra_Leone|2010-02-26,KM821790,SLE,Kenema,Panguma,8.184479,-11.134313
AF182255|las9607302|Human|Sierra_Leone|1996,AF182255,SLE,Kenema,Tongo,8.2188562,-11.0604289
KM821783|G692_SLE_2009|Human|Sierra_Leone|2009-12-31,KM821783,SLE,Kenema,,NA,NA
KM821815|G1897_SLE_2011|Human|Sierra_Leone|2011-07-27,KM821815,SLE,Kenema,Segbwema,7.997399,-10.950236
KM821867|G2612_SLE_2012|Human|Sierra_Leone|2012-07-23,KM821867,SLE,Kenema,Kenema,7.862212,-11.196247
KM821839|G2280_SLE_2012|Human|Sierra_Leone|2012-01-23,KM821839,SLE,Kenema,Pegama,8.116599,-11.174797
KM821884|G3016_SLE_2013|Human|Sierra_Leone|2013-02-14,KM821884,SLE,Kenema,Panguma,8.184479,-11.134313
KM821857|G2511_SLE_2012|Human|Sierra_Leone|2012-05-18,KM821857,SLE,Kenema,Kamboma,8.356385,-11.433121
KM821816|G1932_SLE_2011|Human|Sierra_Leone|2011-08-24,KM821816,SLE,Bo,Gondama,7.86688,-11.70931
KM821808|G1647_SLE_2011|Human|Sierra_Leone|2011-04-15,KM821808,SLE,Kenema,Kenema,7.862212,-11.196247
KM821886|G3076_SLE_2013|Human|Sierra_Leone|2013-04-15,KM821886,SLE,Kenema,Panguma,8.184479,-11.134313
KM821852|G2405_SLE_2012|Human|Sierra_Leone|2012-03-27,KM821852,SLE,Kenema,Kenema,7.862212,-11.196247
KM821810|G1727_SLE_2011|Human|Sierra_Leone|2011-05-31,KM821810,SLE,Kenema,Lalehun,NA,NA
KM822117|LM765_SLE_2012|Mouse|Sierra_Leone|2012,KM822117,SLE,,,NA,NA
KM821796|G1190_SLE_2010|Human|Sierra_Leone|2010-09-09,KM821796,SLE,Kenema,Melegohun,NA,NA
KM821880|G2944_SLE_2012|Human|Sierra_Leone|2012-12-05,KM821880,SLE,Kenema,Seleima,NA,NA
KM821887|G3101_SLE_2013|Human|Sierra_Leone|2013-05-11,KM821887,SLE,Kenema,Gbado,8.007853,-11.278946
KM822130|Z0947_SLE_2011|Mouse|Sierra_Leone|2011,KM822130,SLE,,,NA,NA
KM821910|G3283_SLE_2013|Human|Sierra_Leone|2013-08-05,KM821910,SLE,Kenema,Kenema,7.862212,-11.196247
KM821892|G3148_SLE_2013|Human|Sierra_Leone|2013-06-01,KM821892,SLE,Kenema,Panguma,8.184479,-11.134313
KM821895|G3157_SLE_2013|Human|Sierra_Leone|2013-06-11,KM821895,SLE,Kenema,Jamboma,NA,NA
