segment_S,accession_S,country,admin1,location,latitude,longitude
AF181854|las803213|Human|Nigeria|1974-02,AF181854,NGA,Anambra,Onitsha,6.166667,6.783333
AF182220|las803214|Human|Nigeria|1974,AF182220,NGA,Anambra,Onitsha,6.166667,6.783333
AF182221|las806316|Human|Nigeria|1989,AF182221,NGA,Edo,Ekpoma,6.75,6.133333
AF182222|las808031|Human|Nigeria|1994,AF182222,NGA,Edo,Ekpoma,6.75,6.133333
AF182223|las806320|Human|Nigeria|1989,AF182223,NGA,Edo,Ekpoma,6.75,6.133333
AF182225|las806321|Human|Nigeria|1989,AF182225,NGA,Imo,Owerri,5.485,7.035
AF182226|las806322|Human|Nigeria|1989,AF182226,NGA,Imo,Owerri,5.485,7.035
AF182227|las803787|Human|Nigeria|1981,AF182227,NGA,,,NA,NA
AF182228|las806791|Human|Nigeria|1993,AF182228,NGA,Plateau,Jos,9.916667,8.890278
AF182229|las803210|Human|Nigeria|1975,AF182229,NGA,Plateau,Vom,9.737692,8.808975
AF182230|las803212|Human|Nigeria|1976,AF182230,NGA,Plateau,Vom,9.737692,8.808975
AF182232|las803208|Human|Nigeria|1975,AF182232,NGA,Kaduna,Zonkwa,9.783333,8.283333
AF182233|las802662|Human|Sierra_Leone|1980,AF182233,SLE,Kailahun,Niahun,NA,NA
AF182235|las803205|Human|Sierra_Leone|1976,AF182235,SLE,Kailahun,Segbwema,7.997399,-10.950236
AF182237|las9607290|Human|Sierra_Leone|1996,AF182237,SLE,Kailahun,Segbwema,7.997399,-10.950236
AF182239|las801105|Mouse|Sierra_Leone|1978,AF182239,SLE,Kailahun,Konia,NA,NA
AF182244|las801108|Mouse|Sierra_Leone|1978,AF182244,SLE,Kailahun,Konia,NA,NA
AF182245|las807875|Mouse|Sierra_Leone|1982,AF182245,SLE,,,NA,NA
AF182246|las807976|Human|Sierra_Leone|1977,AF182246,SLE,Kenema,Tongo,8.2188562,-11.0604289
AF182247|las803211|Human|Sierra_Leone|1972,AF182247,SLE,Kenema,Panguma,8.184479,-11.134313
AF182250|las803206|Human|Sierra_Leone|1976,AF182250,SLE,Kenema,Panguma,8.184479,-11.134313
AF182252|las9607300|Human|Sierra_Leone|1996,AF182252,SLE,Kenema,Tongo,8.2188562,-11.0604289
AF182253|las801100|Mouse|Sierra_Leone|1978,AF182253,SLE,Kenema,Tongo,8.2188562,-11.0604289
AF182254|las806843|Human|Sierra_Leone|1993,AF182254,SLE,Kenema,Tongo,8.2188562,-11.0604289
AF182255|las9607302|Human|Sierra_Leone|1996,AF182255,SLE,Kenema,Tongo,8.2188562,-11.0604289
AF182256|las803972|Human|Sierra_Leone|1982,AF182256,SLE,Kailahun,Mano,NA,NA
AF182257|las807974|Human|Sierra_Leone|1976,AF182257,SLE,Kailahun,Mobai,7.9935681,-10.7537466
AF182261|las806828|Human|GIN|1981,AF182261,GIN,,,NA,NA
AF182265|las807998|Human|Guinea|1997,AF182265,GIN,Nzerekore,Nzerekore,7.758615,-8.815928
AF182267|las807992|Human|Guinea|1997,AF182267,GIN,Faranah,Kissidougou,9.192085,-10.113945
AF182269|las807868|Human|Guinea|1996,AF182269,GIN,Faranah,Faranah,10.045385,-10.750165
AF182270|las808255|Mouse|Guinea|1996,AF182270,GIN,Faranah,Faranah,10.045385,-10.750165
AF182272|las9608911|Human|Nigeria|1996,AF182272,NGA,Plateau,Jos,9.916667,8.890278
AF333969|CSF|Human|NIG|2000-03-28,AF333969,NGA,Plateau,Jos,9.916667,8.890278
PB1_NGA-Plateau_Jos_Hs_1982-01,AJ969405,NGA,Plateau,Jos,9.916667,8.890278
AY179173|NL|Human|Sierra_Leone|2000-07,AY179173,SLE,,,NA,NA
AY628205|Z148|?|LIB|1981,AY628205,LIB,,,NA,NA
AY628206|Weller|?|NIG|1981,AY628206,NGA,,,NA,NA
DQ832667|GB129|Mouse|Guinea|2003,DQ832667,GIN,Faranah,Gbetaya,9.841017,-11.04015
DQ832668|GB132|Mouse|Guinea|2003,DQ832668,GIN,Faranah,Gbetaya,9.841017,-11.04015
DQ832669|BA263|Mouse|Guinea|2003,DQ832669,GIN,Faranah,Bantou,10.059767,-10.58615
DQ832671|BA302|Mouse|Guinea|2003,DQ832671,GIN,Faranah,Bantou,10.059767,-10.58615
DQ832672|BA350|Mouse|Guinea|2003,DQ832672,GIN,Faranah,Bantou,10.059767,-10.58615
DQ832674|BA356|Mouse|Guinea|2003,DQ832674,GIN,Faranah,Bantou,10.059767,-10.58615
DQ832676|BA375|Mouse|Guinea|2003,DQ832676,GIN,Faranah,Bantou,10.059767,-10.58615
DQ832678|BA378|Mouse|Guinea|2003,DQ832678,GIN,Faranah,Bantou,10.059767,-10.58615
DQ832682|TA416|Mouse|Guinea|2003,DQ832682,GIN,Faranah,Tanganya,10.0004,-10.972783
DQ832683|TA341|Mouse|Guinea|2003,DQ832683,GIN,Faranah,Tanganya,10.0004,-10.972783
DQ832684|TA444|Mouse|Guinea|2003,DQ832684,GIN,Faranah,Tanganya,10.0004,-10.972783
DQ832686|TA464|Mouse|Guinea|2003,DQ832686,GIN,Faranah,Tanganya,10.0004,-10.972783
DQ832689|TA817|Mouse|Guinea|2004,DQ832689,GIN,Faranah,Tanganya,10.0004,-10.972783
DQ832690|TA820|Mouse|Guinea|2004,DQ832690,GIN,Faranah,Tanganya,10.0004,-10.972783
DQ832692|DGD4|Mouse|Guinea|2005,DQ832692,GIN,Gueckedou,Denguedou,8.338811,-10.543925
DQ832694|DGD28|Mouse|Guinea|2005,DQ832694,GIN,Gueckedou,Denguedou,8.338811,-10.543925
FJ824031|Soromba|Human|MLI|2009-02-17,FJ824031,MLI,,Soromba,10.5891,-7.1558
GA391_NGA-Kaduna_Zaria_Hs_1977-11,GA391_NGA-Kaduna_Zaria_Hs_1977-11,NGA,Kaduna,Zaria,11.08477,7.68839
GU481064|Nig08-02|Human|Nigeria|2008-01-02,GU481064,NGA,Federal Capital Territory,Abuja,9.050211,7.396413
GU481074|Nig08_A37|Human|Nigeria|2008-02,GU481074,NGA,Edo,Irrua,6.738429,6.221953
GU481076|Nig08_A41|Human|Nigeria|2008-02,GU481076,NGA,Edo,Irrua,6.738429,6.221953
GU481078|Nig08_A47|Human|Nigeria|2008-02,GU481078,NGA,Edo,Uromi,6.712259,6.329005
GU573547|Soromba_R240|Mouse|Mali|2009,GU573547,MLI,,Soromba,10.5891,-7.1558
GU573551|Soromba_R245|Mouse|Mali|2009,GU573551,MLI,,Soromba,10.5891,-7.1558
GU830812|Lib04-2739|Human|LIB|2004,GU830812,LBR,,,NA,NA
GU830814|Lib05-406/90|Human|LIB|2005,GU830814,LBR,,,NA,NA
GU830815|Lib05-1580/121|Human|LIB|2005,GU830815,LBR,,,NA,NA
GU830816|Lib05-2096/127|Human|LIB|2005,GU830816,LBR,,,NA,NA
GU830817|Lib05-2406/129|Human|LIB|2005,GU830817,LBR,,,NA,NA
GU830818|Lib05-3800|Human|LIB|2005,GU830818,LBR,,,NA,NA
GU830819|Lib05-4094|Human|LIB|2005,GU830819,LBR,,,NA,NA
GU830820|Lib06-120|Human|LIB|2006,GU830820,LBR,,,NA,NA
GU830821|Lib06-174|Human|LIB|2006,GU830821,LBR,,,NA,NA
GU830822|Lib06-295|Human|LIB|2006,GU830822,LBR,,,NA,NA
GU830823|Lib06-383|Human|LIB|2006,GU830823,LBR,,,NA,NA
GU830824|Lib06-1099|Human|Liberia|2006,GU830824,LBR,,,NA,NA
GU830825|Lib06-1101|Human|Liberia|2006,GU830825,LBR,,,NA,NA
GU830826|Lib06-1826|Human|LIB|2006,GU830826,LBR,,,NA,NA
GU830827|Lib06-2442|Human|LIB|2006,GU830827,LBR,,,NA,NA
GU830828|Lib07-29|Human|LIB|2007,GU830828,LBR,,,NA,NA
GU830829|Lib07-30|Human|LIB|2007,GU830829,LBR,,,NA,NA
GU830830|Lib07-54|Human|LIB|2007,GU830830,LBR,,,NA,NA
GU830831|Lib07-55|Human|LIB|2007,GU830831,LBR,,,NA,NA
GU830832|Lib07-56|Human|LIB|2007,GU830832,LBR,,,NA,NA
GU830833|Lib07-206|Human|LIB|2007,GU830833,LBR,,,NA,NA
GU830834|Lib07-444|Human|LIB|2007,GU830834,LBR,,,NA,NA
GU830835|Lib07-515|Human|LIB|2007,GU830835,LBR,,,NA,NA
GU830836|Lib07-612|Human|LIB|2007,GU830836,LBR,,,NA,NA
GU830837|Lib07-624|Human|LIB|2007,GU830837,LBR,,,NA,NA
GU979508|SL06-2057|Human|SLE|2006,GU979508,SLE,,,NA,NA
KF478766|Bamba_R114|Mouse|Mali|2012-03,KF478766,MLI,,Bamba,10.3831,-7.1517
KF478767|Komina_R16|Mouse|Mali|2012-03-03,KF478767,MLI,,Komina,10.6164,-7.1583
KF478768|Ouoma-R123|Mn|NGA|2012-03,KF478768,MLI,,Ouoma,10.397222,-7.259167
KF478769|Soromba-R30|Mn|NGA|2012-03-03,KF478769,MLI,,Soromba,10.5891,-7.1558
KM406538|LM0396|Mastomys_natalensis|SierraLeone|2009-07-22,KM406538,SLE,Kenema,Ngiehun,8.18,-11.08
KM406540|LM0513|Mastomys_natalensis|SierraLeone|2009-08-01,KM406540,SLE,Kenema,Saama,8.28,-11.01
KM406543|LM0619|Mastomys_natalensis|SierraLeone|2009-08-08,KM406543,SLE,Bo,Barlie,8.02,-11.58
KM406554|LM0729|Mastomys_natalensis|SierraLeone|2009-08-15,KM406554,SLE,Kenema,Yawei,7.82,-10.95
KM821773|G502_SLE_2009|Human|Sierra_Leone|2009-04-29,KM821773,SLE,Kenema,Kenema,7.862212,-11.196247
KM821775|G503_SLE_2009|Human|Sierra_Leone|2009-04-30,KM821775,SLE,Kenema,Tongo,8.2188562,-11.0604289
KM821777|G610_SLE_2009|Human|Sierra_Leone|2009-08-28,KM821777,SLE,Kenema,Tongo,8.2188562,-11.0604289
KM821779|G636_SLE_2009|Human|Sierra_Leone|2009-10-09,KM821779,SLE,Kenema,Kono Gorama,8.38727,-11.0879
KM821783|G692_SLE_2009|Human|Sierra_Leone|2009-12-31,KM821783,SLE,Kenema,,NA,NA
KM821787|G733_SLE_2010|Human|Sierra_Leone|2010-01-17,KM821787,SLE,Kenema,Panguma,8.184479,-11.134313
KM821790|G806_SLE_2010|Human|Sierra_Leone|2010-02-26,KM821790,SLE,Kenema,Panguma,8.184479,-11.134313
KM821792|G808_SLE_2010|Human|Sierra_Leone|2010-02-27,KM821792,SLE,Kenema,Panguma,8.184479,-11.134313
KM821794|G1180_SLE_2010|Human|Sierra_Leone|2010-09-02,KM821794,SLE,Kenema,Melegohun,NA,NA
KM821796|G1190_SLE_2010|Human|Sierra_Leone|2010-09-09,KM821796,SLE,Kenema,Melegohun,NA,NA
KM821798|G1200_LIB_2010|Human|Liberia|2010,KM821798,LBR,,,NA,NA
KM821800|G1442_SLE_2011|Human|Sierra_Leone|2011-01-20,KM821800,SLE,Kenema,Tongo,8.2188562,-11.0604289
KM821802|G1529_SLE_2011|Human|Sierra_Leone|2011-03-02,KM821802,SLE,Bo,Gondama,7.86688,-11.70931
KM821804|G1618_SLE_2011|Human|Sierra_Leone|2011-03-26,KM821804,SLE,Kailahun,Segbwema,7.997399,-10.950236
KM821806|G1646_SLE_2011|Human|Sierra_Leone|2011-04-13,KM821806,SLE,Kenema,Daabu,NA,NA
KM821808|G1647_SLE_2011|Human|Sierra_Leone|2011-04-15,KM821808,SLE,Kenema,Kenema,7.862212,-11.196247
KM821810|G1727_SLE_2011|Human|Sierra_Leone|2011-05-31,KM821810,SLE,Kenema,Lalehun,NA,NA
KM821812|G1774_SLE_2011|Human|Sierra_Leone|2011-06-11,KM821812,SLE,Kenema,Largo,8.05,-11.11
KM821814|G1792_SLE_2011|Human|Sierra_Leone|2011-06-17,KM821814,SLE,Kenema,Tongo,8.2188562,-11.0604289
KM821815|G1897_SLE_2011|Human|Sierra_Leone|2011-07-27,KM821815,SLE,Kenema,Segbwema,7.997399,-10.950236
KM821816|G1932_SLE_2011|Human|Sierra_Leone|2011-08-24,KM821816,SLE,Bo,Gondama,7.86688,-11.70931
KM821818|G1959_SLE_2011|Human|Sierra_Leone|2011-09-09,KM821818,SLE,Kenema,Kenema,7.862212,-11.196247
KM821820|G1960_SLE_2011|Human|Sierra_Leone|2011-09-11,KM821820,SLE,Kenema,Tongo Field,NA,NA
KM821822|G2141_SLE_2011|Human|Sierra_Leone|2011-11-11,KM821822,SLE,Kenema,Ngomba Wandoh,NA,NA
KM821824|G2147_SLE_2011|Human|Sierra_Leone|2011-11-16,KM821824,SLE,Kenema,Tongo Tongola old town,8.21154,-11.05124
KM821826|G2165_SLE_2011|Human|Sierra_Leone|2011-11-18,KM821826,SLE,Kenema,Panguma,8.184479,-11.134313
KM821828|G2184_SLE_2011|Human|Sierra_Leone|2011-11-26,KM821828,SLE,Bo,Gondama,7.86688,-11.70931
KM821830|G2197_SLE_2011|Human|Sierra_Leone|2011-12-04,KM821830,SLE,Kenema,Panguma,8.184479,-11.134313
KM821832|G2222_SLE_2011|Human|Sierra_Leone|2011-12-19,KM821832,SLE,Kenema,Largo,8.05,-11.11
KM821833|G2230_SLE_2012|Human|Sierra_Leone|2011-12-29,KM821833,SLE,Bo,Gondama,7.86688,-11.70931
KM821835|G2259_SLE_2012|Human|Sierra_Leone|2012-01-16,KM821835,SLE,Bo,Gondama,7.86688,-11.70931
KM821837|G2263_SLE_2012|Human|Sierra_Leone|2012-01-17,KM821837,SLE,Kailahun,Borbohun,NA,NA
KM821839|G2280_SLE_2012|Human|Sierra_Leone|2012-01-23,KM821839,SLE,Kenema,Pegama,8.116599,-11.174797
KM821843|G2315_SLE_2012|Human|Sierra_Leone|2012-02-10,KM821843,SLE,Kenema,Panguma,8.184479,-11.134313
KM821845|G2318_SLE_2012|Human|Sierra_Leone|2012-02-12,KM821845,SLE,Kenema,Ngiehun,8.18,-11.08
KM821847|G2363_SLE_2012|Human|Sierra_Leone|2012-02-27,KM821847,SLE,Bo,Gondama,7.86688,-11.70931
KM821848|G2384_SLE_2012|Human|Sierra_Leone|2012-03-09,KM821848,SLE,Kailahun,Segbwema,7.997399,-10.950236
KM821850|G2392_SLE_2012|Human|Sierra_Leone|2012-03-14,KM821850,SLE,Kenema,Patama,NA,NA
KM821852|G2405_SLE_2012|Human|Sierra_Leone|2012-03-27,KM821852,SLE,Kenema,Kenema,7.862212,-11.196247
KM821854|G2427_SLE_2012|Human|Sierra_Leone|2012-03-31,KM821854,SLE,Kenema,Nekabu,7.925974,-11.054267
KM821856|G2431_SLE_2012|Human|Sierra_Leone|2012-04-02,KM821856,SLE,Bo,Gondama,7.86688,-11.70931
KM821857|G2511_SLE_2012|Human|Sierra_Leone|2012-05-18,KM821857,SLE,Kenema,Kamboma,8.356385,-11.433121
KM821859|G2554_SLE_2012|Human|Sierra_Leone|2012-06-24,KM821859,SLE,Kenema,Kenema,7.862212,-11.196247
KM821861|G2557_SLE_2012|Human|Sierra_Leone|2012-06-26,KM821861,SLE,Bo,Taninahun Malin,7.891162,-12.086255
KM821863|G2565_SLE_2012|Human|Sierra_Leone|2012-07-02,KM821863,SLE,Kenema,Tongo Field,NA,NA
KM821867|G2612_SLE_2012|Human|Sierra_Leone|2012-07-23,KM821867,SLE,Kenema,Kenema,7.862212,-11.196247
KM821869|G2615_SLE_2012|Human|Sierra_Leone|2012-07-24,KM821869,SLE,Bo,Gondama,7.86688,-11.70931
KM821871|G2723_SLE_2012|Human|Sierra_Leone|2012-08-21,KM821871,SLE,Bo,Gondama,7.86688,-11.70931
KM821872|G2789_SLE_2012|Human|Sierra_Leone|2012-09-08,KM821872,SLE,,,NA,NA
KM821874|G2868_SLE_2012|Human|Sierra_Leone|2012-10-08,KM821874,SLE,Kenema,Kpetema-Brewaya,8.355083,-11.324278
KM821876|G2903_SLE_2012|Human|Sierra_Leone|2012-10-30,KM821876,SLE,Bo,Gondama,7.86688,-11.70931
KM821877|G2906_SLE_2012|Human|Sierra_Leone|2012-11-03,KM821877,SLE,Kenema,Kenema,7.862212,-11.196247
KM821878|G2934_SLE_2012|Human|Sierra_Leone|2012-11-27,KM821878,SLE,Kenema,Tongo,8.2188562,-11.0604289
KM821880|G2944_SLE_2012|Human|Sierra_Leone|2012-12-05,KM821880,SLE,Kenema,Seleima,NA,NA
KM821882|G3010_SLE_2013|Human|Sierra_Leone|2013-02-05,KM821882,SLE,Kenema,Nyadeyama,8.3188107,-11.3151104
KM821884|G3016_SLE_2013|Human|Sierra_Leone|2013-02-14,KM821884,SLE,Kenema,Panguma,8.184479,-11.134313
KM821885|G3034_SLE_2013|Human|Sierra_Leone|2013-02-27,KM821885,SLE,Bo,Bo,7.954896,-11.740823
KM821886|G3076_SLE_2013|Human|Sierra_Leone|2013-04-15,KM821886,SLE,Kenema,Panguma,8.184479,-11.134313
KM821887|G3101_SLE_2013|Human|Sierra_Leone|2013-05-11,KM821887,SLE,Kenema,Gbado,8.007853,-11.278946
KM821890|G3110_SLE_2013|Human|Sierra_Leone|2013,KM821890,SLE,Bombali,Makeni,8.87184,-12.038183
KM821892|G3148_SLE_2013|Human|Sierra_Leone|2013-06-01,KM821892,SLE,Kenema,Panguma,8.184479,-11.134313
KM821894|G3151_SLE_2013|Human|Sierra_Leone|2013-06-05,KM821894,SLE,Kenema,Kebawana,7.65,-11.133333
KM821895|G3157_SLE_2013|Human|Sierra_Leone|2013-06-11,KM821895,SLE,Kenema,Jamboma,NA,NA
KM821899|G3206_SLE_2013|Human|Sierra_Leone|2013-07-01,KM821899,SLE,Kenema,Panguma,8.184479,-11.134313
KM821902|G3229_SLE_2013|Human|Sierra_Leone|2013-07-13,KM821902,SLE,Kenema,Kenema,7.862212,-11.196247
KM821904|G3234_SLE_2013|Human|Sierra_Leone|2013-07-15,KM821904,SLE,Bo,Upper Saama,7.666711,-11.859363
KM821909|G3278_SLE_2013|Human|Sierra_Leone|2013-08-02,KM821909,SLE,Bo,Torpkoi Town,7.9538763,-11.7132483
KM821910|G3283_SLE_2013|Human|Sierra_Leone|2013-08-05,KM821910,SLE,Kenema,Kenema,7.862212,-11.196247
KM821912|ISTH0009_NIG_2011|Human|Nigeria|2011,KM821912,NGA,,,NA,NA
KM821914|ISTH0012_NIG_2011|Human|Nigeria|2011,KM821914,NGA,,,NA,NA
KM821916|ISTH0047_NIG_2011|Human|Nigeria|2011,KM821916,NGA,,,NA,NA
KM821918|ISTH0073_NIG_2011|Human|Nigeria|2011,KM821918,NGA,,,NA,NA
KM821920|ISTH0230_NIG_2011|Human|Nigeria|2011,KM821920,NGA,,,NA,NA
KM821922|ISTH0531_NIG_2011|Human|Nigeria|2011,KM821922,NGA,,,NA,NA
KM821924|ISTH0595_NIG_2011|Human|Nigeria|2011,KM821924,NGA,,,NA,NA
KM821925|ISTH0964_NIG_2011|Human|Nigeria|2011,KM821925,NGA,,,NA,NA
KM821927|ISTH1003_NIG_2011|Human|Nigeria|2011,KM821927,NGA,,,NA,NA
KM821929|ISTH1038_NIG_2011|Human|Nigeria|2011,KM821929,NGA,,,NA,NA
KM821931|ISTH1048_NIG_2011|Human|Nigeria|2011,KM821931,NGA,,,NA,NA
KM821933|ISTH1058_NIG_2011|Human|Nigeria|2011,KM821933,NGA,,,NA,NA
KM821935|ISTH1064_NIG_2011|Human|Nigeria|2011,KM821935,NGA,,,NA,NA
KM821937|ISTH1069_NIG_2011|Human|Nigeria|2011,KM821937,NGA,,,NA,NA
KM821939|ISTH1096_NIG_2012|Human|Nigeria|2012,KM821939,NGA,,,NA,NA
KM821941|ISTH1107_NIG_2012|Human|Nigeria|2012,KM821941,NGA,,,NA,NA
KM821943|ISTH1111_NIG_2011|Human|Nigeria|2011,KM821943,NGA,,,NA,NA
KM821945|ISTH1121_NIG_2012|Human|Nigeria|2012,KM821945,NGA,,,NA,NA
KM821947|ISTH1129_NIG_2012|Human|Nigeria|2012,KM821947,NGA,,,NA,NA
KM821949|ISTH1137_NIG_2011|Human|Nigeria|2011,KM821949,NGA,,,NA,NA
KM821951|ISTH2010_NIG_2012|Human|Nigeria|2012,KM821951,NGA,,,NA,NA
KM821953|ISTH2016_NIG_2012|Human|Nigeria|2012,KM821953,NGA,,,NA,NA
KM821955|ISTH2020_NIG_2012|Human|Nigeria|2012,KM821955,NGA,,,NA,NA
KM821957|ISTH2025_NIG_2012|Human|Nigeria|2012,KM821957,NGA,,,NA,NA
KM821959|ISTH2031_NIG_2012|Human|Nigeria|2012,KM821959,NGA,,,NA,NA
KM821961|ISTH2037_NIG_2012|Human|Nigeria|2012,KM821961,NGA,,,NA,NA
KM821963|ISTH2042_NIG_2012|Human|Nigeria|2012,KM821963,NGA,,,NA,NA
KM821965|ISTH2046_NIG_2012|Human|Nigeria|2012,KM821965,NGA,,,NA,NA
KM821967|ISTH2050_NIG_2012|Human|Nigeria|2012,KM821967,NGA,,,NA,NA
KM821969|ISTH2057_NIG_2012|Human|Nigeria|2012,KM821969,NGA,,,NA,NA
KM821971|ISTH2061_NIG_2012|Human|Nigeria|2012,KM821971,NGA,,,NA,NA
KM821972|ISTH2064_NIG_2012|Human|Nigeria|2012,KM821972,NGA,,,NA,NA
KM821979|ISTH2094_NIG_2012|Human|Nigeria|2012,KM821979,NGA,,,NA,NA
KM821980|ISTH2121_NIG_2012|Human|Nigeria|2012,KM821980,NGA,,,NA,NA
KM821982|ISTH2129_NIG_2012|Human|Nigeria|2012,KM821982,NGA,,,NA,NA
KM821984|ISTH2217_NIG_2012|Human|Nigeria|2012,KM821984,NGA,,,NA,NA
KM821986|ISTH2271_NIG_2012|Human|Nigeria|2012,KM821986,NGA,,,NA,NA
KM821988|ISTH2304_NIG_2012|Human|Nigeria|2012,KM821988,NGA,,,NA,NA
KM821990|ISTH2312_NIG_2012|Human|Nigeria|2012,KM821990,NGA,,,NA,NA
KM821992|ISTH2316_NIG_2012|Human|Nigeria|2012,KM821992,NGA,,,NA,NA
KM821994|ISTH2334_NIG_2012|Human|Nigeria|2012,KM821994,NGA,,,NA,NA
KM821996|ISTH2358_NIG_2012|Human|Nigeria|2012,KM821996,NGA,,,NA,NA
KM821998|ISTH2376_NIG_2012|Human|Nigeria|2012,KM821998,NGA,,,NA,NA
KM822000|LASV003_NIG_2008|Human|Nigeria|2008,KM822000,NGA,,,NA,NA
KM822002|LASV006_NIG_2008|Human|Nigeria|2008,KM822002,NGA,,,NA,NA
KM822004|LASV035_NIG_2009|Human|Nigeria|2009,KM822004,NGA,,,NA,NA
KM822006|LASV042_NIG_2009|Human|Nigeria|2009,KM822006,NGA,,,NA,NA
KM822008|LASV045_NIG_2009|Human|Nigeria|2009,KM822008,NGA,,,NA,NA
KM822010|LASV046_NIG_2009|Human|Nigeria|2009,KM822010,NGA,,,NA,NA
KM822012|LASV049_NIG_2009|Human|Nigeria|2009,KM822012,NGA,,,NA,NA
KM822014|LASV052_NIG_2008|Human|Nigeria|2008,KM822014,NGA,,,NA,NA
KM822016|LASV056_NIG_2008|Human|Nigeria|2008,KM822016,NGA,,,NA,NA
KM822018|LASV058_NIG_2008|Human|Nigeria|2008,KM822018,NGA,,,NA,NA
KM822020|LASV063_NIG_2009|Human|Nigeria|2009,KM822020,NGA,,,NA,NA
KM822022|LASV221_NIG_2010|Human|Nigeria|2010,KM822022,NGA,,,NA,NA
KM822023|LASV224_NIG_2010|Human|Nigeria|2010,KM822023,NGA,,,NA,NA
KM822025|LASV225_NIG_2010|Human|Nigeria|2010,KM822025,NGA,,,NA,NA
KM822027|LASV229_NIG_2010|Human|Nigeria|2010,KM822027,NGA,,,NA,NA
KM822029|LASV237_NIG_2010|Human|Nigeria|2010,KM822029,NGA,,,NA,NA
KM822031|LASV239_NIG_2010|Human|Nigeria|2010,KM822031,NGA,,,NA,NA
KM822033|LASV241_NIG_2011|Human|Nigeria|2011,KM822033,NGA,,,NA,NA
KM822035|LASV242_NIG_2010|Human|Nigeria|2010,KM822035,NGA,,,NA,NA
KM822037|LASV245_NIG_2011|Human|Nigeria|2011,KM822037,NGA,,,NA,NA
KM822039|LASV246_NIG_2010|Human|Nigeria|2010,KM822039,NGA,,,NA,NA
KM822041|LASV250_NIG_2011|Human|Nigeria|2011,KM822041,NGA,,,NA,NA
KM822043|LASV251_NIG_2010|Human|Nigeria|2010,KM822043,NGA,,,NA,NA
KM822045|LASV253_NIG_2011|Human|Nigeria|2011,KM822045,NGA,,,NA,NA
KM822047|LASV254_NIG_2011|Human|Nigeria|2011,KM822047,NGA,,,NA,NA
KM822049|LASV256_NIG_2010|Human|Nigeria|2010,KM822049,NGA,,,NA,NA
KM822051|LASV263_NIG_2011|Human|Nigeria|2011,KM822051,NGA,,,NA,NA
KM822053|LASV267_NIG_2010|Human|Nigeria|2010,KM822053,NGA,,,NA,NA
KM822055|LASV271_NIG_2010|Human|Nigeria|2010,KM822055,NGA,,,NA,NA
KM822057|LASV274_NIG_2010|Human|Nigeria|2010,KM822057,NGA,,,NA,NA
KM822059|LASV711_NIG_2009|Human|Nigeria|2009,KM822059,NGA,,,NA,NA
KM822060|LASV716_NIG_2009|Human|Nigeria|2009,KM822060,NGA,,,NA,NA
KM822062|LASV719_NIG_2009|Human|Nigeria|2009,KM822062,NGA,,,NA,NA
KM822063|LASV736_NIG_2009|Human|Nigeria|2009,KM822063,NGA,,,NA,NA
KM822065|LASV737_NIG_2009|Human|Nigeria|2009,KM822065,NGA,,,NA,NA
KM822066|LASV738_NIG_2009|Human|Nigeria|2009,KM822066,NGA,,,NA,NA
KM822069|LASV966_NIG_2009|Human|Nigeria|2009,KM822069,NGA,,,NA,NA
KM822071|LASV967_NIG_2009|Human|Nigeria|2009,KM822071,NGA,,,NA,NA
KM822072|LASV969_NIG_2009|Human|Nigeria|2009,KM822072,NGA,,,NA,NA
KM822074|LASV971_NIG_2009|Human|Nigeria|2009,KM822074,NGA,,,NA,NA
KM822076|LASV975_NIG_2009|Human|Nigeria|2009,KM822076,NGA,,,NA,NA
KM822078|LASV976_NIG_2009|Human|Nigeria|2009,KM822078,NGA,,,NA,NA
KM822080|LASV977_NIG_2009|Human|Nigeria|2009,KM822080,NGA,,,NA,NA
KM822082|LASV978_NIG_2009|Human|Nigeria|2009,KM822082,NGA,,,NA,NA
KM822084|LASV979_NIG_2009|Human|Nigeria|2009,KM822084,NGA,,,NA,NA
KM822086|LASV981_NIG_2009|Human|Nigeria|2009,KM822086,NGA,,,NA,NA
KM822088|LASV982_NIG_2009|Human|Nigeria|2009,KM822088,NGA,,,NA,NA
KM822089|LASV988_NIG_2009|Human|Nigeria|2009,KM822089,NGA,,,NA,NA
KM822091|LASV989_NIG_2009|Human|Nigeria|2009,KM822091,NGA,,,NA,NA
KM822093|LASV990_NIG_2009|Human|Nigeria|2009,KM822093,NGA,,,NA,NA
KM822095|LASV991_NIG_2009|Human|Nigeria|2009,KM822095,NGA,,,NA,NA
KM822099|LASV993_NIG_2009|Human|Nigeria|2009,KM822099,NGA,,,NA,NA
KM822101|LASV1000_NIG_2009|Human|Nigeria|2009,KM822101,NGA,,,NA,NA
KM822103|LASV1008_NIG_2009|Human|Nigeria|2009,KM822103,NGA,,,NA,NA
KM822105|LASV1011_NIG_2009|Human|Nigeria|2009,KM822105,NGA,,,NA,NA
KM822107|LASV1015_NIG_2009|Human|Nigeria|2009,KM822107,NGA,,,NA,NA
KM822109|LASV1016_NIG_2009|Human|Nigeria|2009,KM822109,NGA,,,NA,NA
KM822111|LM032_SLE_2010|Mouse|Sierra_Leone|2010,KM822111,SLE,,,NA,NA
KM822113|LM222_SLE_2010|Mouse|Sierra_Leone|2010,KM822113,SLE,,,NA,NA
KM822117|LM765_SLE_2012|Mouse|Sierra_Leone|2012,KM822117,SLE,,,NA,NA
KM822118|LM771_SLE_2012|Mouse|Sierra_Leone|2012,KM822118,SLE,,,NA,NA
KM822120|LM774_SLE_2012|Mouse|Sierra_Leone|2012,KM822120,SLE,,,NA,NA
KM822124|LM778_SLE_2012|Mouse|Sierra_Leone|2012,KM822124,SLE,,,NA,NA
pinneo_NGA-Borno_Lassa_LS_1969,KM822128,NGA,Borno,Lassa,10.686987,13.272643
KM822130|Z0947_SLE_2011|Mouse|Sierra_Leone|2011,KM822130,SLE,,,NA,NA
KP339054|170|Mastomys natalensis|Guinea|2003-5-23,KP339054,GIN,Faranah,Gbetaya,9.841017,-11.04015
KP339083|813|Mastomys natalensis|Guinea|2004-2-1,KP339083,GIN,Faranah,Tanganya,10.0004,-10.972783
KP339089|936|Mastomys natalensis|Guinea|2004-5-22,KP339089,GIN,Faranah,Bantou,10.059767,-10.58615
KP339103|1198|Mastomys natalensis|Guinea|2004-10-4,KP339103,GIN,Faranah,Bantou,10.059767,-10.58615
KP339121|1755|Mastomys natalensis|Guinea|2011-10-19,KP339121,GIN,Faranah,Bantou,10.059767,-10.58615
KP339122|1770|Mastomys natalensis|Guinea|2011-10-19,KP339122,GIN,Faranah,Bantou,10.059767,-10.58615
KP339126|1840|Mastomys natalensis|Guinea|2011-10-21,KP339126,GIN,Faranah,Bantou,10.059767,-10.58615
KP339127|1858|Mastomys natalensis|Guinea|2011-10-23,KP339127,GIN,Faranah,Tanganya,10.0004,-10.972783
KP339132|1925|Mastomys natalensis|Guinea|2011-10-25,KP339132,GIN,Faranah,Tanganya,10.0004,-10.972783
KP640562|Eguare-Egoro 88|Mastomys natalensis|Nigeria|2011-3-22,KP640562,NGA,Edo,Eguare-Egoro,6.775093,6.077512
KP640563|Eguare-Egoro_97|Mouse|Nigeria|2011-03-22,KP640563,NGA,Edo,Eguare-Egoro,6.775093,6.077512
KP640564|Eguare-Egoro 106|Mastomys natalensis|Nigeria|2011-3-23,KP640564,NGA,Edo,Eguare-Egoro,6.775093,6.077512
KP640566|Eguare-Egoro 240|Mastomys natalensis|Nigeria|2011-10-17,KP640566,NGA,Edo,Eguare-Egoro,6.775093,6.077512
KP640569|Ekpoma 508|Mastomys natalensis|Nigeria|2012-10-18,KP640569,NGA,Edo,Ekpoma,6.75,6.133333
KP640570|Ekpoma 512|Mastomys natalensis|Nigeria|2012-10-18,KP640570,NGA,Edo,Ekpoma,6.75,6.133333
KP640571|Ekpoma 518|Mastomys natalensis|Nigeria|2012-10-18,KP640571,NGA,Edo,Ekpoma,6.75,6.133333
KP640572|Ekpoma 521|Mastomys natalensis|Nigeria|2012-10-18,KP640572,NGA,Edo,Ekpoma,6.75,6.133333
KP640574|Ekpoma 549|Mastomys natalensis|Nigeria|2012-10-18,KP640574,NGA,Edo,Ekpoma,6.75,6.133333
KP640576|Ekpoma 601|Mastomys natalensis|Nigeria|2012-10-21,KP640576,NGA,Edo,Ekpoma,6.75,6.133333
KT833175|Sok07|GIN|Guinea|2013-11-8,KT833175,GIN,Faranah,Sokourala,10.0567833,-10.6658333
KT833176|Sok10|GIN|Guinea|2013-11-8,KT833176,GIN,Faranah,Sokourala,10.0567833,-10.6658333
KT833177|Sok18|GIN|Guinea|2013-11-9,KT833177,GIN,Faranah,Sokourala,10.0567833,-10.6658333
KT833178|Sok21|GIN|Guinea|2013-11-9,KT833178,GIN,Faranah,Sokourala,10.0567833,-10.6658333
KT833180|Sok32|GIN|Guinea|2013-11-10,KT833180,GIN,Faranah,Sokourala,10.0567833,-10.6658333
KT833182|Dam03|GIN|Guinea|2013-11-15,KT833182,GIN,Faranah,Damania,9.806833,-10.863267
KT833183|Dam05|GIN|Guinea|2013-11-15,KT833183,GIN,Faranah,Damania,9.806833,-10.863267
KT833184|Dam15|GIN|Guinea|2013-11-15,KT833184,GIN,Faranah,Damania,9.806833,-10.863267
KT833186|Dam38|GIN|Guinea|2013-11-16,KT833186,GIN,Faranah,Damania,9.806833,-10.863267
KT833187|Dam49|GIN|Guinea|2013-11-17,KT833187,GIN,Faranah,Damania,9.806833,-10.863267
KT833188|Yar14|GIN|Guinea|2013-11-20,KT833188,GIN,Faranah,Yarawalia,9.95445,-10.7318833
KT833189|Yar20|GIN|Guinea|2013-11-20,KT833189,GIN,Faranah,Yarawalia,9.95445,-10.7318833
KT833190|Yar24|GIN|Guinea|2013-11-21,KT833190,GIN,Faranah,Yarawalia,9.95445,-10.7318833
KT833191|Yar36|GIN|Guinea|2013-11-21,KT833191,GIN,Faranah,Yarawalia,9.95445,-10.7318833
KT833192|Yar46|GIN|Guinea|2013-11-21,KT833192,GIN,Faranah,Yarawalia,9.95445,-10.7318833
KT833193|Kho10|GIN|Guinea|2013-11-24,KT833193,GIN,Faranah,Khoria,9.9422667,-10.8930333
KT833194|Kho29|GIN|Guinea|2013-11-26,KT833194,GIN,Faranah,Khoria,9.9422667,-10.8930333
KT833196|Dal02|GIN|Guinea|2013-11-28,KT833196,GIN,Faranah,Dalafilani,10.1431667,-10.60505
KT833197|Dal04|GIN|Guinea|2013-11-28,KT833197,GIN,Faranah,Dalafilani,10.1431667,-10.60505
KT833198|Dal11|GIN|Guinea|2013-11-28,KT833198,GIN,Faranah,Dalafilani,10.1431667,-10.60505
KT833200|Dal25|GIN|Guinea|2013-11-29,KT833200,GIN,Faranah,Dalafilani,10.1431667,-10.60505
KT833203|Saf01|GIN|Guinea|2013-12-3,KT833203,GIN,Faranah,Safrani,10.0578167,-10.7383667
KT833205|Bri08|GIN|Guinea|2013-12-14,KT833205,GIN,Faranah,Brissa,10.2168333,-10.6887667
KT833206|Bri39|GIN|Guinea|2013-12-16,KT833206,GIN,Faranah,Brissa,10.2168333,-10.6887667
KT833207|Dam71|GIN|Guinea|2014-3-26,KT833207,GIN,Faranah,Damania,9.806833,-10.863267
KT833209|Dam90|GIN|Guinea|2014-3-27,KT833209,GIN,Faranah,Damania,9.806833,-10.863267
KT833211|Sok40|GIN|Guinea|2014-4-3,KT833211,GIN,Faranah,Sokourala,10.0567833,-10.6658333
KT833213|Sok51|GIN|Guinea|2014-4-3,KT833213,GIN,Faranah,Sokourala,10.0567833,-10.6658333
KT833214|Sok61|GIN|Guinea|2014-4-4,KT833214,GIN,Faranah,Sokourala,10.0567833,-10.6658333
KT833219|Son85|GIN|Guinea|2014-4-8,KT833219,GIN,Faranah,Sonkonia,9.912717,-10.798133
KT833220|Son109|GIN|Guinea|2014-4-9,KT833220,GIN,Faranah,Sonkonia,9.912717,-10.798133
KT833221|Yar51|GIN|Guinea|2014-4-13,KT833221,GIN,Faranah,Yarawalia,9.95445,-10.7318833
KT992416|Mad39|Mouse|Guinea|2014-05-08,KT992416,GIN,Kindia,MadinaOula,9.87,-12.43
KT992417|Mad41|Mouse|Guinea|2014-05-08,KT992417,GIN,Kindia,MadinaOula,9.87,-12.43
KT992419|Mad63|Mouse|Guinea|2014-05-09,KT992419,GIN,Kindia,MadinaOula,9.87,-12.43
KT992420|Mad69|Mouse|Guinea|2014-05-09,KT992420,GIN,Kindia,MadinaOula,9.87,-12.43
KT992421|Mad83|Mouse|Guinea|2014-05-10,KT992421,GIN,Kindia,MadinaOula,9.87,-12.43
ONM-299_NGA-Benue_COORDINATES_Me_2011-10-23,KT992422,NGA,Benue,COORDINATES,7.6333,8.4
ONM-314_NGA-Benue_COORDINATES_Me_2011-10-24,KT992423,NGA,Benue,COORDINATES,7.6333,8.4
ONM-700_NGA-Benue_COORDINATES_Me_2012-10-29,KT992424,NGA,Benue,COORDINATES,7.6333,8.4
Kak-428_NGA-Osun_COORDINATES_Hp_2012-03-15,KT992425,NGA,Osun,COORDINATES,7.6833,4.6167
OSPMH86_NGA-Osun_COORDINATES_Hp_2008-10,KT992436,NGA,Osun,COORDINATES,7.6833,4.6167
OSPMH89_NGA-Osun_COORDINATES_Hp_2008-10,KT992437,NGA,Osun,COORDINATES,7.6833,4.6167
OSPMH123_NGA-Osun_COORDINATES_Hp_2009-03,KT992438,NGA,Osun,COORDINATES,7.6833,4.6167
OSPMH124_NGA-Osun_COORDINATES_Hp_2009-03,KT992439,NGA,Osun,COORDINATES,7.6833,4.6167
KU978811|NIGERIA IKEJI|Human|NIG|1989-01-01,KU978811,NGA,,,NA,NA
LASV|NGA|2019|IRR_0001|2019-01-15,LASV|NGA|2019|IRR_0001|2019-01-15,NGA,Edo,Jattu,7.083333,6.283333
LASV|NGA|2019|IRR_0002|2019-01-16,LASV|NGA|2019|IRR_0002|2019-01-16,NGA,Edo,Okpella,7.272099,6.346321
LASV|NGA|2019|IRR_0003|2019-01-15,LASV|NGA|2019|IRR_0003|2019-01-15,NGA,Ondo,Owo,7.19744,5.58653
LASV|NGA|2019|IRR_0004|2019-01-17,LASV|NGA|2019|IRR_0004|2019-01-17,NGA,Ondo,Ifon,6.926767,5.773787
LASV|NGA|2019|IRR_0005|2019-01-18,LASV|NGA|2019|IRR_0005|2019-01-18,NGA,Edo,Auchi,7.066667,6.266667
LASV|NGA|2019|IRR_0006|2019-01-20,LASV|NGA|2019|IRR_0006|2019-01-20,NGA,Edo,Iruekpen,6.754196,6.054167
LASV|NGA|2019|IRR_0008|2019-01-20,LASV|NGA|2019|IRR_0008|2019-01-20,NGA,Edo,Jattu,7.083333,6.283333
LASV|NGA|2019|IRR_0009|2019-01-21,LASV|NGA|2019|IRR_0009|2019-01-21,NGA,Kogi,Ibaji,NA,NA
LASV|NGA|2019|IRR_0011|2019-01-22,LASV|NGA|2019|IRR_0011|2019-01-22,NGA,Ondo,Owo,7.19744,5.58653
LASV|NGA|2019|IRR_0013|2019-01-18,LASV|NGA|2019|IRR_0013|2019-01-18,NGA,Edo,Uromi,6.712259,6.329005
LASV|NGA|2019|IRR_0017|2018-12-31,LASV|NGA|2019|IRR_0017|2018-12-31,NGA,Ondo,Owo,7.19744,5.58653
LASV|NGA|2019|IRR_0019|2019-01-08,LASV|NGA|2019|IRR_0019|2019-01-08,NGA,Edo,Uromi,6.712259,6.329005
LASV|NGA|2019|IRR_0020|2019-01-09,LASV|NGA|2019|IRR_0020|2019-01-09,NGA,Ondo,Akoko,7.457113,5.799837
LASV|NGA|2019|IRR_0021|2019-01-18,LASV|NGA|2019|IRR_0021|2019-01-18,NGA,Ondo,Owo,7.19744,5.58653
LASV|NGA|2019|IRR_0022|2019-01-25,LASV|NGA|2019|IRR_0022|2019-01-25,NGA,Edo,Ekpoma,6.75,6.133333
LASV|NGA|2019|IRR_0023|2019-01-26,LASV|NGA|2019|IRR_0023|2019-01-26,NGA,Ondo,Owo,7.19744,5.58653
LASV|NGA|2019|IRR_0024|2019-01-27,LASV|NGA|2019|IRR_0024|2019-01-27,NGA,Edo,Benin,6.333333,5.622222
LASV|NGA|2019|IRR_0025|2019-02-02,LASV|NGA|2019|IRR_0025|2019-02-02,NGA,Edo,Irrua,6.738429,6.221953
LASV|NGA|2019|IRR_0026|2019-02-02,LASV|NGA|2019|IRR_0026|2019-02-02,NGA,Ondo,Owo,7.19744,5.58653
LASV|NGA|2019|IRR_0027|2019-01-05,LASV|NGA|2019|IRR_0027|2019-01-05,NGA,Ondo,Ose,NA,NA
LASV|NGA|2019|IRR_0028|2019-01-25,LASV|NGA|2019|IRR_0028|2019-01-25,NGA,Ondo,Owo,7.19744,5.58653
LASV|NGA|2019|IRR_0029|2019-01-18,LASV|NGA|2019|IRR_0029|2019-01-18,NGA,Ondo,Owo,7.19744,5.58653
LASV|NGA|2019|IRR_0031|2019-01-08,LASV|NGA|2019|IRR_0031|2019-01-08,NGA,Edo,Jattu,7.083333,6.283333
LASV|NGA|2019|IRR_0032|2019-01-27,LASV|NGA|2019|IRR_0032|2019-01-27,NGA,Ondo,Owo,7.19744,5.58653
LASV|NGA|2019|IRR_0039|2019-01-17,LASV|NGA|2019|IRR_0039|2019-01-17,NGA,Ondo,Isuada,7.229293,5.580561
LASV|NGA|2019|IRR_0041|2019-01-24,LASV|NGA|2019|IRR_0041|2019-01-24,NGA,Ondo,Owo,7.19744,5.58653
LASV|NGA|2019|IRR_0048|2019-01-08,LASV|NGA|2019|IRR_0048|2019-01-08,NGA,Edo,Auchi,7.066667,6.266667
LASV|NGA|2019|IRR_0049|2019-01-04,LASV|NGA|2019|IRR_0049|2019-01-04,NGA,Edo,Jattu,7.083333,6.283333
LASV|NGA|2019|IRR_0050|2019-01-16,LASV|NGA|2019|IRR_0050|2019-01-16,NGA,Edo,Jattu,7.083333,6.283333
LASV|NGA|2019|IRR_0051|2019-02-02,LASV|NGA|2019|IRR_0051|2019-02-02,NGA,Edo,Auchi,7.066667,6.266667
LASV|NGA|2019|IRR_0053|2019-01-23,LASV|NGA|2019|IRR_0053|2019-01-23,NGA,Ondo,Owo,7.19744,5.58653
LASV|NGA|2019|IRR_0054|2019-01-12,LASV|NGA|2019|IRR_0054|2019-01-12,NGA,Ondo,Ayede Ogbese,7.202272,5.381605
LASV|NGA|2019|IRR_0056|2019-01-07,LASV|NGA|2019|IRR_0056|2019-01-07,NGA,Ondo,Oka-Akoko,7.456942,5.800781
LASV|NGA|2019|IRR_0057|2019-01-29,LASV|NGA|2019|IRR_0057|2019-01-29,NGA,Ondo,Owo,7.19744,5.58653
LASV|NGA|2019|IRR_0058|2019-02-13,LASV|NGA|2019|IRR_0058|2019-02-13,NGA,Kogi,Ibaji,NA,NA
LASV|NGA|2019|IRR_0059|2019-02-17,LASV|NGA|2019|IRR_0059|2019-02-17,NGA,Edo,Irrua,6.738429,6.221953
LASV|NGA|2019|IRR_0060|2019-02-06,LASV|NGA|2019|IRR_0060|2019-02-06,NGA,Edo,Auchi,7.066667,6.266667
LASV|NGA|2019|IRR_0062|2019-02-12,LASV|NGA|2019|IRR_0062|2019-02-12,NGA,Ondo,Owo,7.19744,5.58653
LASV|NGA|2019|IRR_0063|2018-12-31,LASV|NGA|2019|IRR_0063|2018-12-31,NGA,Ondo,Owo,7.19744,5.58653
LASV|NGA|2019|IRR_0064|2019-01-03,LASV|NGA|2019|IRR_0064|2019-01-03,NGA,Edo,Ubiaja,6.659722,6.382222
LASV|NGA|2019|IRR_0065|2019-01-02,LASV|NGA|2019|IRR_0065|2019-01-02,NGA,Ondo,Okeluse,6.784077,5.589279
LASV|NGA|2019|IRR_0066|2019-01-14,LASV|NGA|2019|IRR_0066|2019-01-14,NGA,Edo,Sobe,6.850844,5.777564
LASV|NGA|2019|IRR_0067|2019-02-08,LASV|NGA|2019|IRR_0067|2019-02-08,NGA,Edo,Auchi,7.066667,6.266667
LASV|NGA|2019|IRR_0068|2019-01-08,LASV|NGA|2019|IRR_0068|2019-01-08,NGA,Edo,Sobe,6.850844,5.777564
LASV|NGA|2019|IRR_0070|2019-02-08,LASV|NGA|2019|IRR_0070|2019-02-08,NGA,Benue,Gboko,7.336619,9.002272
LASV|NGA|2019|IRR_0071|2019-01-07,LASV|NGA|2019|IRR_0071|2019-01-07,NGA,Edo,Ekpoma,6.75,6.133333
LASV|NGA|2019|IRR_0072|2019-01-25,LASV|NGA|2019|IRR_0072|2019-01-25,NGA,Edo,Ekpoma,6.75,6.133333
LASV|NGA|2019|IRR_0073|2019-01-21,LASV|NGA|2019|IRR_0073|2019-01-21,NGA,Edo,Auchi,7.066667,6.266667
LASV|NGA|2019|IRR_0074|2019-01-31,LASV|NGA|2019|IRR_0074|2019-01-31,NGA,Edo,Agbede,6.678119,3.51526
LASV|NGA|2019|IRR_0075|2019-02-15,LASV|NGA|2019|IRR_0075|2019-02-15,NGA,Edo,Auchi,7.066667,6.266667
LASV|NGA|2019|IRR_0076|2019-02-05,LASV|NGA|2019|IRR_0076|2019-02-05,NGA,Ondo,Owo,7.19744,5.58653
LASV|NGA|2019|IRR_0077|2019-01-19,LASV|NGA|2019|IRR_0077|2019-01-19,NGA,Edo,Usen,6.733367,5.401827
LASV|NGA|2019|IRR_0078|2019-02-06,LASV|NGA|2019|IRR_0078|2019-02-06,NGA,Ondo,Ugboka,NA,NA
LASV|NGA|2019|IRR_0079|2019-02-04,LASV|NGA|2019|IRR_0079|2019-02-04,NGA,Edo,Auchi,7.066667,6.266667
LASV|NGA|2019|IRR_0080|2019-01-17,LASV|NGA|2019|IRR_0080|2019-01-17,NGA,Edo,Uromi,6.712259,6.329005
LASV|NGA|2019|IRR_0081|2019-02-03,LASV|NGA|2019|IRR_0081|2019-02-03,NGA,Edo,Uromi,6.712259,6.329005
LASV|NGA|2019|IRR_0082|2019-01-17,LASV|NGA|2019|IRR_0082|2019-01-17,NGA,Ondo,Ikare Akoko,7.525829,5.762072
LASV|NGA|2019|IRR_0083|2019-01-11,LASV|NGA|2019|IRR_0083|2019-01-11,NGA,Edo,Ekpoma,6.75,6.133333
LASV|NGA|2019|IRR_0087|2019-01-09,LASV|NGA|2019|IRR_0087|2019-01-09,NGA,Ondo,Ose,NA,NA
LASV|NGA|2019|IRR_0092|2019-01-25,LASV|NGA|2019|IRR_0092|2019-01-25,NGA,Edo,Afuze,6.94089,5.984769
LASV|NGA|2019|IRR_0093|2019-02-15,LASV|NGA|2019|IRR_0093|2019-02-15,NGA,Edo,Esan Central,NA,NA
LASV|NGA|2019|IRR_0096|2019-02-26,LASV|NGA|2019|IRR_0096|2019-02-26,NGA,Edo,Ovia North East,NA,NA
LASV|NGA|2019|IRR_0097|2019-02-24,LASV|NGA|2019|IRR_0097|2019-02-24,NGA,Ondo,Ondo,7.088923,4.799094
LASV|NGA|2019|IRR_0098|2019-03-03,LASV|NGA|2019|IRR_0098|2019-03-03,NGA,Ondo,Owo,7.19744,5.58653
LASV|NGA|2019|IRR_0099|2019-03-01,LASV|NGA|2019|IRR_0099|2019-03-01,NGA,Kogi,Ekirin-Ade,7.839884,5.857344
LASV|NGA|2019|IRR_0100|2019-03-03,LASV|NGA|2019|IRR_0100|2019-03-03,NGA,Ondo,Owo,7.19744,5.58653
LASV|NGA|2019|IRR_0101|2019-02-28,LASV|NGA|2019|IRR_0101|2019-02-28,NGA,Ondo,Owo,7.19744,5.58653
LASV|NGA|2019|IRR_0102|2019-02-28,LASV|NGA|2019|IRR_0102|2019-02-28,NGA,Delta,Asaba,6.197842,6.728467
LASV|NGA|2019|IRR_0103|2019-02-28,LASV|NGA|2019|IRR_0103|2019-02-28,NGA,Edo,Jattu,7.083333,6.283333
LASV|NGA|2019|IRR_0105|2019-02-26,LASV|NGA|2019|IRR_0105|2019-02-26,NGA,Edo,Auchi,7.066667,6.266667
LASV|NGA|2019|IRR_0106|2019-02-28,LASV|NGA|2019|IRR_0106|2019-02-28,NGA,Ondo,Ute,6.849914,5.600172
LASV|NGA|2019|IRR_0107|2019-02-26,LASV|NGA|2019|IRR_0107|2019-02-26,NGA,Edo,Jattu,7.083333,6.283333
LASV|NGA|2019|IRR_0112|2019-03-05,LASV|NGA|2019|IRR_0112|2019-03-05,NGA,Edo,Auchi,7.066667,6.266667
LASV|NGA|2019|IRR_0113|2019-03-06,LASV|NGA|2019|IRR_0113|2019-03-06,NGA,Ondo,Owo,7.19744,5.58653
LASV|NGA|2019|IRR_0114|2019-03-07,LASV|NGA|2019|IRR_0114|2019-03-07,NGA,Edo,Uromi,6.712259,6.329005
MG812631|807987|Human|Liberia|1981,MG812631,LBR,,,NA,NA
MG812632|807978|Human|Liberia|1981,MG812632,LBR,,,NA,NA
MG812639|las806827|Human|Sierra_Leone|1977,MG812639,SLE,Kenema,Gondama,NA,NA
MG812645|806387|Human|Guinea|1981,MG812645,GIN,,,NA,NA
MG812647|las803209|Human|Sierra_Leone|1975,MG812647,SLE,Kailahun,Segbwema,7.997399,-10.950236
MG812650|812673|Human|Liberia|2015,MG812650,LBR,,,NA,NA
MG812653|LF11003|Human|Liberia_Bong|2011-02-20,MG812653,LBR,Bong,Suakoko,6.98986,-9.580031
MG812655|LF11011|Human|Liberia_Bong|2011-04-14,MG812655,LBR,Bong,Jorquelleh,6.99556,-9.47222
MG812657|LF13006|Human|Liberia_Nimba|2013-04-29,MG812657,LBR,Nimba,Saclepea-Mah,NA,NA
MG812658|812337|Human|Liberia|2014,MG812658,LBR,,,NA,NA
MG812661|LF13007|Human|Liberia_Nimba|2013-04-29,MG812661,LBR,Nimba,Saclepea-Mah,NA,NA
MG812663|LF16004|Human|Liberia_Bong|2016-02-26,MG812663,LBR,Bong,Jorquelleh,6.99556,-9.47222
MG812665|LF16016|Human|Liberia_Nimba|2016-04-13,MG812665,LBR,Nimba,Garr bain,7.24306,-8.87194
MG812667|LF17007|Human|Liberia_Nimba|2017-01-09,MG812667,LBR,Nimba,Saclepea-Mah,NA,NA
MG812669|LF17019|Human|Liberia_Bong|2017-05-04,MG812669,LBR,Bong,Jorquelleh,6.99556,-9.47222
MG812670|LF17020|Human|Liberia_Nimba|2017-05-02,MG812670,LBR,Nimba,Saclepea-Mah,NA,NA
MG812673|LF17001|Human|Liberia_Nimba|2017-01-09,MG812673,LBR,Nimba,,NA,NA
MG812677|LF17013|Human|Liberia_Bong|2017-02-13,MG812677,LBR,Bong,Jorquelleh,6.99556,-9.47222
MG812679|811606|Human|Liberia|2010,MG812679,LBR,,,NA,NA
MH053468|ISTH_1546|Human|Nigeria|2016-10-16,MH053468,NGA,Bauchi,,NA,NA
MH053472|ISTH_1604|Human|Nigeria|2016-11-05,MH053472,NGA,Nasarawa,,NA,NA
MH053478|ISTH_0187|Human|Nigeria|2016-01-17,MH053478,NGA,Plateau,,NA,NA
MH053480|ISTH_0789|Human|Nigeria|2015-12-15,MH053480,NGA,Bauchi,,NA,NA
MH053482|ISTH_1541|Human|Nigeria|2016-10-13,MH053482,NGA,Bauchi,,NA,NA
MH053483|ISTH_1174|Human|Nigeria|2016-04-29,MH053483,NGA,Edo,OviaNort,NA,NA
MH053484|ISTH_0702|Human|Nigeria|2016-02-23,MH053484,NGA,Ondo,,NA,NA
MH053485|ISTH_0447|Human|Nigeria|2016-02-02,MH053485,NGA,Edo,EtsakoWe,NA,NA
MH053487|ISTH_1568|Human|Nigeria|2016-10-27,MH053487,NGA,Edo,EtsakoWe,NA,NA
MH053488|ISTH_1250|Human|Nigeria|2016-05-18,MH053488,NGA,Edo,EsanNort,NA,NA
MH053490|ISTH_0314|Human|Nigeria|2016-01-23,MH053490,NGA,Ondo,,NA,NA
MH053493|ISTH_0176|Human|Nigeria|2016-01-17,MH053493,NGA,Ondo,,NA,NA
MH053497|ISTH_0009|Human|Nigeria|2016-01-02,MH053497,NGA,Edo,EtsakoWe,NA,NA
MH053498|ISTH_0736|Human|Nigeria|2015-11-27,MH053498,NGA,Delta,,NA,NA
MH053501|ISTH_1311|Human|Nigeria|2016-06-10,MH053501,NGA,Ebonyi,,NA,NA
MH053502|ISTH_1423|Human|Nigeria|2016-08-16,MH053502,NGA,Anambra,,NA,NA
MH053506|ISTH_1496|Human|Nigeria|2016-09-21,MH053506,NGA,Edo,EsanCent,NA,NA
MH053511|ISTH_0687|Human|Nigeria|2015-11-10,MH053511,NGA,Edo,EtsakoWe,NA,NA
MH053513|ISTH_0547|Human|Nigeria|2015-09-14,MH053513,NGA,Edo,EtsakoWe,NA,NA
MH053518|ISTH_1462|Human|Nigeria|2016-09-04,MH053518,NGA,Ondo,,NA,NA
MH053522|ISTH_1026|Human|Nigeria|2016-04-04,MH053522,NGA,Edo,EsanWest,NA,NA
MH053523|ISTH_0031|Human|NIG|2016-01-06,MH053523,NGA,,,NA,NA
MH053526|ISTH_0759|Human|Nigeria|2016-02-28,MH053526,NGA,Edo,EsanNort,NA,NA
MH053527|ISTH_0543|Human|Nigeria|2016-02-08,MH053527,NGA,Ebonyi,,NA,NA
MH053528|ISTH_0703|Human|Nigeria|2016-02-24,MH053528,NGA,Ondo,,NA,NA
MH053531|ISTH_1207|Human|Nigeria|2016-05-03,MH053531,NGA,Ondo,,NA,NA
MH053533|ISTH_1069|Human|Nigeria|2016-04-13,MH053533,NGA,Edo,EsanWest,NA,NA
MH053536|ISTH_1610|Human|Nigeria|2016-11-07,MH053536,NGA,Edo,EsanSout,NA,NA
MH053537|ISTH_1472|Human|Nigeria|2016-09-13,MH053537,NGA,Ondo,,NA,NA
MH053545|ISTH_0572|Human|Nigeria|2016-02-11,MH053545,NGA,Ondo,,NA,NA
MH053552|ISTH_0777|Human|Nigeria|2016-02-28,MH053552,NGA,Ebonyi,,NA,NA
MH053553|ISTH_0681|Human|Nigeria|2015-11-06,MH053553,NGA,Edo,Etsako Central,NA,NA
MH053554|ISTH_0035|Human|Nigeria|2016-01-06,MH053554,NGA,Edo,EtsakoWe,NA,NA
MH053555|ISTH_0089|Human|Nigeria|2016-01-10,MH053555,NGA,Ondo,,NA,NA
MH053557|ISTH_1306|Human|Nigeria|2016-06-08,MH053557,NGA,Edo,Oredo Edo,NA,NA
MH053560|ISTH_1150|Human|Nigeria|2016-04-25,MH053560,NGA,Ebonyi,,NA,NA
MH053561|ISTH_0701|Human|Nigeria|2016-02-23,MH053561,NGA,Ondo,,NA,NA
MH053567|ISTH_0133|Human|Nigeria|2016-01-14,MH053567,NGA,Anambra,,NA,NA
MH053572|ISTH_0565|Human|Nigeria|2016-02-11,MH053572,NGA,Ebonyi,,NA,NA
MH053573|ISTH_0543|Human|Nigeria|2015-09-14,MH053573,NGA,Edo,EsanWest,NA,NA
MH053574|ISTH_0821|Human|Nigeria|2015-12-27,MH053574,NGA,Edo,EtsakoWe,NA,NA
MH053575|ISTH_1006|Human|Nigeria|2016-03-24,MH053575,NGA,Ondo,,NA,NA
MH053577|ISTH_1591|Human|Nigeria|2016-11-02,MH053577,NGA,Edo,EtsakoWe,NA,NA
MH053578|ISTH_0141|Human|Nigeria|2016-01-14,MH053578,NGA,Edo,Oredo Edo,NA,NA
MH053580|ISTH_1070|Human|Nigeria|2016-04-13,MH053580,NGA,Edo,Ikpoba-Okha,NA,NA
MH053582|ISTH_0199|Human|Nigeria|2016-01-18,MH053582,NGA,Edo,EtsakoWe,NA,NA
MH053584|ISTH_0779|Human|Nigeria|2016-02-29,MH053584,NGA,Ebonyi,,NA,NA
MH053588|ISTH_0919|Human|Nigeria|2016-03-16,MH053588,NGA,Ondo,,NA,NA
MH053589|ISTH_1609|Human|Nigeria|2016-11-01,MH053589,NGA,Bauchi,,NA,NA
MH157030|ISTH_0998|Human|Nigeria|2018-02-13,MH157030,NGA,Edo,Egor,NA,NA
MH157044|ISTH_0541|Human|Nigeria|2018-02-01,MH157044,NGA,Edo,EtsakoWe,NA,NA
MH157046|ISTH_0026|Human|Nigeria|2018-01-07,MH157046,NGA,Edo,EsanWest,NA,NA
MH215279|LF18001|Human|Liberia_Bong|2018-01-10,MH215279,LBR,Bong,,NA,NA
MH215281|LF18002|Human|Liberia_Nimba|2018-01-10,MH215281,GIN,Yomou,,NA,NA
MH215283|LF18037|Human|Liberia_Nimba|2018-02-13,MH215283,LBR,Nimba,,NA,NA
MH215285|LF18040|Human|Liberia_Monsterrado|2018-03-02,MH215285,LBR,Montserrado,,NA,NA
MH215287|LF18041|Human|Liberia_Monsterrado|2018-03-03,MH215287,LBR,Montserrado,,NA,NA
MH215289|LF18042|Human|Liberia_Nimba|2018-03-01,MH215289,LBR,Nimba,,NA,NA
MH732623|GUIN-1739-Mn-2018|Mastomys_natalensis|Guinea|2018,MH732623,GIN,Nzerekore,,7.758615,-8.815928
MH887755|LASV0194-EDO-2018|Human|Nigeria|2018-02-17,MH887755,NGA,Edo,EsanNort,NA,NA
MH887756|LASV0151-EDO-2018|Human|Nigeria|2018-02-02,MH887756,NGA,Edo,EtsakoWe,NA,NA
MH887758|LASV0096-ONDO-2017|Human|Nigeria|2017-09-18,MH887758,NGA,Ondo,,NA,NA
MH887760|LASV0212-EDO-2018|Human|Nigeria|2018-03-11,MH887760,NGA,Edo,EtsakoWe,NA,NA
MH887761|LASV0093-EDO-2017|Human|Nigeria|2017-08-19,MH887761,NGA,Edo,EsanSout,NA,NA
MH887762|LASV0215-ONDO-2018|Human|Nigeria|2018-03-21,MH887762,NGA,Ondo,,NA,NA
MH887763|LASV0075-EDO-2017|Human|Nigeria|2017-03-15,MH887763,NGA,Edo,EtsakoWe,NA,NA
MH887764|LASV0144-ONDO-2018|Human|Nigeria|2018-01-23,MH887764,NGA,Ondo,,NA,NA
MH887772|LASV0101-EDO-2017|Human|Nigeria|2017-11-10,MH887772,NGA,Edo,EsanWest,NA,NA
MH887773|LASV0109-ONDO-2017|Human|Nigeria|2017-12-18,MH887773,NGA,Ondo,,NA,NA
MH887774|LASV0191-ONDO-2018|Human|Nigeria|2018-02-15,MH887774,NGA,Ondo,,NA,NA
MH887777|LASV0216-EDO-2018|Human|Nigeria|2018-03-23,MH887777,NGA,Edo,,NA,NA
MH887778|LASV0079-EDO-2017|Human|Nigeria|2017-05-15,MH887778,NGA,Edo,EtsakoWe,NA,NA
MH887781|LASV0128-ONDO-2018|Human|Nigeria|2018-01-14,MH887781,NGA,Ondo,,NA,NA
MH887782|LASV0197-EDO-2018|Human|Nigeria|2018-02-19,MH887782,NGA,Edo,EsanWest,NA,NA
MH887783|LASV0076-EDO-2017|Human|Nigeria|2017-03-16,MH887783,NGA,Edo,OviaNort,NA,NA
MH887784|LASV0148-UNKNOWN-2018|Human|Nigeria|2018-01-28,MH887784,NGA,,,NA,NA
MH887785|LASV0209-KOGI-2018|Human|Nigeria|2018-03-02,MH887785,NGA,Kogi,,NA,NA
MH887787|LASV0081-EDO-2017|Human|Nigeria|2017-06-05,MH887787,NGA,Edo,OviaNort,NA,NA
MH887788|LASV0107-ONDO-2017|Human|Nigeria|2017-12-17,MH887788,NGA,Ondo,,NA,NA
MH887789|LASV0090-ONDO-2017|Human|Nigeria|2017-07-19,MH887789,NGA,Ondo,,NA,NA
MH887790|LASV0120-ONDO-2018|Human|Nigeria|2018-01-11,MH887790,NGA,Ondo,,NA,NA
MH887791|LASV0106-ONDO-2017|Human|Nigeria|2017-12-17,MH887791,NGA,Ondo,,NA,NA
MH887792|LASV0180-UNKNOWN-2018|Human|Nigeria|2018-02-13,MH887792,NGA,,,NA,NA
MH887793|LASV0065-ONDO-2017|Human|Nigeria|2017-01-09,MH887793,NGA,Ondo,,NA,NA
MH887794|LASV0115-ONDO-2018|Human|Nigeria|2018-01-06,MH887794,NGA,Ondo,,NA,NA
MH887795|LASV0112-ONDO-2017|Human|Nigeria|2017-12-29,MH887795,NGA,Ondo,,NA,NA
MH887796|LASV0160-KOGI-2018|Human|Nigeria|2018-02-06,MH887796,NGA,Kogi,,NA,NA
MH887797|LASV0103-EDO-2017|Human|Nigeria|2017-11-29,MH887797,NGA,Edo,Ikpoba-Okha,NA,NA
MH887798|LASV0199.2-EDO-2018|Human|Nigeria|2018-02-25,MH887798,NGA,Edo,OwanWest,NA,NA
MH887800|LASV0082-EDO-2017|Human|Nigeria|2017-06-07,MH887800,NGA,Edo,OviaNort,NA,NA
MH887801|LASV0083-ONDO-2017|Human|Nigeria|2017-06-13,MH887801,NGA,Ondo,,NA,NA
MH887808|LASV0088-EDO-2017|Human|Nigeria|2017-06-27,MH887808,NGA,Edo,EtsakoWe,NA,NA
MH887810|LASV0149-KOGI-2018|Human|Nigeria|2018-01-30,MH887810,NGA,Kogi,,NA,NA
MH887811|LASV0084-EDO-2017|Human|Nigeria|2017-06-16,MH887811,NGA,Edo,EsanWest,NA,NA
MH887816|LASV0130-EDO-2018|Human|Nigeria|2018-01-15,MH887816,NGA,Edo,EsanNort,NA,NA
MH887817|LASV0073-EDO-2017|Human|Nigeria|2017-03-07,MH887817,NGA,Edo,EtsakoWe,NA,NA
MH887820|LASV0126-EBONYI-2018|Human|Nigeria|2018-01-13,MH887820,NGA,Ebonyi,,NA,NA
MH887821|LASV0164-ONDO-2018|Human|Nigeria|2018-02-09,MH887821,NGA,Ondo,,NA,NA
MH887822|LASV0071-EDO-2017|Human|Nigeria|2017-02-14,MH887822,NGA,Edo,Akoko-Ed,NA,NA
MH887823|LASV0100-EDO-2017|Human|Nigeria|2017-10-18,MH887823,NGA,Edo,EsanWest,NA,NA
MH887824|LASV0202-EDO-2018|Human|Nigeria|2018-02-22,MH887824,NGA,Edo,Uhunmwonde,NA,NA
MH887825|LASV0214-KOGI-2018|Human|Nigeria|2018-03-18,MH887825,NGA,Kogi,,NA,NA
MH887826|LASV0085-EDO-2017|Human|Nigeria|2017-06-17,MH887826,NGA,Edo,OwanWest,NA,NA
MH887827|LASV0067-EDO-2017|Human|Nigeria|2017-01-24,MH887827,NGA,Edo,EtsakoWe,NA,NA
MH887830|LASV0094-KOGI-2017|Human|Nigeria|2017-09-02,MH887830,NGA,Kogi,,NA,NA
MH887831|LASV0069-EDO-2017|Human|Nigeria|2017-02-07,MH887831,NGA,Edo,EsanWest,NA,NA
MH887832|LASV0217-DELTA-2018|Human|Nigeria|2018-03-27,MH887832,NGA,Delta,,NA,NA
MH887835|LASV0102-ONDO-2017|Human|Nigeria|2017-11-26,MH887835,NGA,Ondo,,NA,NA
MH887838|LASV0086-EDO-2017|Human|Nigeria|2017-06-25,MH887838,NGA,Edo,EsanWest,NA,NA
MH887839|LASV0201-ONDO-2018|Human|Nigeria|2018-02-21,MH887839,NGA,Ondo,,NA,NA
MH887840|LASV0092-EDO-2017|Human|Nigeria|2017-08-04,MH887840,NGA,Edo,EsanWest,NA,NA
MH887841|LASV0091-EDO-2017|Human|Nigeria|2017-08-03,MH887841,NGA,Edo,,NA,NA
MH887842|LASV0097-EDO-2017|Human|Nigeria|2017-10-06,MH887842,NGA,Edo,EsanWest,NA,NA
MH887843|LASV0111-ONDO-2017|Human|Nigeria|2017-12-28,MH887843,NGA,Ondo,,NA,NA
MH887844|LASV0089-ONDO-2017|Human|Nigeria|2017-07-05,MH887844,NGA,Ondo,,NA,NA
MH887848|LASV0108-ONDO-2017|Human|Nigeria|2017-12-17,MH887848,NGA,Ondo,,NA,NA
MH887849|LASV0104-ONDO-2017|Human|Nigeria|2017-12-12,MH887849,NGA,Ondo,,NA,NA
MH887850|LASV0157-ONDO-2018|Human|Nigeria|2018-02-05,MH887850,NGA,Ondo,,NA,NA
MH887853|LASV0181-UNKNOWN-2018|Human|Nigeria|2018-02-13,MH887853,NGA,,,NA,NA
MH887854|LASV0095-EDO-2017|Human|Nigeria|2017-09-14,MH887854,NGA,Edo,EtsakoWe,NA,NA
MH887858|LASV0167-ONDO-2018|Human|Nigeria|2018-02-10,MH887858,NGA,Ondo,,NA,NA
MH887859|LASV0161-ONDO-2018|Human|Nigeria|2018-02-06,MH887859,NGA,Ondo,,NA,NA
MH887862|LASV0186-UNKNOWN-2018|Human|Nigeria|2018-02-13,MH887862,NGA,,,NA,NA
MH887863|LASV0174-EDO-2018|Human|Nigeria|2018-02-12,MH887863,NGA,Edo,EsanCent,NA,NA
MH887864|LASV0132-ONDO-2018|Human|Nigeria|2018-01-15,MH887864,NGA,Ondo,,NA,NA
MH887865|LASV0135-ONDO-2018|Human|Nigeria|2018-01-17,MH887865,NGA,Ondo,,NA,NA
MH887870|LASV0145-EDO-2018|Human|Nigeria|2018-01-23,MH887870,NGA,Edo,EsanWest,NA,NA
MH887871|LASV0169-ONDO-2018|Human|Nigeria|2018-02-11,MH887871,NGA,Ondo,,NA,NA
MH887872|LASV0110-ONDO-2017|Human|Nigeria|2017-12-26,MH887872,NGA,Ondo,,NA,NA
MH887873|LASV0166-ONDO-2018|Human|Nigeria|2018-02-10,MH887873,NGA,Ondo,,NA,NA
MH887874|LASV0074-EDO-2017|Human|Nigeria|2017-03-12,MH887874,NGA,Edo,EtsakoWe,NA,NA
MH887876|LASV0153-EDO-2018|Human|Nigeria|2018-02-04,MH887876,NGA,Edo,Ehor,6.615948,5.986347
MH887877|LASV0072-ONDO-2017|Human|Nigeria|2017-02-14,MH887877,NGA,Ondo,,NA,NA
MH887878|LASV0182-EDO-2018|Human|Nigeria|2018-02-13,MH887878,NGA,Edo,EtsakoWe,NA,NA
MH887880|LASV0154-TARABA-2018|Human|Nigeria|2018-02-04,MH887880,NGA,Taraba,Jalingo,8.89369,11.35765
MH887881|LASV0066-EDO-2017|Human|Nigeria|2017-01-21,MH887881,NGA,Edo,EsanWest,NA,NA
MH887883|LASV0080-ONDO-2017|Human|Nigeria|2017-05-16,MH887883,NGA,Ondo,,NA,NA
MH887884|LASV0098-EDO-2017|Human|Nigeria|2017-10-16,MH887884,NGA,Edo,Oredo Edo,NA,NA
MH887885|LASV0070-ONDO-2017|Human|Nigeria|2017-02-10,MH887885,NGA,Ondo,,NA,NA
MH887886|LASV0213-EDO-2018|Human|Nigeria|2018-03-16,MH887886,NGA,Edo,EtsakoWe,NA,NA
MH887888|LASV0068-ONDO-2017|Human|Nigeria|2017-01-26,MH887888,NGA,Ondo,,NA,NA
MH887890|LASV0114-ONDO-2018|Human|Nigeria|2018-01-05,MH887890,NGA,Ondo,,NA,NA
MH887891|LASV0134-EDO-2018|Human|Nigeria|2018-01-17,MH887891,NGA,Edo,EsanNort,NA,NA
MH887892|LASV0121-ONDO-2018|Human|Nigeria|2018-01-11,MH887892,NGA,Ondo,,NA,NA
MH887895|LASV0078-ONDO-2017|Human|Nigeria|2017-05-07,MH887895,NGA,Ondo,,NA,NA
MH887896|LASV0099-EDO-2017|Human|Nigeria|2017-10-17,MH887896,NGA,Edo,EsanWest,NA,NA
MH887897|LASV0077-EDO-2017|Human|Nigeria|2017-04-17,MH887897,NGA,Edo,EsanNort,NA,NA
LASV_NGA_2011_IRR_001_NGA-Ondo_Ose_Hs_2011-08-02,MK107897,NGA,Ondo,Ose,NA,NA
LASV_NGA_2012_IRR_010_NGA-Delta_Asaba_Hs_2012-05-28,MK107898,NGA,Delta,Asaba,6.197842,6.728467
LASV_NGA_2013_IRR_014_NGA-Bauchi_Bauchi_Hs_2013-11-23,MK107899,NGA,Bauchi,Bauchi,10.314159,9.846282
LASV_NGA_2013_IRR_016_NGA-Bauchi_Bauchi_Hs_2013-12-08,MK107900,NGA,Bauchi,Bauchi,10.314159,9.846282
LASV_NGA_2013_IRR_008_NGA-Taraba_Jalingo_Hs_2013-03-06,MK107901,NGA,Taraba,Jalingo,8.89369,11.35765
LASV_NGA_2014_IRR_005_NGA-Ebonyi_Abakaliki_Hs_2014-05-14,MK107902,NGA,Ebonyi,Abakaliki,6.333333,8.1
MK107903|IRR_006_NIG_2014|Human|NIG|2014-05-14,MK107903,NGA,Ebonyi,,NA,NA
LASV_NGA_2014_IRR_010_NGA-Ondo_Okeluse_Hs_2014-05-17,MK107907,NGA,Ondo,Okeluse,6.784077,5.589279
LASV_NGA_2014_IRR_011_NGA-Ondo_Okeluse_Hs_2014-08-01,MK107908,NGA,Ondo,Okeluse,6.784077,5.589279
LASV_NGA_2014_IRR_012_NGA-Ondo_Ifon_Hs_2014-08-10,MK107909,NGA,Ondo,Ifon,6.926767,5.773787
LASV_NGA_2014_IRR_002_NGA-Nassarawa_Lafia_Hs_2014-01-20,MK107910,NGA,Nassarawa,Lafia,8.49575,8.52155
LASV_NGA_2015_IRR_009_NGA-Bauchi_Mbal_Hs_2015-04-25,MK107911,NGA,Bauchi,Mbal,9.595820427,9.617159843
LASV_NGA_2015_IRR_008_NGA-Bauchi_Alkaleri_Hs_2015-04-10,MK107912,NGA,Bauchi,Alkaleri,10.26878,10.33279
LASV_NGA_2015_IRR_010_NGA-Kogi_Ibaji_Hs_2015-07-02,MK107913,NGA,Kogi,Ibaji,NA,NA
LASV_NGA_2015_IRR_014_NGA-Nassarawa_Agyaragu_Hs_2015-12-30,MK107914,NGA,Nassarawa,Agyaragu,8.4,8.55
LASV_NGA_2015_IRR_011_NGA-Ondo_Owo_Hs_2015-09-16,MK107915,NGA,Ondo,Owo,7.19744,5.58653
LASV_NGA_2015_IRR_012_NGA-Ondo_Ifon_Hs_2015-11-06,MK107916,NGA,Ondo,Ifon,6.926767,5.773787
LASV_NGA_2016_IRR_012_NGA-Bauchi_TafawaBalewa_Hs_2016-01-25,MK107917,NGA,Bauchi,TafawaBalewa,9.755908,9.553992
LASV_NGA_2016_IRR_014_NGA-Bauchi_Alkaleri_Hs_2016-01-28,MK107918,NGA,Bauchi,Alkaleri,10.26878,10.33279
LASV_NGA_2016_IRR_019_NGA-Bauchi_LimanKatagum_Hs_2016-01-12,MK107919,NGA,Bauchi,LimanKatagum,10.093735,9.767931
LASV_NGA_2016_IRR_028_NGA-Bauchi_SabonGari_Hs_2016-02-29,MK107920,NGA,Bauchi,SabonGari,10.675453,9.122348
LASV_NGA_2016_IRR_025_NGA-Benue_Oiji_Hs_2016-02-26,MK107921,NGA,Benue,Oiji,7.565864,7.917972
LASV_NGA_2016_IRR_007_NGA-AkwaIbom_Uyo_Hs_2016-01-18,MK107922,NGA,AkwaIbom,Uyo,5.033333,7.916667
LASV_NGA_2016_IRR_018_NGA-Ebonyi_Ikwo_Hs_2016-02-09,MK107923,NGA,Ebonyi,Ikwo,6.0767,8.0701
LASV_NGA_2016_IRR_021_NGA-Ebonyi_NA_Hs_2016-02-18,MK107924,NGA,Ebonyi,,NA,NA
LASV_NGA_2016_IRR_026_NGA-Ebonyi_Ohaukwu_Hs_2016-02-26,MK107925,NGA,Ebonyi,Ohaukwu,NA,NA
LASV_NGA_2016_IRR_027_NGA-Ebonyi_Izzi_Hs_2016-02-28,MK107926,NGA,Ebonyi,Izzi,NA,NA
LASV_NGA_2016_IRR_006_NGA-Ekiti_IdoEkiti_Hs_2016-01-14,MK107927,NGA,Ekiti,IdoEkiti,7.845422,5.182916
LASV_NGA_2016_IRR_013_NGA-Imo_Owerri_Hs_2016-01-27,MK107928,NGA,Imo,Owerri,5.485,7.035
LASV_NGA_2016_IRR_023_NGA-Kaduna_Kaduna_Hs_2016-02-23,MK107929,NGA,Kaduna,Kaduna,10.523056,7.440278
LASV_NGA_2016_IRR_016_NGA-Nassarawa_Kwarra_Hs_2016-02-06,MK107930,NGA,Nassarawa,Kwarra,8.325363,8.450158
LASV_NGA_2016_IRR_008_NGA-Nassarawa_Lafia_Hs_2016-01-20,MK107931,NGA,Nassarawa,Lafia,8.49575,8.52155
LASV_NGA_2016_IRR_015_NGA-Nassarawa_Lafia_Hs_2016-02-03,MK107933,NGA,Nassarawa,Lafia,8.49575,8.52155
LASV_NGA_2016_IRR_032_NGA-Nassarawa_Lafia_Hs_2016-03-13,MK107934,NGA,Nassarawa,Lafia,8.49575,8.52155
LASV_NGA_2016_IRR_020_NGA-Nassarawa_Lafia_Hs_2016-02-15,MK107935,NGA,Nassarawa,Lafia,8.49575,8.52155
LASV_NGA_2016_IRR_017_NGA-Ondo_Ifon_Hs_2016-02-06,MK107936,NGA,Ondo,Ifon,6.926767,5.773787
LASV_NGA_2016_IRR_033_NGA-Ondo_Ondo_Hs_2016-03-14,MK107937,NGA,Ondo,Ondo,7.088923,4.799094
LASV_NGA_2016_IRR_029_NGA-Ondo_Owo_Hs_2016-03-01,MK107938,NGA,Ondo,Owo,7.19744,5.58653
LASV_NGA_2016_IRR_009_NGA-Plateau_Shendam_Hs_2016-01-20,MK107939,NGA,Plateau,Shendam,8.87931,9.53879
LASV_NGA_2016_IRR_003_NGA-Plateau_Kumbul_Hs_2016-01-04,MK107940,NGA,Plateau,Kumbul,9.383,9.133
LASV_NGA_2016_IRR_010_NGA-Taraba_Kwesati_Hs_2016-01-22,MK107941,NGA,Taraba,Kwesati,7.213958,10.183256
LASV_NGA_2016_IRR_004_NGA-Taraba_Takun_Hs_2016-01-05,MK107942,NGA,Taraba,Takun,7.251211,9.976395
MK107943|IRR_015_NGA_2017|Human|NIG|2017,MK107943,NGA,Plateau,,NA,NA
MK107944|IRR_016_NGA_2017|Human|NIG|2017,MK107944,NGA,Plateau,,NA,NA
LASV_NGA_2013_IRR_015_NGA-Bauchi_Bauchi_Hs_2013-12-04,MK107945,NGA,Bauchi,Bauchi,10.314159,9.846282
LASV_NGA_2013_IRR_011_NGA-Rivers_Obio-Akpor_Hs_2013-03-18,MK107946,NGA,Rivers,Obio-Akpor,4.869632,7.019002
LASV_NGA_2014_IRR_004_NGA-Ondo_Okeluse_Hs_2014-05-08,MK107948,NGA,Ondo,Okeluse,6.784077,5.589279
LASV_NGA_2015_IRR_015_NGA-Nassarawa_Lafia_Hs_2015-12-30,MK107949,NGA,Nassarawa,Lafia,8.49575,8.52155
LASV_NGA_2015_IRR_006_NGA-Ondo_Ifon_Hs_2015-02-22,MK107950,NGA,Ondo,Ifon,6.926767,5.773787
LASV_NGA_2015_IRR_001_NGA-Plateau_Buji_Hs_2015-01-08,MK107951,NGA,Plateau,Buji,10.0727,8.9341
LASV_NGA_2015_IRR_007_NGA-Taraba_Jalingo_Hs_2015-02-25,MK107952,NGA,Taraba,Jalingo,8.89369,11.35765
LASV_NGA_2016_IRR_005_NGA-Bauchi_Bundot_Hs_2016-01-08,MK107953,NGA,Bauchi,Bundot,10.006978,9.544584
LASV_NGA_2016_IRR_031_NGA-Bauchi_Mbal_Hs_2016-03-11,MK107954,NGA,Bauchi,Mbal,9.595820427,9.617159843
LASV_NGA_2016_IRR_022_NGA-Kogi_Idah_Hs_2016-02-20,MK107955,NGA,Kogi,Idah,7.11365,6.74345
LASV_NGA_2016_IRR_024_NGA-Ondo_Irun_Hs_2016-02-24,MK107956,NGA,Ondo,Irun,7.579115,5.696218
LASV_NGA_2012_IRR_001_NGA-Taraba_Jalingo_Hs_2012-02-08,MK107958,NGA,Taraba,Jalingo,8.89369,11.35765
MK107959|IRR_002_NGA_2012|Human|NIG|2012-02-10,MK107959,NGA,Tararba,,NA,NA
LASV_NGA_2012_IRR_003_NGA-Taraba_Jalingo_Hs_2012-02-10,MK107960,NGA,Taraba,Jalingo,8.89369,11.35765
LASV_NGA_2013_IRR_005_NGA-Ebonyi_Abakaliki_Hs_2013-01-25,MK107961,NGA,Ebonyi,Abakaliki,6.333333,8.1
LASV_NGA_2013_IRR_007_NGA-Enugu_Enugu_Hs_2013-02-03,MK107962,NGA,Enugu,Enugu,6.452667,7.510333
LASV_NGA_2013_IRR_001_NGA-Ondo_Imoru_Hs_2013-01-16,MK107963,NGA,Ondo,Imoru,6.87224,5.75412
LASV_NGA_2013_IRR_006_NGA-Ondo_Ifon_Hs_2013-01-30,MK107964,NGA,Ondo,Ifon,6.926767,5.773787
LASV_NGA_2013_IRR_002_NGA-Benue_Makurdi_Hs_2013-01-17,MK107965,NGA,Benue,Makurdi,7.732152,8.539144
LASV_NGA_2012_IRR_004_NGA-Rivers_Ikwerre_Hs_2012-02-10,MK107966,NGA,Rivers,Ikwerre,NA,NA
LASV_NGA_2012_IRR_006_NGA-Rivers_PortHarcourt_Hs_2012-02-21,MK107967,NGA,Rivers,PortHarcourt,4.77149,7.01435
LASV_NGA_2013_IRR_003_NGA-Nassarawa_Lafia_Hs_2013-01-18,MK107968,NGA,Nassarawa,Lafia,8.49575,8.52155
LASV_NGA_2013_IRR_004_NGA-Plateau_Bukuru_Hs_2013-01,MK107970,NGA,Plateau,Bukuru,9.8,8.866667
LASV_NGA_2012_IRR_008_NGA-FederalCapitalTerritory_NA_Hs_2012-03-08,MK107971,NGA,Federal Capital Territory,NA,NA,NA
LASV_NGA_2012_IRR_009_NGA-Kogi_Iyano_Hs_2012-04-12,MK107972,NGA,Kogi,Iyano,6.797072,6.664688
LASV_NGA_2012_IRR_007_NGA-Nassarawa_Lafia_Hs_2012-02-27,MK107973,NGA,Nassarawa,Lafia,8.49575,8.52155
LASV_NGA_2013_IRR_010_NGA-Bauchi_Bauchi_Hs_2013-03-10,MK107974,NGA,Bauchi,Bauchi,10.314159,9.846282
LASV_NGA_2013_IRR_013_NGA-Plateau_Jos_Hs_2013-02-27,MK107975,NGA,Plateau,Jos,9.916667,8.890278
LASV_NGA_2013_IRR_012_NGA-Rivers_Ohio-Akpor_Hs_2013-04-11,MK107976,NGA,Rivers,Ohio-Akpor,4.865528,7.013852
MK107977|IRR_009_NIG_2013|Human|NIG|2013-03-09,MK107977,NGA,Tararba,,NA,NA
LASV_NGA_2015_IRR_002_NGA-Bauchi_Bauchi_Hs_2015-01-08,MK107978,NGA,Bauchi,Bauchi,10.314159,9.846282
LASV_NGA_2015_IRR_004_NGA-Bauchi_Bauchi_Hs_2015-01-18,MK107979,NGA,Bauchi,Bauchi,10.314159,9.846282
LASV_NGA_2015_IRR_013_NGA-Bauchi_Dass_Hs_2015-12-17,MK107980,NGA,Bauchi,Dass,9.99934,9.51518
LASV_NGA_2015_IRR_005_NGA-Kaduna_Zaria_Hs_2015-01-28,MK107981,NGA,Kaduna,Zaria,11.08477,7.68839
LASV_NGA_2015_IRR_003_NGA-Plateau_Vom_Hs_2015-01-12,MK107982,NGA,Plateau,Vom,9.737692,8.808975
LASV_NGA_2014_IRR_001_NGA-Edo_NA_Hs_2014-01-25,MK117846,NGA,Edo,NA,6.75,6.221953
LASV_NGA_2016_IRR_001_NGA-Edo_NA_Hs_2016-01-04,MK117847,NGA,Edo,NA,6.75,6.221953
LASV_NGA_2016_IRR_002_NGA-Edo_NA_Hs_2016-02-15,MK117848,NGA,Edo,NA,6.75,6.221953
LASV_NGA_2017_IRR_001_NGA-Nassarawa_NA_Hs_2017-01-24,MK117849,NGA,Nassarawa,NA,8.49575,8.52155
LASV_NGA_2017_IRR_003_NGA-Edo_NA_Hs_2017-04-03,MK117850,NGA,Edo,NA,6.75,6.221953
LASV_NGA_2017_IRR_004_NGA-Edo_Uzairue_Hs_2017,MK117851,NGA,Edo,Uzairue,7.088383,6.290372
LASV_NGA_2017_IRR_005_NGA-Edo_Okeluse_Hs_2017-01-16,MK117948,NGA,Ondo,Okeluse,6.784077,5.589279
LASV_NGA_2017_IRR_006_NGA-Ondo_Owo_Hs_2017-01-19,MK117949,NGA,Ondo,Owo,7.19744,5.58653
LASV_NGA_2017_IRR_008_NGA-Ebonyi_EzzaNorth_Hs_2017-02-02,MK117950,NGA,Ebonyi,EzzaNorth,NA,NA
LASV_NGA_2017_IRR_014_NGA-Ondo_Owo_Hs_2017-04-28,MK117951,NGA,Ondo,Owo,7.19744,5.58653
LASV_NGA_2018_IRR_001_NGA-Bauchi_LimanKatagum_Hs_2018-01-02,MK117952,NGA,Bauchi,LimanKatagum,10.093735,9.767931
LASV_NGA_2018_IRR_002_NGA-Edo_Ogwa_Hs_2018-01-07,MK117953,NGA,Edo,Ogwa,6.505376,6.207318
LASV_NGA_2018_IRR_003_NGA-Ondo_Owo_Hs_2018-01-07,MK117954,NGA,Ondo,Owo,7.19744,5.58653
LASV_NGA_2018_IRR_005_NGA-Edo_OwanWest_Hs_2018-01-09,MK117955,NGA,Edo,OwanWest,NA,NA
LASV_NGA_2018_IRR_006_NGA-Edo_Auchi_Hs_2018-01-09,MK117956,NGA,Edo,Auchi,7.066667,6.266667
LASV_NGA_2018_IRR_008_NGA-Ondo_IjebuOwo_Hs_2018-01-11,MK117957,NGA,Ondo,IjebuOwo,7.182869,5.581471
LASV_NGA_2018_IRR_009_NGA-Anambra_AnambraWest_Hs_2018-01-13,MK117958,NGA,Anambra,AnambraWest,NA,NA
LASV_NGA_2018_IRR_010_NGA-Ondo_Owo_Hs_2018-01-12,MK117959,NGA,Ondo,Owo,7.19744,5.58653
LASV_NGA_2018_IRR_011_NGA-Ebonyi_Amauro_Hs_2018-01-13,MK117960,NGA,Ebonyi,Amauro,5.967,7.867
LASV_NGA_2018_IRR_014_NGA-Ondo_Owo_Hs_2018-01-15,MK117962,NGA,Ondo,Owo,7.19744,5.58653
LASV_NGA_2018_IRR_015_NGA-Ondo_Owo_Hs_2018-01-16,MK117963,NGA,Ondo,Owo,7.19744,5.58653
LASV_NGA_2018_IRR_017_NGA-Ondo_Owo_Hs_2018-01-15,MK117964,NGA,Ondo,Owo,7.19744,5.58653
LASV_NGA_2018_IRR_019_NGA-Ondo_Owo_Hs_2018-01-17,MK117965,NGA,Ondo,Owo,7.19744,5.58653
LASV_NGA_2018_IRR_020_NGA-Ondo_Owo_Hs_2018-01-17,MK117966,NGA,Ondo,Owo,7.19744,5.58653
LASV_NGA_2018_IRR_021_NGA-Nassarawa_Keffi_Hs_2018-01-18,MK117967,NGA,Nassarawa,Keffi,8.84538,7.87839
LASV_NGA_2018_IRR_022_NGA-Kogi_Lokoja_Hs_2018-01-17,MK117968,NGA,Kogi,Lokoja,7.80207,6.74365
LASV_NGA_2018_IRR_023_NGA-Edo_Uzebba_Hs_2018-01-18,MK117969,NGA,Edo,Uzebba,6.997077,5.904454
LASV_NGA_2018_IRR_024_NGA-Edo_Agenegbode_Hs_2018-01-19,MK117970,NGA,Edo,Agenegbode,7.098654,6.678859
LASV_NGA_2018_IRR_025_NGA-Imo_Orlu_Hs_2018-01-19,MK117971,NGA,Imo,Orlu,5.79449,7.03589
LASV_NGA_2018_IRR_031_NGA-Edo_Uromi_Hs_2018-01-24,MK117972,NGA,Edo,Uromi,6.712259,6.329005
LASV_NGA_2018_IRR_033_NGA-Edo_Jattu_Hs_2018-01-25,MK117973,NGA,Edo,Jattu,7.083333,6.283333
LASV_NGA_2018_IRR_034_NGA-Ebonyi_Iboko_Hs_2018-01-25,MK117974,NGA,Ebonyi,Iboko,6.556183,8.303293
LASV_NGA_2018_IRR_035_NGA-Ebonyi_Okposi-Okwa_Hs_2018-01-23,MK117975,NGA,Ebonyi,Okposi-Okwa,6.032415,7.850118
LASV_NGA_2018_IRR_036_NGA-Edo_Ekpoma_Hs_2018-01-26,MK117976,NGA,Edo,Ekpoma,6.75,6.133333
LASV_NGA_2018_IRR_037_NGA-Edo_Ubiaja_Hs_2018-01-26,MK117977,NGA,Edo,Ubiaja,6.659722,6.382222
LASV_NGA_2018_IRR_038_NGA-Ondo_Akure_Hs_2018-01-26,MK117978,NGA,Ondo,Akure,7.25,5.195
LASV_NGA_2018_IRR_042_NGA-Anambra_Nzam_Hs_2018-01-29,MK117979,NGA,Anambra,Nzam,6.452245,6.728375
LASV_NGA_2018_IRR_044_NGA-Ebonyi_AgbajaAzumili_Hs_2018-01-30,MK117980,NGA,Ebonyi,AgbajaAzumili,6.340038,8.129261
LASV_NGA_2018_IRR_046_NGA-Edo_Ekpoma_Hs_2018-02-05,MK117982,NGA,Edo,Ekpoma,6.75,6.133333
LASV_NGA_2018_IRR_047_NGA-Ondo_Owo_Hs_2018-02-05,MK117983,NGA,Ondo,Owo,7.19744,5.58653
LASV_NGA_2018_IRR_048_NGA-Ondo_Owo_Hs_2018-02-04,MK117984,NGA,Ondo,Owo,7.19744,5.58653
LASV_NGA_2018_IRR_050_NGA-Ondo_Ifon_Hs_2018-02-05,MK117985,NGA,Ondo,Ifon,6.926767,5.773787
LASV_NGA_2018_IRR_051_NGA-Edo_Uromi_Hs_2018-02-06,MK117986,NGA,Edo,Uromi,6.712259,6.329005
LASV_NGA_2018_IRR_052_NGA-Ondo_Owo_Hs_2018-02-07,MK117987,NGA,Ondo,Owo,7.19744,5.58653
LASV_NGA_2018_IRR_053_NGA-Edo_Uromi_Hs_2018-02-08,MK117988,NGA,Edo,Uromi,6.712259,6.329005
LASV_NGA_2018_IRR_054_NGA-Bauchi_Kufai_Hs_2018-02-04,MK117989,NGA,Bauchi,Kufai,9.983,9.233
LASV_NGA_2018_IRR_056_NGA-Ondo_Owo_Hs_2018-02-09,MK117990,NGA,Ondo,Owo,7.19744,5.58653
LASV_NGA_2018_IRR_057_NGA-Ondo_Owo_Hs_2018-02-09,MK117991,NGA,Ondo,Owo,7.19744,5.58653
LASV_NGA_2018_IRR_060_NGA-Ebonyi_Isiama_Hs_2018-02-03,MK117992,NGA,Ebonyi,Isiama,6.065463,7.81309
LASV_NGA_2018_IRR_061_NGA-Ebonyi_Abakaliki_Hs_2018-02-07,MK117993,NGA,Ebonyi,Abakaliki,6.333333,8.1
LASV_NGA_2018_IRR_063_NGA-Ebonyi_Amogwe_Hs_2018-02-07,MK117994,NGA,Ebonyi,Amogwe,6.1878,8.1189
LASV_NGA_2018_IRR_064_NGA-Ebonyi_Abakaliki_Hs_2018-02-03,MK117995,NGA,Ebonyi,Abakaliki,6.333333,8.1
LASV_NGA_2018_IRR_066_NGA-Edo_Auchi_Hs_2018-02-10,MK117997,NGA,Edo,Auchi,7.066667,6.266667
LASV_NGA_2018_IRR_071_NGA-Ondo_Ifon_Hs_2018-02-11,MK117998,NGA,Ondo,Ifon,6.926767,5.773787
LASV_NGA_2018_IRR_072_NGA-Ondo_Owo_Hs_2018-02-12,MK117999,NGA,Ondo,Owo,7.19744,5.58653
LASV_NGA_2018_IRR_073_NGA-Anambra_Ode-Nzam_Hs_2018-02-12,MK118000,NGA,Anambra,Ode-Nzam,6.452608,6.726605
LASV_NGA_2018_IRR_074_NGA-Edo_Sobe_Hs_2018-02-12,MK118001,NGA,Edo,Sobe,6.850844,5.777564
LASV_NGA_2018_IRR_075_NGA-Edo_BeninCity_Hs_2018-02-12,MK118002,NGA,Edo,BeninCity,6.333333,5.622222
LASV_NGA_2018_IRR_077_NGA-Edo_Ubunmwonde_Hs_2018-02-12,MK118003,NGA,Edo,Ubunmwonde,6.479748,5.898933
LASV_NGA_2018_IRR_078_NGA-Edo_Auchi_Hs_2018-02-12,MK118004,NGA,Edo,Auchi,7.066667,6.266667
LASV_NGA_2018_IRR_079_NGA-Edo_Uromi_Hs_2018-02-12,MK118005,NGA,Edo,Uromi,6.712259,6.329005
LASV_NGA_2018_IRR_080_NGA-Edo_Ekpoma_Hs_2018-02-13,MK118006,NGA,Edo,Ekpoma,6.75,6.133333
LASV_NGA_2018_IRR_082_NGA-Ondo_Owo_Hs_2018-02-13,MK118007,NGA,Ondo,Owo,7.19744,5.58653
LASV_NGA_2018_IRR_083_NGA-Ondo_Owo_Hs_2018-02-13,MK118008,NGA,Ondo,Owo,7.19744,5.58653
LASV_NGA_2018_IRR_084_NGA-Ondo_Owo_Hs_2018-02-13,MK118009,NGA,Ondo,Owo,7.19744,5.58653
LASV_NGA_2018_IRR_085_NGA-Edo_Sabongida-Ora_Hs_2018-02-14,MK118010,NGA,Edo,Sabongida-Ora,6.947775,5.91429
LASV_NGA_2018_IRR_086_NGA-Bauchi_Wandi_Hs_2018-02-08,MK118011,NGA,Bauchi,Wandi,9.960813,9.502202
LASV_NGA_2018_IRR_091_NGA-Edo_Afowa_Hs_2018-02-15,MK118013,NGA,Edo,Afowa,7.113571,6.327094
LASV_NGA_2018_IRR_092_NGA-Ondo_Owo_Hs_2018-02-15,MK118014,NGA,Ondo,Owo,7.19744,5.58653
LASV_NGA_2018_IRR_093_NGA-Ondo_Owo_Hs_2018-02-15,MK118015,NGA,Ondo,Owo,7.19744,5.58653
LASV_NGA_2018_IRR_095_NGA-Ekiti_Ado-Ekiti_Hs_2018-02-15,MK118016,NGA,Ekiti,Ado-Ekiti,7.62692,5.21561
LASV_NGA_2018_IRR_096_NGA-Delta_Asaba_Hs_2018-02-17,MK118017,NGA,Delta,Asaba,6.197842,6.728467
LASV_NGA_2018_IRR_099_NGA-Ebonyi_UmunwaguIdembia_Hs_2018-02-15,MK118018,NGA,Ebonyi,UmunwaguIdembia,6.128725,8.00679
LASV_NGA_2018_IRR_100_NGA-Ebonyi_Ohaozara_Hs_2018-02-12,MK118019,NGA,Ebonyi,Ohaozara,NA,NA
LASV_NGA_2018_IRR_101_NGA-Ebonyi_Abakaliki_Hs_2018-02-12,MK118020,NGA,Ebonyi,Abakaliki,6.333333,8.1
LASV_NGA_2018_IRR_103_NGA-Edo_Uromi_Hs_2018-02-18,MK118021,NGA,Edo,Uromi,6.712259,6.329005
LASV_NGA_2018_IRR_110_NGA-Edo_Iyamho_Hs_2018-02-20,MK118023,NGA,Edo,Iyamho,7.218593,6.334514
LASV_NGA_2018_IRR_114_NGA-Edo_Ekpoma_Hs_2018-02-21,MK118024,NGA,Edo,Ekpoma,6.75,6.133333
LASV_NGA_2018_IRR_117_NGA-Edo_Afuze_Hs_2018-02-24,MK118026,NGA,Edo,Afuze,6.94089,5.984769
LASV_NGA_2018_IRR_119_NGA-Edo_Auchi_Hs_2018-02-25,MK118027,NGA,Edo,Auchi,7.066667,6.266667
LASV_NGA_2018_IRR_120_NGA-Edo_Ehor_Hs_2018-02-25,MK118028,NGA,Edo,Ehor,6.615948,5.986347
LASV_NGA_2018_IRR_121_NGA-Edo_Uhiele_Hs_2018-02-26,MK118029,NGA,Edo,Uhiele,6.713854,6.154398
LASV_NGA_2018_IRR_126_NGA-Ondo_Ute_Hs_2018-02-28,MK118030,NGA,Ondo,Ute,6.849914,5.600172
LASV_NGA_2018_IRR_131_NGA-Edo_BeninCity_Hs_2018-03-01,MK118031,NGA,Edo,BeninCity,6.333333,5.622222
LASV_NGA_2018_IRR_133_NGA-Kogi_Idah_Hs_2018-03-02,MK118032,NGA,Kogi,Idah,7.11365,6.74345
LASV_NGA_2018_IRR_135_NGA-Edo_Ekpoma_Hs_2018-03-05,MK118033,NGA,Edo,Ekpoma,6.75,6.133333
LASV_NGA_2018_IRR_136_NGA-Bauchi_Lukshi_Hs_2018-03-05,MK118034,NGA,Bauchi,Lukshi,10.03284,9.386606
LASV_NGA_2018_IRR_137_NGA-Edo_Uromi_Hs_2018-03-08,MK118035,NGA,Edo,Uromi,6.712259,6.329005
LASV_NGA_2018_IRR_140_NGA-Ondo_Akure_Hs_2018-02-23,MK118037,NGA,Ondo,Akure,7.25,5.195
LASV_NGA_2018_IRR_141_NGA-Kogi_Idah_Hs_2018-02-23,MK118038,NGA,Kogi,Idah,7.11365,6.74345
LASV_NGA_2018_IRR_142_NGA-Edo_Uromi_Hs_2018-03-09,MK118039,NGA,Edo,Uromi,6.712259,6.329005
MK281624|LASV0230-DELTA-2018|Human|NIG|2018-02-04,MK281624,NGA,Delta,,NA,NA
MK281625|LASV0237-EDO-2018|Human|NGA|2018-02-26,MK281625,NGA,Edo,,NA,NA
MK281627|LASV0225-ONDO-2018|Human|NGA|2018-01-20,MK281627,NGA,Ondo,,NA,NA
MK281631|LASV0233-EDO-2018|Human|NGA|2018-02-18,MK281631,NGA,Edo,,NA,NA
MK291248|LASV-SM1|Human|NIG|2015,MK291248,NGA,,,NA,NA
MK291249|LASV-SM2|Human|NIG|2014,MK291249,NGA,,,NA,NA
MK291250|LASV-SM3|Human|NIG|2014,MK291250,NGA,,,NA,NA
MN275173|LF2384-NS-DIA-1|Human|SLE|2012,MN275173,SLE,,,NA,NA
