segment_S,accession_S,country,admin1,location,latitude,longitude
AF181854|las803213|Human|Nigeria|1974-02,AF181854,NGA,Anambra,Onitsha,6.166667,6.783333
AF182220|las803214|Human|Nigeria|1974,AF182220,NGA,Anambra,Onitsha,6.166667,6.783333
AF182221|las806316|Human|Nigeria|1989,AF182221,NGA,Edo,Ekpoma,6.75,6.133333
AF182222|las808031|Human|Nigeria|1994,AF182222,NGA,Edo,Ekpoma,6.75,6.133333
AF182223|las806320|Human|Nigeria|1989,AF182223,NGA,Edo,Ekpoma,6.75,6.133333
AF182225|las806321|Human|Nigeria|1989,AF182225,NGA,Imo,Owerri,5.485,7.035
AF182226|las806322|Human|Nigeria|1989,AF182226,NGA,Imo,Owerri,5.485,7.035
AF182228|las806791|Human|Nigeria|1993,AF182228,NGA,Plateau,Jos,9.916667,8.890278
AF182229|las803210|Human|Nigeria|1975,AF182229,NGA,Plateau,Vom,9.737692,8.808975
AF182230|las803212|Human|Nigeria|1976,AF182230,NGA,Plateau,Vom,9.737692,8.808975
AF182232|las803208|Human|Nigeria|1975,AF182232,NGA,Kaduna,Zonkwa,9.783333,8.283333
AF182235|las803205|Human|Sierra_Leone|1976,AF182235,SLE,Kailahun,Segbwema,7.997399,-10.950236
AF182237|las9607290|Human|Sierra_Leone|1996,AF182237,SLE,Kailahun,Segbwema,7.997399,-10.950236
AF182246|las807976|Human|Sierra_Leone|1977,AF182246,SLE,Kenema,Tongo,8.2188562,-11.0604289
AF182247|las803211|Human|Sierra_Leone|1972,AF182247,SLE,Kenema,Panguma,8.184479,-11.134313
AF182250|las803206|Human|Sierra_Leone|1976,AF182250,SLE,Kenema,Panguma,8.184479,-11.134313
AF182252|las9607300|Human|Sierra_Leone|1996,AF182252,SLE,Kenema,Tongo,8.2188562,-11.0604289
AF182253|las801100|Mouse|Sierra_Leone|1978,AF182253,SLE,Kenema,Tongo,8.2188562,-11.0604289
AF182254|las806843|Human|Sierra_Leone|1993,AF182254,SLE,Kenema,Tongo,8.2188562,-11.0604289
AF182255|las9607302|Human|Sierra_Leone|1996,AF182255,SLE,Kenema,Tongo,8.2188562,-11.0604289
AF182257|las807974|Human|Sierra_Leone|1976,AF182257,SLE,Kailahun,Mobai,7.9935681,-10.7537466
AF182265|las807998|Human|Guinea|1997,AF182265,GIN,Nzerekore,Nzerekore,7.758615,-8.815928
AF182267|las807992|Human|Guinea|1997,AF182267,GIN,Faranah,Kissidougou,9.192085,-10.113945
AF182269|las807868|Human|Guinea|1996,AF182269,GIN,Faranah,Faranah,10.045385,-10.750165
AF182270|las808255|Mouse|Guinea|1996,AF182270,GIN,Faranah,Faranah,10.045385,-10.750165
AF182272|las9608911|Human|Nigeria|1996,AF182272,NGA,Plateau,Jos,9.916667,8.890278
AF333969|CSF|Human|NIG|2000-03-28,AF333969,NGA,Plateau,Jos,9.916667,8.890278
PB1_NGA-Plateau_Jos_Hs_1982-01,AJ969405,NGA,Plateau,Jos,9.916667,8.890278
DQ832667|GB129|Mouse|Guinea|2003,DQ832667,GIN,Faranah,Gbetaya,9.841017,-11.04015
DQ832668|GB132|Mouse|Guinea|2003,DQ832668,GIN,Faranah,Gbetaya,9.841017,-11.04015
DQ832669|BA263|Mouse|Guinea|2003,DQ832669,GIN,Faranah,Bantou,10.059767,-10.58615
DQ832671|BA302|Mouse|Guinea|2003,DQ832671,GIN,Faranah,Bantou,10.059767,-10.58615
DQ832672|BA350|Mouse|Guinea|2003,DQ832672,GIN,Faranah,Bantou,10.059767,-10.58615
DQ832674|BA356|Mouse|Guinea|2003,DQ832674,GIN,Faranah,Bantou,10.059767,-10.58615
DQ832676|BA375|Mouse|Guinea|2003,DQ832676,GIN,Faranah,Bantou,10.059767,-10.58615
DQ832678|BA378|Mouse|Guinea|2003,DQ832678,GIN,Faranah,Bantou,10.059767,-10.58615
DQ832682|TA416|Mouse|Guinea|2003,DQ832682,GIN,Faranah,Tanganya,10.0004,-10.972783
DQ832683|TA341|Mouse|Guinea|2003,DQ832683,GIN,Faranah,Tanganya,10.0004,-10.972783
DQ832684|TA444|Mouse|Guinea|2003,DQ832684,GIN,Faranah,Tanganya,10.0004,-10.972783
DQ832686|TA464|Mouse|Guinea|2003,DQ832686,GIN,Faranah,Tanganya,10.0004,-10.972783
DQ832689|TA817|Mouse|Guinea|2004,DQ832689,GIN,Faranah,Tanganya,10.0004,-10.972783
DQ832690|TA820|Mouse|Guinea|2004,DQ832690,GIN,Faranah,Tanganya,10.0004,-10.972783
DQ832692|DGD4|Mouse|Guinea|2005,DQ832692,GIN,Gueckedou,Denguedou,8.338811,-10.543925
DQ832694|DGD28|Mouse|Guinea|2005,DQ832694,GIN,Gueckedou,Denguedou,8.338811,-10.543925
FJ824031|Soromba|Human|MLI|2009-02-17,FJ824031,MLI,,Soromba,10.5891,-7.1558
GA391_NGA-Kaduna_Zaria_Hs_1977-11,GA391_NGA-Kaduna_Zaria_Hs_1977-11,NGA,Kaduna,Zaria,11.08477,7.68839
GU481064|Nig08-02|Human|Nigeria|2008-01-02,GU481064,NGA,Federal Capital Territory,Abuja,9.050211,7.396413
GU481074|Nig08_A37|Human|Nigeria|2008-02,GU481074,NGA,Edo,Irrua,6.738429,6.221953
GU481076|Nig08_A41|Human|Nigeria|2008-02,GU481076,NGA,Edo,Irrua,6.738429,6.221953
GU481078|Nig08_A47|Human|Nigeria|2008-02,GU481078,NGA,Edo,Uromi,6.712259,6.329005
GU573547|Soromba_R240|Mouse|Mali|2009,GU573547,MLI,,Soromba,10.5891,-7.1558
GU573551|Soromba_R245|Mouse|Mali|2009,GU573551,MLI,,Soromba,10.5891,-7.1558
KF478766|Bamba_R114|Mouse|Mali|2012-03,KF478766,MLI,,Bamba,10.3831,-7.1517
KF478767|Komina_R16|Mouse|Mali|2012-03-03,KF478767,MLI,,Komina,10.6164,-7.1583
KF478768|Ouoma-R123|Mn|NGA|2012-03,KF478768,MLI,,Ouoma,10.397222,-7.259167
KF478769|Soromba-R30|Mn|NGA|2012-03-03,KF478769,MLI,,Soromba,10.5891,-7.1558
KM406538|LM0396|Mastomys_natalensis|SierraLeone|2009-07-22,KM406538,SLE,Kenema,Ngiehun,8.18,-11.08
KM406540|LM0513|Mastomys_natalensis|SierraLeone|2009-08-01,KM406540,SLE,Kenema,Saama,8.28,-11.01
KM406543|LM0619|Mastomys_natalensis|SierraLeone|2009-08-08,KM406543,SLE,Bo,Barlie,8.02,-11.58
KM406554|LM0729|Mastomys_natalensis|SierraLeone|2009-08-15,KM406554,SLE,Kenema,Yawei,7.82,-10.95
KM821773|G502_SLE_2009|Human|Sierra_Leone|2009-04-29,KM821773,SLE,Kenema,Kenema,7.862212,-11.196247
KM821775|G503_SLE_2009|Human|Sierra_Leone|2009-04-30,KM821775,SLE,Kenema,Tongo,8.2188562,-11.0604289
KM821777|G610_SLE_2009|Human|Sierra_Leone|2009-08-28,KM821777,SLE,Kenema,Tongo,8.2188562,-11.0604289
KM821779|G636_SLE_2009|Human|Sierra_Leone|2009-10-09,KM821779,SLE,Kenema,Kono Gorama,8.38727,-11.0879
KM821787|G733_SLE_2010|Human|Sierra_Leone|2010-01-17,KM821787,SLE,Kenema,Panguma,8.184479,-11.134313
KM821790|G806_SLE_2010|Human|Sierra_Leone|2010-02-26,KM821790,SLE,Kenema,Panguma,8.184479,-11.134313
KM821792|G808_SLE_2010|Human|Sierra_Leone|2010-02-27,KM821792,SLE,Kenema,Panguma,8.184479,-11.134313
KM821800|G1442_SLE_2011|Human|Sierra_Leone|2011-01-20,KM821800,SLE,Kenema,Tongo,8.2188562,-11.0604289
KM821802|G1529_SLE_2011|Human|Sierra_Leone|2011-03-02,KM821802,SLE,Bo,Gondama,7.86688,-11.70931
KM821804|G1618_SLE_2011|Human|Sierra_Leone|2011-03-26,KM821804,SLE,Kailahun,Segbwema,7.997399,-10.950236
KM821808|G1647_SLE_2011|Human|Sierra_Leone|2011-04-15,KM821808,SLE,Kenema,Kenema,7.862212,-11.196247
KM821812|G1774_SLE_2011|Human|Sierra_Leone|2011-06-11,KM821812,SLE,Kenema,Largo,8.05,-11.11
KM821814|G1792_SLE_2011|Human|Sierra_Leone|2011-06-17,KM821814,SLE,Kenema,Tongo,8.2188562,-11.0604289
KM821815|G1897_SLE_2011|Human|Sierra_Leone|2011-07-27,KM821815,SLE,Kenema,Segbwema,7.997399,-10.950236
KM821816|G1932_SLE_2011|Human|Sierra_Leone|2011-08-24,KM821816,SLE,Bo,Gondama,7.86688,-11.70931
KM821818|G1959_SLE_2011|Human|Sierra_Leone|2011-09-09,KM821818,SLE,Kenema,Kenema,7.862212,-11.196247
KM821824|G2147_SLE_2011|Human|Sierra_Leone|2011-11-16,KM821824,SLE,Kenema,Tongo Tongola old town,8.21154,-11.05124
KM821826|G2165_SLE_2011|Human|Sierra_Leone|2011-11-18,KM821826,SLE,Kenema,Panguma,8.184479,-11.134313
KM821828|G2184_SLE_2011|Human|Sierra_Leone|2011-11-26,KM821828,SLE,Bo,Gondama,7.86688,-11.70931
KM821830|G2197_SLE_2011|Human|Sierra_Leone|2011-12-04,KM821830,SLE,Kenema,Panguma,8.184479,-11.134313
KM821832|G2222_SLE_2011|Human|Sierra_Leone|2011-12-19,KM821832,SLE,Kenema,Largo,8.05,-11.11
KM821833|G2230_SLE_2012|Human|Sierra_Leone|2011-12-29,KM821833,SLE,Bo,Gondama,7.86688,-11.70931
KM821835|G2259_SLE_2012|Human|Sierra_Leone|2012-01-16,KM821835,SLE,Bo,Gondama,7.86688,-11.70931
KM821839|G2280_SLE_2012|Human|Sierra_Leone|2012-01-23,KM821839,SLE,Kenema,Pegama,8.116599,-11.174797
KM821843|G2315_SLE_2012|Human|Sierra_Leone|2012-02-10,KM821843,SLE,Kenema,Panguma,8.184479,-11.134313
KM821845|G2318_SLE_2012|Human|Sierra_Leone|2012-02-12,KM821845,SLE,Kenema,Ngiehun,8.18,-11.08
KM821847|G2363_SLE_2012|Human|Sierra_Leone|2012-02-27,KM821847,SLE,Bo,Gondama,7.86688,-11.70931
KM821848|G2384_SLE_2012|Human|Sierra_Leone|2012-03-09,KM821848,SLE,Kailahun,Segbwema,7.997399,-10.950236
KM821852|G2405_SLE_2012|Human|Sierra_Leone|2012-03-27,KM821852,SLE,Kenema,Kenema,7.862212,-11.196247
KM821854|G2427_SLE_2012|Human|Sierra_Leone|2012-03-31,KM821854,SLE,Kenema,Nekabu,7.925974,-11.054267
KM821856|G2431_SLE_2012|Human|Sierra_Leone|2012-04-02,KM821856,SLE,Bo,Gondama,7.86688,-11.70931
KM821857|G2511_SLE_2012|Human|Sierra_Leone|2012-05-18,KM821857,SLE,Kenema,Kamboma,8.356385,-11.433121
KM821859|G2554_SLE_2012|Human|Sierra_Leone|2012-06-24,KM821859,SLE,Kenema,Kenema,7.862212,-11.196247
KM821861|G2557_SLE_2012|Human|Sierra_Leone|2012-06-26,KM821861,SLE,Bo,Taninahun Malin,7.891162,-12.086255
KM821867|G2612_SLE_2012|Human|Sierra_Leone|2012-07-23,KM821867,SLE,Kenema,Kenema,7.862212,-11.196247
KM821869|G2615_SLE_2012|Human|Sierra_Leone|2012-07-24,KM821869,SLE,Bo,Gondama,7.86688,-11.70931
KM821871|G2723_SLE_2012|Human|Sierra_Leone|2012-08-21,KM821871,SLE,Bo,Gondama,7.86688,-11.70931
KM821874|G2868_SLE_2012|Human|Sierra_Leone|2012-10-08,KM821874,SLE,Kenema,Kpetema-Brewaya,8.355083,-11.324278
KM821876|G2903_SLE_2012|Human|Sierra_Leone|2012-10-30,KM821876,SLE,Bo,Gondama,7.86688,-11.70931
KM821877|G2906_SLE_2012|Human|Sierra_Leone|2012-11-03,KM821877,SLE,Kenema,Kenema,7.862212,-11.196247
KM821878|G2934_SLE_2012|Human|Sierra_Leone|2012-11-27,KM821878,SLE,Kenema,Tongo,8.2188562,-11.0604289
KM821882|G3010_SLE_2013|Human|Sierra_Leone|2013-02-05,KM821882,SLE,Kenema,Nyadeyama,8.3188107,-11.3151104
KM821884|G3016_SLE_2013|Human|Sierra_Leone|2013-02-14,KM821884,SLE,Kenema,Panguma,8.184479,-11.134313
KM821885|G3034_SLE_2013|Human|Sierra_Leone|2013-02-27,KM821885,SLE,Bo,Bo,7.954896,-11.740823
KM821886|G3076_SLE_2013|Human|Sierra_Leone|2013-04-15,KM821886,SLE,Kenema,Panguma,8.184479,-11.134313
KM821887|G3101_SLE_2013|Human|Sierra_Leone|2013-05-11,KM821887,SLE,Kenema,Gbado,8.007853,-11.278946
KM821890|G3110_SLE_2013|Human|Sierra_Leone|2013,KM821890,SLE,Bombali,Makeni,8.87184,-12.038183
KM821892|G3148_SLE_2013|Human|Sierra_Leone|2013-06-01,KM821892,SLE,Kenema,Panguma,8.184479,-11.134313
KM821894|G3151_SLE_2013|Human|Sierra_Leone|2013-06-05,KM821894,SLE,Kenema,Kebawana,7.65,-11.133333
KM821899|G3206_SLE_2013|Human|Sierra_Leone|2013-07-01,KM821899,SLE,Kenema,Panguma,8.184479,-11.134313
KM821902|G3229_SLE_2013|Human|Sierra_Leone|2013-07-13,KM821902,SLE,Kenema,Kenema,7.862212,-11.196247
KM821904|G3234_SLE_2013|Human|Sierra_Leone|2013-07-15,KM821904,SLE,Bo,Upper Saama,7.666711,-11.859363
KM821909|G3278_SLE_2013|Human|Sierra_Leone|2013-08-02,KM821909,SLE,Bo,Torpkoi Town,7.9538763,-11.7132483
KM821910|G3283_SLE_2013|Human|Sierra_Leone|2013-08-05,KM821910,SLE,Kenema,Kenema,7.862212,-11.196247
pinneo_NGA-Borno_Lassa_LS_1969,KM822128,NGA,Borno,Lassa,10.686987,13.272643
KP339054|170|Mastomys natalensis|Guinea|2003-5-23,KP339054,GIN,Faranah,Gbetaya,9.841017,-11.04015
KP339083|813|Mastomys natalensis|Guinea|2004-2-1,KP339083,GIN,Faranah,Tanganya,10.0004,-10.972783
KP339089|936|Mastomys natalensis|Guinea|2004-5-22,KP339089,GIN,Faranah,Bantou,10.059767,-10.58615
KP339103|1198|Mastomys natalensis|Guinea|2004-10-4,KP339103,GIN,Faranah,Bantou,10.059767,-10.58615
KP339121|1755|Mastomys natalensis|Guinea|2011-10-19,KP339121,GIN,Faranah,Bantou,10.059767,-10.58615
KP339122|1770|Mastomys natalensis|Guinea|2011-10-19,KP339122,GIN,Faranah,Bantou,10.059767,-10.58615
KP339126|1840|Mastomys natalensis|Guinea|2011-10-21,KP339126,GIN,Faranah,Bantou,10.059767,-10.58615
KP339127|1858|Mastomys natalensis|Guinea|2011-10-23,KP339127,GIN,Faranah,Tanganya,10.0004,-10.972783
KP339132|1925|Mastomys natalensis|Guinea|2011-10-25,KP339132,GIN,Faranah,Tanganya,10.0004,-10.972783
KP640562|Eguare-Egoro 88|Mastomys natalensis|Nigeria|2011-3-22,KP640562,NGA,Edo,Eguare-Egoro,6.775093,6.077512
KP640563|Eguare-Egoro_97|Mouse|Nigeria|2011-03-22,KP640563,NGA,Edo,Eguare-Egoro,6.775093,6.077512
KP640564|Eguare-Egoro 106|Mastomys natalensis|Nigeria|2011-3-23,KP640564,NGA,Edo,Eguare-Egoro,6.775093,6.077512
KP640566|Eguare-Egoro 240|Mastomys natalensis|Nigeria|2011-10-17,KP640566,NGA,Edo,Eguare-Egoro,6.775093,6.077512
KP640569|Ekpoma 508|Mastomys natalensis|Nigeria|2012-10-18,KP640569,NGA,Edo,Ekpoma,6.75,6.133333
KP640570|Ekpoma 512|Mastomys natalensis|Nigeria|2012-10-18,KP640570,NGA,Edo,Ekpoma,6.75,6.133333
KP640571|Ekpoma 518|Mastomys natalensis|Nigeria|2012-10-18,KP640571,NGA,Edo,Ekpoma,6.75,6.133333
KP640572|Ekpoma 521|Mastomys natalensis|Nigeria|2012-10-18,KP640572,NGA,Edo,Ekpoma,6.75,6.133333
KP640574|Ekpoma 549|Mastomys natalensis|Nigeria|2012-10-18,KP640574,NGA,Edo,Ekpoma,6.75,6.133333
KP640576|Ekpoma 601|Mastomys natalensis|Nigeria|2012-10-21,KP640576,NGA,Edo,Ekpoma,6.75,6.133333
KT833175|Sok07|GIN|Guinea|2013-11-8,KT833175,GIN,Faranah,Sokourala,10.0567833,-10.6658333
KT833176|Sok10|GIN|Guinea|2013-11-8,KT833176,GIN,Faranah,Sokourala,10.0567833,-10.6658333
KT833177|Sok18|GIN|Guinea|2013-11-9,KT833177,GIN,Faranah,Sokourala,10.0567833,-10.6658333
KT833178|Sok21|GIN|Guinea|2013-11-9,KT833178,GIN,Faranah,Sokourala,10.0567833,-10.6658333
KT833180|Sok32|GIN|Guinea|2013-11-10,KT833180,GIN,Faranah,Sokourala,10.0567833,-10.6658333
KT833182|Dam03|GIN|Guinea|2013-11-15,KT833182,GIN,Faranah,Damania,9.806833,-10.863267
KT833183|Dam05|GIN|Guinea|2013-11-15,KT833183,GIN,Faranah,Damania,9.806833,-10.863267
KT833184|Dam15|GIN|Guinea|2013-11-15,KT833184,GIN,Faranah,Damania,9.806833,-10.863267
KT833186|Dam38|GIN|Guinea|2013-11-16,KT833186,GIN,Faranah,Damania,9.806833,-10.863267
KT833187|Dam49|GIN|Guinea|2013-11-17,KT833187,GIN,Faranah,Damania,9.806833,-10.863267
KT833188|Yar14|GIN|Guinea|2013-11-20,KT833188,GIN,Faranah,Yarawalia,9.95445,-10.7318833
KT833189|Yar20|GIN|Guinea|2013-11-20,KT833189,GIN,Faranah,Yarawalia,9.95445,-10.7318833
KT833190|Yar24|GIN|Guinea|2013-11-21,KT833190,GIN,Faranah,Yarawalia,9.95445,-10.7318833
KT833191|Yar36|GIN|Guinea|2013-11-21,KT833191,GIN,Faranah,Yarawalia,9.95445,-10.7318833
KT833192|Yar46|GIN|Guinea|2013-11-21,KT833192,GIN,Faranah,Yarawalia,9.95445,-10.7318833
KT833193|Kho10|GIN|Guinea|2013-11-24,KT833193,GIN,Faranah,Khoria,9.9422667,-10.8930333
KT833194|Kho29|GIN|Guinea|2013-11-26,KT833194,GIN,Faranah,Khoria,9.9422667,-10.8930333
KT833196|Dal02|GIN|Guinea|2013-11-28,KT833196,GIN,Faranah,Dalafilani,10.1431667,-10.60505
KT833197|Dal04|GIN|Guinea|2013-11-28,KT833197,GIN,Faranah,Dalafilani,10.1431667,-10.60505
KT833198|Dal11|GIN|Guinea|2013-11-28,KT833198,GIN,Faranah,Dalafilani,10.1431667,-10.60505
KT833200|Dal25|GIN|Guinea|2013-11-29,KT833200,GIN,Faranah,Dalafilani,10.1431667,-10.60505
KT833203|Saf01|GIN|Guinea|2013-12-3,KT833203,GIN,Faranah,Safrani,10.0578167,-10.7383667
KT833204|Sil03|GIN|Guinea|2013-12-6,KT833204,GIN,Faranah,Silimi,9.9768167,-0.81955
KT833205|Bri08|GIN|Guinea|2013-12-14,KT833205,GIN,Faranah,Brissa,10.2168333,-10.6887667
KT833206|Bri39|GIN|Guinea|2013-12-16,KT833206,GIN,Faranah,Brissa,10.2168333,-10.6887667
KT833207|Dam71|GIN|Guinea|2014-3-26,KT833207,GIN,Faranah,Damania,9.806833,-10.863267
KT833209|Dam90|GIN|Guinea|2014-3-27,KT833209,GIN,Faranah,Damania,9.806833,-10.863267
KT833211|Sok40|GIN|Guinea|2014-4-3,KT833211,GIN,Faranah,Sokourala,10.0567833,-10.6658333
KT833213|Sok51|GIN|Guinea|2014-4-3,KT833213,GIN,Faranah,Sokourala,10.0567833,-10.6658333
KT833214|Sok61|GIN|Guinea|2014-4-4,KT833214,GIN,Faranah,Sokourala,10.0567833,-10.6658333
KT833219|Son85|GIN|Guinea|2014-4-8,KT833219,GIN,Faranah,Sonkonia,9.912717,-10.798133
KT833220|Son109|GIN|Guinea|2014-4-9,KT833220,GIN,Faranah,Sonkonia,9.912717,-10.798133
KT833221|Yar51|GIN|Guinea|2014-4-13,KT833221,GIN,Faranah,Yarawalia,9.95445,-10.7318833
KT992416|Mad39|Mouse|Guinea|2014-05-08,KT992416,GIN,Kindia,MadinaOula,9.87,-12.43
KT992417|Mad41|Mouse|Guinea|2014-05-08,KT992417,GIN,Kindia,MadinaOula,9.87,-12.43
KT992419|Mad63|Mouse|Guinea|2014-05-09,KT992419,GIN,Kindia,MadinaOula,9.87,-12.43
KT992420|Mad69|Mouse|Guinea|2014-05-09,KT992420,GIN,Kindia,MadinaOula,9.87,-12.43
KT992421|Mad83|Mouse|Guinea|2014-05-10,KT992421,GIN,Kindia,MadinaOula,9.87,-12.43
ONM-299_NGA-Benue_COORDINATES_Me_2011-10-23,KT992422,NGA,Benue,COORDINATES,7.6333,8.4
ONM-314_NGA-Benue_COORDINATES_Me_2011-10-24,KT992423,NGA,Benue,COORDINATES,7.6333,8.4
ONM-700_NGA-Benue_COORDINATES_Me_2012-10-29,KT992424,NGA,Benue,COORDINATES,7.6333,8.4
Kak-428_NGA-Osun_COORDINATES_Hp_2012-03-15,KT992425,NGA,Osun,COORDINATES,7.6833,4.6167
OSPMH86_NGA-Osun_COORDINATES_Hp_2008-10,KT992436,NGA,Osun,COORDINATES,7.6833,4.6167
OSPMH89_NGA-Osun_COORDINATES_Hp_2008-10,KT992437,NGA,Osun,COORDINATES,7.6833,4.6167
OSPMH123_NGA-Osun_COORDINATES_Hp_2009-03,KT992438,NGA,Osun,COORDINATES,7.6833,4.6167
OSPMH124_NGA-Osun_COORDINATES_Hp_2009-03,KT992439,NGA,Osun,COORDINATES,7.6833,4.6167
LASV|NGA|2019|IRR_0001|2019-01-15,LASV|NGA|2019|IRR_0001|2019-01-15,NGA,Edo,Jattu,7.083333,6.283333
LASV|NGA|2019|IRR_0002|2019-01-16,LASV|NGA|2019|IRR_0002|2019-01-16,NGA,Edo,Okpella,7.272099,6.346321
LASV|NGA|2019|IRR_0003|2019-01-15,LASV|NGA|2019|IRR_0003|2019-01-15,NGA,Ondo,Owo,7.19744,5.58653
LASV|NGA|2019|IRR_0004|2019-01-17,LASV|NGA|2019|IRR_0004|2019-01-17,NGA,Ondo,Ifon,6.926767,5.773787
LASV|NGA|2019|IRR_0005|2019-01-18,LASV|NGA|2019|IRR_0005|2019-01-18,NGA,Edo,Auchi,7.066667,6.266667
LASV|NGA|2019|IRR_0006|2019-01-20,LASV|NGA|2019|IRR_0006|2019-01-20,NGA,Edo,Iruekpen,6.754196,6.054167
LASV|NGA|2019|IRR_0008|2019-01-20,LASV|NGA|2019|IRR_0008|2019-01-20,NGA,Edo,Jattu,7.083333,6.283333
LASV|NGA|2019|IRR_0011|2019-01-22,LASV|NGA|2019|IRR_0011|2019-01-22,NGA,Ondo,Owo,7.19744,5.58653
LASV|NGA|2019|IRR_0013|2019-01-18,LASV|NGA|2019|IRR_0013|2019-01-18,NGA,Edo,Uromi,6.712259,6.329005
LASV|NGA|2019|IRR_0017|2018-12-31,LASV|NGA|2019|IRR_0017|2018-12-31,NGA,Ondo,Owo,7.19744,5.58653
LASV|NGA|2019|IRR_0019|2019-01-08,LASV|NGA|2019|IRR_0019|2019-01-08,NGA,Edo,Uromi,6.712259,6.329005
LASV|NGA|2019|IRR_0020|2019-01-09,LASV|NGA|2019|IRR_0020|2019-01-09,NGA,Ondo,Akoko,7.457113,5.799837
LASV|NGA|2019|IRR_0021|2019-01-18,LASV|NGA|2019|IRR_0021|2019-01-18,NGA,Ondo,Owo,7.19744,5.58653
LASV|NGA|2019|IRR_0022|2019-01-25,LASV|NGA|2019|IRR_0022|2019-01-25,NGA,Edo,Ekpoma,6.75,6.133333
LASV|NGA|2019|IRR_0023|2019-01-26,LASV|NGA|2019|IRR_0023|2019-01-26,NGA,Ondo,Owo,7.19744,5.58653
LASV|NGA|2019|IRR_0024|2019-01-27,LASV|NGA|2019|IRR_0024|2019-01-27,NGA,Edo,Benin,6.333333,5.622222
LASV|NGA|2019|IRR_0025|2019-02-02,LASV|NGA|2019|IRR_0025|2019-02-02,NGA,Edo,Irrua,6.738429,6.221953
LASV|NGA|2019|IRR_0026|2019-02-02,LASV|NGA|2019|IRR_0026|2019-02-02,NGA,Ondo,Owo,7.19744,5.58653
LASV|NGA|2019|IRR_0028|2019-01-25,LASV|NGA|2019|IRR_0028|2019-01-25,NGA,Ondo,Owo,7.19744,5.58653
LASV|NGA|2019|IRR_0029|2019-01-18,LASV|NGA|2019|IRR_0029|2019-01-18,NGA,Ondo,Owo,7.19744,5.58653
LASV|NGA|2019|IRR_0031|2019-01-08,LASV|NGA|2019|IRR_0031|2019-01-08,NGA,Edo,Jattu,7.083333,6.283333
LASV|NGA|2019|IRR_0032|2019-01-27,LASV|NGA|2019|IRR_0032|2019-01-27,NGA,Ondo,Owo,7.19744,5.58653
LASV|NGA|2019|IRR_0039|2019-01-17,LASV|NGA|2019|IRR_0039|2019-01-17,NGA,Ondo,Isuada,7.229293,5.580561
LASV|NGA|2019|IRR_0041|2019-01-24,LASV|NGA|2019|IRR_0041|2019-01-24,NGA,Ondo,Owo,7.19744,5.58653
LASV|NGA|2019|IRR_0048|2019-01-08,LASV|NGA|2019|IRR_0048|2019-01-08,NGA,Edo,Auchi,7.066667,6.266667
LASV|NGA|2019|IRR_0049|2019-01-04,LASV|NGA|2019|IRR_0049|2019-01-04,NGA,Edo,Jattu,7.083333,6.283333
LASV|NGA|2019|IRR_0050|2019-01-16,LASV|NGA|2019|IRR_0050|2019-01-16,NGA,Edo,Jattu,7.083333,6.283333
LASV|NGA|2019|IRR_0051|2019-02-02,LASV|NGA|2019|IRR_0051|2019-02-02,NGA,Edo,Auchi,7.066667,6.266667
LASV|NGA|2019|IRR_0053|2019-01-23,LASV|NGA|2019|IRR_0053|2019-01-23,NGA,Ondo,Owo,7.19744,5.58653
LASV|NGA|2019|IRR_0054|2019-01-12,LASV|NGA|2019|IRR_0054|2019-01-12,NGA,Ondo,Ayede Ogbese,7.202272,5.381605
LASV|NGA|2019|IRR_0056|2019-01-07,LASV|NGA|2019|IRR_0056|2019-01-07,NGA,Ondo,Oka-Akoko,7.456942,5.800781
LASV|NGA|2019|IRR_0057|2019-01-29,LASV|NGA|2019|IRR_0057|2019-01-29,NGA,Ondo,Owo,7.19744,5.58653
LASV|NGA|2019|IRR_0059|2019-02-17,LASV|NGA|2019|IRR_0059|2019-02-17,NGA,Edo,Irrua,6.738429,6.221953
LASV|NGA|2019|IRR_0060|2019-02-06,LASV|NGA|2019|IRR_0060|2019-02-06,NGA,Edo,Auchi,7.066667,6.266667
LASV|NGA|2019|IRR_0062|2019-02-12,LASV|NGA|2019|IRR_0062|2019-02-12,NGA,Ondo,Owo,7.19744,5.58653
LASV|NGA|2019|IRR_0063|2018-12-31,LASV|NGA|2019|IRR_0063|2018-12-31,NGA,Ondo,Owo,7.19744,5.58653
LASV|NGA|2019|IRR_0064|2019-01-03,LASV|NGA|2019|IRR_0064|2019-01-03,NGA,Edo,Ubiaja,6.659722,6.382222
LASV|NGA|2019|IRR_0065|2019-01-02,LASV|NGA|2019|IRR_0065|2019-01-02,NGA,Ondo,Okeluse,6.784077,5.589279
LASV|NGA|2019|IRR_0066|2019-01-14,LASV|NGA|2019|IRR_0066|2019-01-14,NGA,Edo,Sobe,6.850844,5.777564
LASV|NGA|2019|IRR_0067|2019-02-08,LASV|NGA|2019|IRR_0067|2019-02-08,NGA,Edo,Auchi,7.066667,6.266667
LASV|NGA|2019|IRR_0068|2019-01-08,LASV|NGA|2019|IRR_0068|2019-01-08,NGA,Edo,Sobe,6.850844,5.777564
LASV|NGA|2019|IRR_0070|2019-02-08,LASV|NGA|2019|IRR_0070|2019-02-08,NGA,Benue,Gboko,7.336619,9.002272
LASV|NGA|2019|IRR_0071|2019-01-07,LASV|NGA|2019|IRR_0071|2019-01-07,NGA,Edo,Ekpoma,6.75,6.133333
LASV|NGA|2019|IRR_0072|2019-01-25,LASV|NGA|2019|IRR_0072|2019-01-25,NGA,Edo,Ekpoma,6.75,6.133333
LASV|NGA|2019|IRR_0073|2019-01-21,LASV|NGA|2019|IRR_0073|2019-01-21,NGA,Edo,Auchi,7.066667,6.266667
LASV|NGA|2019|IRR_0074|2019-01-31,LASV|NGA|2019|IRR_0074|2019-01-31,NGA,Edo,Agbede,6.678119,3.51526
LASV|NGA|2019|IRR_0075|2019-02-15,LASV|NGA|2019|IRR_0075|2019-02-15,NGA,Edo,Auchi,7.066667,6.266667
LASV|NGA|2019|IRR_0076|2019-02-05,LASV|NGA|2019|IRR_0076|2019-02-05,NGA,Ondo,Owo,7.19744,5.58653
LASV|NGA|2019|IRR_0077|2019-01-19,LASV|NGA|2019|IRR_0077|2019-01-19,NGA,Edo,Usen,6.733367,5.401827
LASV|NGA|2019|IRR_0079|2019-02-04,LASV|NGA|2019|IRR_0079|2019-02-04,NGA,Edo,Auchi,7.066667,6.266667
LASV|NGA|2019|IRR_0080|2019-01-17,LASV|NGA|2019|IRR_0080|2019-01-17,NGA,Edo,Uromi,6.712259,6.329005
LASV|NGA|2019|IRR_0081|2019-02-03,LASV|NGA|2019|IRR_0081|2019-02-03,NGA,Edo,Uromi,6.712259,6.329005
LASV|NGA|2019|IRR_0082|2019-01-17,LASV|NGA|2019|IRR_0082|2019-01-17,NGA,Ondo,Ikare Akoko,7.525829,5.762072
LASV|NGA|2019|IRR_0083|2019-01-11,LASV|NGA|2019|IRR_0083|2019-01-11,NGA,Edo,Ekpoma,6.75,6.133333
LASV|NGA|2019|IRR_0092|2019-01-25,LASV|NGA|2019|IRR_0092|2019-01-25,NGA,Edo,Afuze,6.94089,5.984769
LASV|NGA|2019|IRR_0097|2019-02-24,LASV|NGA|2019|IRR_0097|2019-02-24,NGA,Ondo,Ondo,7.088923,4.799094
LASV|NGA|2019|IRR_0098|2019-03-03,LASV|NGA|2019|IRR_0098|2019-03-03,NGA,Ondo,Owo,7.19744,5.58653
LASV|NGA|2019|IRR_0099|2019-03-01,LASV|NGA|2019|IRR_0099|2019-03-01,NGA,Kogi,Ekirin-Ade,7.839884,5.857344
LASV|NGA|2019|IRR_0100|2019-03-03,LASV|NGA|2019|IRR_0100|2019-03-03,NGA,Ondo,Owo,7.19744,5.58653
LASV|NGA|2019|IRR_0101|2019-02-28,LASV|NGA|2019|IRR_0101|2019-02-28,NGA,Ondo,Owo,7.19744,5.58653
LASV|NGA|2019|IRR_0102|2019-02-28,LASV|NGA|2019|IRR_0102|2019-02-28,NGA,Delta,Asaba,6.197842,6.728467
LASV|NGA|2019|IRR_0103|2019-02-28,LASV|NGA|2019|IRR_0103|2019-02-28,NGA,Edo,Jattu,7.083333,6.283333
LASV|NGA|2019|IRR_0105|2019-02-26,LASV|NGA|2019|IRR_0105|2019-02-26,NGA,Edo,Auchi,7.066667,6.266667
LASV|NGA|2019|IRR_0106|2019-02-28,LASV|NGA|2019|IRR_0106|2019-02-28,NGA,Ondo,Ute,6.849914,5.600172
LASV|NGA|2019|IRR_0107|2019-02-26,LASV|NGA|2019|IRR_0107|2019-02-26,NGA,Edo,Jattu,7.083333,6.283333
LASV|NGA|2019|IRR_0112|2019-03-05,LASV|NGA|2019|IRR_0112|2019-03-05,NGA,Edo,Auchi,7.066667,6.266667
LASV|NGA|2019|IRR_0113|2019-03-06,LASV|NGA|2019|IRR_0113|2019-03-06,NGA,Ondo,Owo,7.19744,5.58653
LASV|NGA|2019|IRR_0114|2019-03-07,LASV|NGA|2019|IRR_0114|2019-03-07,NGA,Edo,Uromi,6.712259,6.329005
MF990888|201600568|Human|TGO|2016-03-12,MF990888,TGO,Savanes,Sansanne-MangoÂ ,10.355068,0.474579
MG812647|las803209|Human|Sierra_Leone|1975,MG812647,SLE,Kailahun,Segbwema,7.997399,-10.950236
MG812653|LF11003|Human|Liberia_Bong|2011-02-20,MG812653,LBR,Bong,Suakoko,6.98986,-9.580031
MG812655|LF11011|Human|Liberia_Bong|2011-04-14,MG812655,LBR,Bong,Jorquelleh,6.99556,-9.47222
MG812663|LF16004|Human|Liberia_Bong|2016-02-26,MG812663,LBR,Bong,Jorquelleh,6.99556,-9.47222
MG812665|LF16016|Human|Liberia_Nimba|2016-04-13,MG812665,LBR,Nimba,Garr bain,7.24306,-8.87194
MG812669|LF17019|Human|Liberia_Bong|2017-05-04,MG812669,LBR,Bong,Jorquelleh,6.99556,-9.47222
MG812677|LF17013|Human|Liberia_Bong|2017-02-13,MG812677,LBR,Bong,Jorquelleh,6.99556,-9.47222
MH732623|GUIN-1739-Mn-2018|Mastomys_natalensis|Guinea|2018,MH732623,GIN,Nzerekore,,7.758615,-8.815928
MH887876|LASV0153-EDO-2018|Human|Nigeria|2018-02-04,MH887876,NGA,Edo,Ehor,6.615948,5.986347
MH887880|LASV0154-TARABA-2018|Human|Nigeria|2018-02-04,MH887880,NGA,Taraba,Jalingo,8.89369,11.35765
LASV_NGA_2012_IRR_010_NGA-Delta_Asaba_Hs_2012-05-28,MK107898,NGA,Delta,Asaba,6.197842,6.728467
LASV_NGA_2013_IRR_014_NGA-Bauchi_Bauchi_Hs_2013-11-23,MK107899,NGA,Bauchi,Bauchi,10.314159,9.846282
LASV_NGA_2013_IRR_016_NGA-Bauchi_Bauchi_Hs_2013-12-08,MK107900,NGA,Bauchi,Bauchi,10.314159,9.846282
LASV_NGA_2013_IRR_008_NGA-Taraba_Jalingo_Hs_2013-03-06,MK107901,NGA,Taraba,Jalingo,8.89369,11.35765
LASV_NGA_2014_IRR_005_NGA-Ebonyi_Abakaliki_Hs_2014-05-14,MK107902,NGA,Ebonyi,Abakaliki,6.333333,8.1
LASV_NGA_2014_IRR_010_NGA-Ondo_Okeluse_Hs_2014-05-17,MK107907,NGA,Ondo,Okeluse,6.784077,5.589279
LASV_NGA_2014_IRR_011_NGA-Ondo_Okeluse_Hs_2014-08-01,MK107908,NGA,Ondo,Okeluse,6.784077,5.589279
LASV_NGA_2014_IRR_012_NGA-Ondo_Ifon_Hs_2014-08-10,MK107909,NGA,Ondo,Ifon,6.926767,5.773787
LASV_NGA_2014_IRR_002_NGA-Nassarawa_Lafia_Hs_2014-01-20,MK107910,NGA,Nassarawa,Lafia,8.49575,8.52155
LASV_NGA_2015_IRR_009_NGA-Bauchi_Mbal_Hs_2015-04-25,MK107911,NGA,Bauchi,Mbal,9.595820427,9.617159843
LASV_NGA_2015_IRR_008_NGA-Bauchi_Alkaleri_Hs_2015-04-10,MK107912,NGA,Bauchi,Alkaleri,10.26878,10.33279
LASV_NGA_2015_IRR_014_NGA-Nassarawa_Agyaragu_Hs_2015-12-30,MK107914,NGA,Nassarawa,Agyaragu,8.4,8.55
LASV_NGA_2015_IRR_011_NGA-Ondo_Owo_Hs_2015-09-16,MK107915,NGA,Ondo,Owo,7.19744,5.58653
LASV_NGA_2015_IRR_012_NGA-Ondo_Ifon_Hs_2015-11-06,MK107916,NGA,Ondo,Ifon,6.926767,5.773787
LASV_NGA_2016_IRR_012_NGA-Bauchi_TafawaBalewa_Hs_2016-01-25,MK107917,NGA,Bauchi,TafawaBalewa,9.755908,9.553992
LASV_NGA_2016_IRR_014_NGA-Bauchi_Alkaleri_Hs_2016-01-28,MK107918,NGA,Bauchi,Alkaleri,10.26878,10.33279
LASV_NGA_2016_IRR_019_NGA-Bauchi_LimanKatagum_Hs_2016-01-12,MK107919,NGA,Bauchi,LimanKatagum,10.093735,9.767931
LASV_NGA_2016_IRR_028_NGA-Bauchi_SabonGari_Hs_2016-02-29,MK107920,NGA,Bauchi,SabonGari,10.675453,9.122348
LASV_NGA_2016_IRR_025_NGA-Benue_Oiji_Hs_2016-02-26,MK107921,NGA,Benue,Oiji,7.565864,7.917972
LASV_NGA_2016_IRR_007_NGA-AkwaIbom_Uyo_Hs_2016-01-18,MK107922,NGA,AkwaIbom,Uyo,5.033333,7.916667
LASV_NGA_2016_IRR_018_NGA-Ebonyi_Ikwo_Hs_2016-02-09,MK107923,NGA,Ebonyi,Ikwo,6.0767,8.0701
LASV_NGA_2016_IRR_006_NGA-Ekiti_IdoEkiti_Hs_2016-01-14,MK107927,NGA,Ekiti,IdoEkiti,7.845422,5.182916
LASV_NGA_2016_IRR_013_NGA-Imo_Owerri_Hs_2016-01-27,MK107928,NGA,Imo,Owerri,5.485,7.035
LASV_NGA_2016_IRR_023_NGA-Kaduna_Kaduna_Hs_2016-02-23,MK107929,NGA,Kaduna,Kaduna,10.523056,7.440278
LASV_NGA_2016_IRR_016_NGA-Nassarawa_Kwarra_Hs_2016-02-06,MK107930,NGA,Nassarawa,Kwarra,8.325363,8.450158
LASV_NGA_2016_IRR_008_NGA-Nassarawa_Lafia_Hs_2016-01-20,MK107931,NGA,Nassarawa,Lafia,8.49575,8.52155
LASV_NGA_2016_IRR_015_NGA-Nassarawa_Lafia_Hs_2016-02-03,MK107933,NGA,Nassarawa,Lafia,8.49575,8.52155
LASV_NGA_2016_IRR_032_NGA-Nassarawa_Lafia_Hs_2016-03-13,MK107934,NGA,Nassarawa,Lafia,8.49575,8.52155
LASV_NGA_2016_IRR_020_NGA-Nassarawa_Lafia_Hs_2016-02-15,MK107935,NGA,Nassarawa,Lafia,8.49575,8.52155
LASV_NGA_2016_IRR_017_NGA-Ondo_Ifon_Hs_2016-02-06,MK107936,NGA,Ondo,Ifon,6.926767,5.773787
LASV_NGA_2016_IRR_033_NGA-Ondo_Ondo_Hs_2016-03-14,MK107937,NGA,Ondo,Ondo,7.088923,4.799094
LASV_NGA_2016_IRR_029_NGA-Ondo_Owo_Hs_2016-03-01,MK107938,NGA,Ondo,Owo,7.19744,5.58653
LASV_NGA_2016_IRR_009_NGA-Plateau_Shendam_Hs_2016-01-20,MK107939,NGA,Plateau,Shendam,8.87931,9.53879
LASV_NGA_2016_IRR_003_NGA-Plateau_Kumbul_Hs_2016-01-04,MK107940,NGA,Plateau,Kumbul,9.383,9.133
LASV_NGA_2016_IRR_010_NGA-Taraba_Kwesati_Hs_2016-01-22,MK107941,NGA,Taraba,Kwesati,7.213958,10.183256
LASV_NGA_2016_IRR_004_NGA-Taraba_Takun_Hs_2016-01-05,MK107942,NGA,Taraba,Takun,7.251211,9.976395
LASV_NGA_2013_IRR_015_NGA-Bauchi_Bauchi_Hs_2013-12-04,MK107945,NGA,Bauchi,Bauchi,10.314159,9.846282
LASV_NGA_2013_IRR_011_NGA-Rivers_Obio-Akpor_Hs_2013-03-18,MK107946,NGA,Rivers,Obio-Akpor,4.869632,7.019002
LASV_NGA_2014_IRR_004_NGA-Ondo_Okeluse_Hs_2014-05-08,MK107948,NGA,Ondo,Okeluse,6.784077,5.589279
LASV_NGA_2015_IRR_015_NGA-Nassarawa_Lafia_Hs_2015-12-30,MK107949,NGA,Nassarawa,Lafia,8.49575,8.52155
LASV_NGA_2015_IRR_006_NGA-Ondo_Ifon_Hs_2015-02-22,MK107950,NGA,Ondo,Ifon,6.926767,5.773787
LASV_NGA_2015_IRR_001_NGA-Plateau_Buji_Hs_2015-01-08,MK107951,NGA,Plateau,Buji,10.0727,8.9341
LASV_NGA_2015_IRR_007_NGA-Taraba_Jalingo_Hs_2015-02-25,MK107952,NGA,Taraba,Jalingo,8.89369,11.35765
LASV_NGA_2016_IRR_005_NGA-Bauchi_Bundot_Hs_2016-01-08,MK107953,NGA,Bauchi,Bundot,10.006978,9.544584
LASV_NGA_2016_IRR_031_NGA-Bauchi_Mbal_Hs_2016-03-11,MK107954,NGA,Bauchi,Mbal,9.595820427,9.617159843
LASV_NGA_2016_IRR_022_NGA-Kogi_Idah_Hs_2016-02-20,MK107955,NGA,Kogi,Idah,7.11365,6.74345
LASV_NGA_2016_IRR_024_NGA-Ondo_Irun_Hs_2016-02-24,MK107956,NGA,Ondo,Irun,7.579115,5.696218
LASV_NGA_2012_IRR_001_NGA-Taraba_Jalingo_Hs_2012-02-08,MK107958,NGA,Taraba,Jalingo,8.89369,11.35765
LASV_NGA_2012_IRR_003_NGA-Taraba_Jalingo_Hs_2012-02-10,MK107960,NGA,Taraba,Jalingo,8.89369,11.35765
LASV_NGA_2013_IRR_005_NGA-Ebonyi_Abakaliki_Hs_2013-01-25,MK107961,NGA,Ebonyi,Abakaliki,6.333333,8.1
LASV_NGA_2013_IRR_007_NGA-Enugu_Enugu_Hs_2013-02-03,MK107962,NGA,Enugu,Enugu,6.452667,7.510333
LASV_NGA_2013_IRR_001_NGA-Ondo_Imoru_Hs_2013-01-16,MK107963,NGA,Ondo,Imoru,6.87224,5.75412
LASV_NGA_2013_IRR_006_NGA-Ondo_Ifon_Hs_2013-01-30,MK107964,NGA,Ondo,Ifon,6.926767,5.773787
LASV_NGA_2013_IRR_002_NGA-Benue_Makurdi_Hs_2013-01-17,MK107965,NGA,Benue,Makurdi,7.732152,8.539144
LASV_NGA_2012_IRR_006_NGA-Rivers_PortHarcourt_Hs_2012-02-21,MK107967,NGA,Rivers,PortHarcourt,4.77149,7.01435
LASV_NGA_2013_IRR_003_NGA-Nassarawa_Lafia_Hs_2013-01-18,MK107968,NGA,Nassarawa,Lafia,8.49575,8.52155
LASV_NGA_2013_IRR_004_NGA-Plateau_Bukuru_Hs_2013-01,MK107970,NGA,Plateau,Bukuru,9.8,8.866667
LASV_NGA_2012_IRR_009_NGA-Kogi_Iyano_Hs_2012-04-12,MK107972,NGA,Kogi,Iyano,6.797072,6.664688
LASV_NGA_2012_IRR_007_NGA-Nassarawa_Lafia_Hs_2012-02-27,MK107973,NGA,Nassarawa,Lafia,8.49575,8.52155
LASV_NGA_2013_IRR_010_NGA-Bauchi_Bauchi_Hs_2013-03-10,MK107974,NGA,Bauchi,Bauchi,10.314159,9.846282
LASV_NGA_2013_IRR_013_NGA-Plateau_Jos_Hs_2013-02-27,MK107975,NGA,Plateau,Jos,9.916667,8.890278
LASV_NGA_2013_IRR_012_NGA-Rivers_Ohio-Akpor_Hs_2013-04-11,MK107976,NGA,Rivers,Ohio-Akpor,4.865528,7.013852
LASV_NGA_2015_IRR_002_NGA-Bauchi_Bauchi_Hs_2015-01-08,MK107978,NGA,Bauchi,Bauchi,10.314159,9.846282
LASV_NGA_2015_IRR_004_NGA-Bauchi_Bauchi_Hs_2015-01-18,MK107979,NGA,Bauchi,Bauchi,10.314159,9.846282
LASV_NGA_2015_IRR_013_NGA-Bauchi_Dass_Hs_2015-12-17,MK107980,NGA,Bauchi,Dass,9.99934,9.51518
LASV_NGA_2015_IRR_005_NGA-Kaduna_Zaria_Hs_2015-01-28,MK107981,NGA,Kaduna,Zaria,11.08477,7.68839
LASV_NGA_2015_IRR_003_NGA-Plateau_Vom_Hs_2015-01-12,MK107982,NGA,Plateau,Vom,9.737692,8.808975
LASV_NGA_2014_IRR_001_NGA-Edo_NA_Hs_2014-01-25,MK117846,NGA,Edo,NA,6.75,6.221953
LASV_NGA_2016_IRR_001_NGA-Edo_NA_Hs_2016-01-04,MK117847,NGA,Edo,NA,6.75,6.221953
LASV_NGA_2016_IRR_002_NGA-Edo_NA_Hs_2016-02-15,MK117848,NGA,Edo,NA,6.75,6.221953
LASV_NGA_2017_IRR_001_NGA-Nassarawa_NA_Hs_2017-01-24,MK117849,NGA,Nassarawa,NA,8.49575,8.52155
LASV_NGA_2017_IRR_003_NGA-Edo_NA_Hs_2017-04-03,MK117850,NGA,Edo,NA,6.75,6.221953
LASV_NGA_2017_IRR_004_NGA-Edo_Uzairue_Hs_2017,MK117851,NGA,Edo,Uzairue,7.088383,6.290372
LASV_NGA_2017_IRR_005_NGA-Edo_Okeluse_Hs_2017-01-16,MK117948,NGA,Ondo,Okeluse,6.784077,5.589279
LASV_NGA_2017_IRR_006_NGA-Ondo_Owo_Hs_2017-01-19,MK117949,NGA,Ondo,Owo,7.19744,5.58653
LASV_NGA_2017_IRR_014_NGA-Ondo_Owo_Hs_2017-04-28,MK117951,NGA,Ondo,Owo,7.19744,5.58653
LASV_NGA_2018_IRR_001_NGA-Bauchi_LimanKatagum_Hs_2018-01-02,MK117952,NGA,Bauchi,LimanKatagum,10.093735,9.767931
LASV_NGA_2018_IRR_002_NGA-Edo_Ogwa_Hs_2018-01-07,MK117953,NGA,Edo,Ogwa,6.505376,6.207318
LASV_NGA_2018_IRR_003_NGA-Ondo_Owo_Hs_2018-01-07,MK117954,NGA,Ondo,Owo,7.19744,5.58653
LASV_NGA_2018_IRR_006_NGA-Edo_Auchi_Hs_2018-01-09,MK117956,NGA,Edo,Auchi,7.066667,6.266667
LASV_NGA_2018_IRR_008_NGA-Ondo_IjebuOwo_Hs_2018-01-11,MK117957,NGA,Ondo,IjebuOwo,7.182869,5.581471
LASV_NGA_2018_IRR_010_NGA-Ondo_Owo_Hs_2018-01-12,MK117959,NGA,Ondo,Owo,7.19744,5.58653
LASV_NGA_2018_IRR_011_NGA-Ebonyi_Amauro_Hs_2018-01-13,MK117960,NGA,Ebonyi,Amauro,5.967,7.867
LASV_NGA_2018_IRR_014_NGA-Ondo_Owo_Hs_2018-01-15,MK117962,NGA,Ondo,Owo,7.19744,5.58653
LASV_NGA_2018_IRR_015_NGA-Ondo_Owo_Hs_2018-01-16,MK117963,NGA,Ondo,Owo,7.19744,5.58653
LASV_NGA_2018_IRR_017_NGA-Ondo_Owo_Hs_2018-01-15,MK117964,NGA,Ondo,Owo,7.19744,5.58653
LASV_NGA_2018_IRR_019_NGA-Ondo_Owo_Hs_2018-01-17,MK117965,NGA,Ondo,Owo,7.19744,5.58653
LASV_NGA_2018_IRR_020_NGA-Ondo_Owo_Hs_2018-01-17,MK117966,NGA,Ondo,Owo,7.19744,5.58653
LASV_NGA_2018_IRR_021_NGA-Nassarawa_Keffi_Hs_2018-01-18,MK117967,NGA,Nassarawa,Keffi,8.84538,7.87839
LASV_NGA_2018_IRR_022_NGA-Kogi_Lokoja_Hs_2018-01-17,MK117968,NGA,Kogi,Lokoja,7.80207,6.74365
LASV_NGA_2018_IRR_023_NGA-Edo_Uzebba_Hs_2018-01-18,MK117969,NGA,Edo,Uzebba,6.997077,5.904454
LASV_NGA_2018_IRR_024_NGA-Edo_Agenegbode_Hs_2018-01-19,MK117970,NGA,Edo,Agenegbode,7.098654,6.678859
LASV_NGA_2018_IRR_025_NGA-Imo_Orlu_Hs_2018-01-19,MK117971,NGA,Imo,Orlu,5.79449,7.03589
LASV_NGA_2018_IRR_031_NGA-Edo_Uromi_Hs_2018-01-24,MK117972,NGA,Edo,Uromi,6.712259,6.329005
LASV_NGA_2018_IRR_033_NGA-Edo_Jattu_Hs_2018-01-25,MK117973,NGA,Edo,Jattu,7.083333,6.283333
LASV_NGA_2018_IRR_034_NGA-Ebonyi_Iboko_Hs_2018-01-25,MK117974,NGA,Ebonyi,Iboko,6.556183,8.303293
LASV_NGA_2018_IRR_035_NGA-Ebonyi_Okposi-Okwa_Hs_2018-01-23,MK117975,NGA,Ebonyi,Okposi-Okwa,6.032415,7.850118
LASV_NGA_2018_IRR_036_NGA-Edo_Ekpoma_Hs_2018-01-26,MK117976,NGA,Edo,Ekpoma,6.75,6.133333
LASV_NGA_2018_IRR_037_NGA-Edo_Ubiaja_Hs_2018-01-26,MK117977,NGA,Edo,Ubiaja,6.659722,6.382222
LASV_NGA_2018_IRR_038_NGA-Ondo_Akure_Hs_2018-01-26,MK117978,NGA,Ondo,Akure,7.25,5.195
LASV_NGA_2018_IRR_042_NGA-Anambra_Nzam_Hs_2018-01-29,MK117979,NGA,Anambra,Nzam,6.452245,6.728375
LASV_NGA_2018_IRR_044_NGA-Ebonyi_AgbajaAzumili_Hs_2018-01-30,MK117980,NGA,Ebonyi,AgbajaAzumili,6.340038,8.129261
LASV_NGA_2018_IRR_046_NGA-Edo_Ekpoma_Hs_2018-02-05,MK117982,NGA,Edo,Ekpoma,6.75,6.133333
LASV_NGA_2018_IRR_047_NGA-Ondo_Owo_Hs_2018-02-05,MK117983,NGA,Ondo,Owo,7.19744,5.58653
LASV_NGA_2018_IRR_048_NGA-Ondo_Owo_Hs_2018-02-04,MK117984,NGA,Ondo,Owo,7.19744,5.58653
LASV_NGA_2018_IRR_050_NGA-Ondo_Ifon_Hs_2018-02-05,MK117985,NGA,Ondo,Ifon,6.926767,5.773787
LASV_NGA_2018_IRR_051_NGA-Edo_Uromi_Hs_2018-02-06,MK117986,NGA,Edo,Uromi,6.712259,6.329005
LASV_NGA_2018_IRR_052_NGA-Ondo_Owo_Hs_2018-02-07,MK117987,NGA,Ondo,Owo,7.19744,5.58653
LASV_NGA_2018_IRR_053_NGA-Edo_Uromi_Hs_2018-02-08,MK117988,NGA,Edo,Uromi,6.712259,6.329005
LASV_NGA_2018_IRR_054_NGA-Bauchi_Kufai_Hs_2018-02-04,MK117989,NGA,Bauchi,Kufai,9.983,9.233
LASV_NGA_2018_IRR_056_NGA-Ondo_Owo_Hs_2018-02-09,MK117990,NGA,Ondo,Owo,7.19744,5.58653
LASV_NGA_2018_IRR_057_NGA-Ondo_Owo_Hs_2018-02-09,MK117991,NGA,Ondo,Owo,7.19744,5.58653
LASV_NGA_2018_IRR_060_NGA-Ebonyi_Isiama_Hs_2018-02-03,MK117992,NGA,Ebonyi,Isiama,6.065463,7.81309
LASV_NGA_2018_IRR_061_NGA-Ebonyi_Abakaliki_Hs_2018-02-07,MK117993,NGA,Ebonyi,Abakaliki,6.333333,8.1
LASV_NGA_2018_IRR_063_NGA-Ebonyi_Amogwe_Hs_2018-02-07,MK117994,NGA,Ebonyi,Amogwe,6.1878,8.1189
LASV_NGA_2018_IRR_064_NGA-Ebonyi_Abakaliki_Hs_2018-02-03,MK117995,NGA,Ebonyi,Abakaliki,6.333333,8.1
LASV_NGA_2018_IRR_066_NGA-Edo_Auchi_Hs_2018-02-10,MK117997,NGA,Edo,Auchi,7.066667,6.266667
LASV_NGA_2018_IRR_071_NGA-Ondo_Ifon_Hs_2018-02-11,MK117998,NGA,Ondo,Ifon,6.926767,5.773787
LASV_NGA_2018_IRR_072_NGA-Ondo_Owo_Hs_2018-02-12,MK117999,NGA,Ondo,Owo,7.19744,5.58653
LASV_NGA_2018_IRR_073_NGA-Anambra_Ode-Nzam_Hs_2018-02-12,MK118000,NGA,Anambra,Ode-Nzam,6.452608,6.726605
LASV_NGA_2018_IRR_074_NGA-Edo_Sobe_Hs_2018-02-12,MK118001,NGA,Edo,Sobe,6.850844,5.777564
LASV_NGA_2018_IRR_075_NGA-Edo_BeninCity_Hs_2018-02-12,MK118002,NGA,Edo,BeninCity,6.333333,5.622222
LASV_NGA_2018_IRR_077_NGA-Edo_Ubunmwonde_Hs_2018-02-12,MK118003,NGA,Edo,Ubunmwonde,6.479748,5.898933
LASV_NGA_2018_IRR_078_NGA-Edo_Auchi_Hs_2018-02-12,MK118004,NGA,Edo,Auchi,7.066667,6.266667
LASV_NGA_2018_IRR_079_NGA-Edo_Uromi_Hs_2018-02-12,MK118005,NGA,Edo,Uromi,6.712259,6.329005
LASV_NGA_2018_IRR_080_NGA-Edo_Ekpoma_Hs_2018-02-13,MK118006,NGA,Edo,Ekpoma,6.75,6.133333
LASV_NGA_2018_IRR_082_NGA-Ondo_Owo_Hs_2018-02-13,MK118007,NGA,Ondo,Owo,7.19744,5.58653
LASV_NGA_2018_IRR_083_NGA-Ondo_Owo_Hs_2018-02-13,MK118008,NGA,Ondo,Owo,7.19744,5.58653
LASV_NGA_2018_IRR_084_NGA-Ondo_Owo_Hs_2018-02-13,MK118009,NGA,Ondo,Owo,7.19744,5.58653
LASV_NGA_2018_IRR_085_NGA-Edo_Sabongida-Ora_Hs_2018-02-14,MK118010,NGA,Edo,Sabongida-Ora,6.947775,5.91429
LASV_NGA_2018_IRR_086_NGA-Bauchi_Wandi_Hs_2018-02-08,MK118011,NGA,Bauchi,Wandi,9.960813,9.502202
LASV_NGA_2018_IRR_091_NGA-Edo_Afowa_Hs_2018-02-15,MK118013,NGA,Edo,Afowa,7.113571,6.327094
LASV_NGA_2018_IRR_092_NGA-Ondo_Owo_Hs_2018-02-15,MK118014,NGA,Ondo,Owo,7.19744,5.58653
LASV_NGA_2018_IRR_093_NGA-Ondo_Owo_Hs_2018-02-15,MK118015,NGA,Ondo,Owo,7.19744,5.58653
LASV_NGA_2018_IRR_095_NGA-Ekiti_Ado-Ekiti_Hs_2018-02-15,MK118016,NGA,Ekiti,Ado-Ekiti,7.62692,5.21561
LASV_NGA_2018_IRR_096_NGA-Delta_Asaba_Hs_2018-02-17,MK118017,NGA,Delta,Asaba,6.197842,6.728467
LASV_NGA_2018_IRR_099_NGA-Ebonyi_UmunwaguIdembia_Hs_2018-02-15,MK118018,NGA,Ebonyi,UmunwaguIdembia,6.128725,8.00679
LASV_NGA_2018_IRR_101_NGA-Ebonyi_Abakaliki_Hs_2018-02-12,MK118020,NGA,Ebonyi,Abakaliki,6.333333,8.1
LASV_NGA_2018_IRR_103_NGA-Edo_Uromi_Hs_2018-02-18,MK118021,NGA,Edo,Uromi,6.712259,6.329005
LASV_NGA_2018_IRR_110_NGA-Edo_Iyamho_Hs_2018-02-20,MK118023,NGA,Edo,Iyamho,7.218593,6.334514
LASV_NGA_2018_IRR_114_NGA-Edo_Ekpoma_Hs_2018-02-21,MK118024,NGA,Edo,Ekpoma,6.75,6.133333
LASV_NGA_2018_IRR_117_NGA-Edo_Afuze_Hs_2018-02-24,MK118026,NGA,Edo,Afuze,6.94089,5.984769
LASV_NGA_2018_IRR_119_NGA-Edo_Auchi_Hs_2018-02-25,MK118027,NGA,Edo,Auchi,7.066667,6.266667
LASV_NGA_2018_IRR_120_NGA-Edo_Ehor_Hs_2018-02-25,MK118028,NGA,Edo,Ehor,6.615948,5.986347
LASV_NGA_2018_IRR_121_NGA-Edo_Uhiele_Hs_2018-02-26,MK118029,NGA,Edo,Uhiele,6.713854,6.154398
LASV_NGA_2018_IRR_126_NGA-Ondo_Ute_Hs_2018-02-28,MK118030,NGA,Ondo,Ute,6.849914,5.600172
LASV_NGA_2018_IRR_131_NGA-Edo_BeninCity_Hs_2018-03-01,MK118031,NGA,Edo,BeninCity,6.333333,5.622222
LASV_NGA_2018_IRR_133_NGA-Kogi_Idah_Hs_2018-03-02,MK118032,NGA,Kogi,Idah,7.11365,6.74345
LASV_NGA_2018_IRR_135_NGA-Edo_Ekpoma_Hs_2018-03-05,MK118033,NGA,Edo,Ekpoma,6.75,6.133333
LASV_NGA_2018_IRR_136_NGA-Bauchi_Lukshi_Hs_2018-03-05,MK118034,NGA,Bauchi,Lukshi,10.03284,9.386606
LASV_NGA_2018_IRR_137_NGA-Edo_Uromi_Hs_2018-03-08,MK118035,NGA,Edo,Uromi,6.712259,6.329005
LASV_NGA_2018_IRR_140_NGA-Ondo_Akure_Hs_2018-02-23,MK118037,NGA,Ondo,Akure,7.25,5.195
LASV_NGA_2018_IRR_141_NGA-Kogi_Idah_Hs_2018-02-23,MK118038,NGA,Kogi,Idah,7.11365,6.74345
LASV_NGA_2018_IRR_142_NGA-Edo_Uromi_Hs_2018-03-09,MK118039,NGA,Edo,Uromi,6.712259,6.329005
MK656414|LASV_3604|Mn|CIV|2015-8-28,MK656414,CIV,,,9.29,5.42
MK656415|LASV_3609|Mn|CIV|2015-8-28,MK656415,CIV,,,9.29,5.42
MK656416LASV_3625|Mn|CIV|2015-8-29,MK656416,CIV,,,9.29,5.42
MK656417|LASV_3629|Mn|CIV|2015-8-29,MK656417,CIV,,,9.29,5.42
MK656418|LASV_3630|Mn|CIV|2015-8-29,MK656418,CIV,,,9.29,5.42
MK656419|LASV_R124|Mn|CIV|2013-8-20,MK656419,CIV,,,9.29,5.44
MK656420|LASV_R132|Mn|CIV|2013-8-22,MK656420,CIV,,,9.29,5.44
MK656422|LASV_3523|Mn|CIV|2015-8-24,MK656422,CIV,,,9.29,5.44
MK656423|LASV_3706|Mn|CIV|2015-9-7,MK656423,CIV,,,9.38,6.29
MK656424|LASV_3711|Mn|CIV|2015-9-7,MK656424,CIV,,,9.38,6.29
MK656425|LASV_3713|Mn|CIV|2015-9-7,MK656425,CIV,,,9.38,6.29
MK656426|LASV_3715|Mn|CIV|2015-9-7,MK656426,CIV,,,9.38,6.29
