segment_L,accession_L,country,admin1,location,latitude,longitude
LASV_NGA_2016_IRR_026_NGA-Ebonyi_Ohaukwu_Hs_2016-02-26,MK107870,NGA,Ebonyi,Ohaukwu,NA,NA
LASV_NGA_2016_IRR_027_NGA-Ebonyi_Izzi_Hs_2016-02-28,MK107871,NGA,Ebonyi,Izzi,NA,NA
AH012598|CSF|Human|NIG|2000-03-28,AH012598,NGA,Plateau,Jos,9.916667,8.890278
AY179172|NL|Human|SLE|2000-07-10,AY179172,SLE,,,NA,NA
AY363905|SL620|Human|SLE|2002,AY363905,SLE,,,NA,NA
AY363906|SL15|Human|SLE|2002,AY363906,SLE,,,NA,NA
AY363909|SL25|Human|SLE|2002,AY363909,SLE,,,NA,NA
AY363910|SL26|Human|SLE|2002,AY363910,SLE,,,NA,NA
AY628200|Macenta|Mn|GHA|2013-05-26,AY628200,GHA,,,NA,NA
AY628204|Z148|?|LIB|1981,AY628204,LIB,,,NA,NA
KU978807|Guinea Faranah|Human|GIN|?,KU978808,GIN,,,NA,NA
MH053510|ISTH_0031|Human|NIG|2016-01-06,MH053510,NGA,,,NA,NA
MK044799|Bantou289|Mn|GIN|2003-09-25,MK044799,GIN,,,NA,NA
KU978812|NIGERIA IKEJI|Human|NIG|1989-01-01,KU978812,NGA,,,NA,NA
MK281626|LASV0230-DELTA-2018|Human|NIG|2018-02-04,MK281626,NGA,Delta,,NA,NA
MK281629|LASV0225-ONDO-2018|Human|NGA|2018-01-20,MK281629,NGA,Ondo,,NA,NA
MK281630|LASV0237-EDO-2018|Human|NGA|2018-02-26,MK281630,NGA,Edo,,NA,NA
MK291251|LASV-SM1|Human|NIG|2015,MK291251,NGA,,,NA,NA
MK291252|LASV-SM2|Human|NIG|2014,MK291252,NGA,,,NA,NA
MK291253|LASV-SM3|Human|NIG|2014,MK291253,NGA,,,NA,NA
MK656390|LASV_3604|Mn|CIV|2015-8-28,MK656390,CIV,,,9.29,5.42
MK656392|LASV_3625|Mn|CIV|2015-8-29,MK656392,CIV,,,9.29,5.42
MK656393|LASV_3629|Mn|CIV|2015-8-29,MK656393,CIV,,,9.29,5.42
MK656394|LASV_3630|Mn|CIV|2015-8-29,MK656394,CIV,,,9.29,5.42
MK656395|LASV_R124|Mn|CIV|2013-8-20,MK656395,CIV,,,9.29,5.44
MK656398|LASV_3706|Mn|CIV|2015-9-7,MK656398,CIV,,,9.38,6.29
MK656399|LASV_3713|Mn|CIV|2015-9-7,MK656399,CIV,,,9.38,6.29
MK656400|LASV_3715|Mn|CIV|2015-9-7,MK656400,CIV,,,9.38,6.29
MK656401|LASV_3523|Mn|CIV|2015-8-24,MK656401,CIV,,,9.29,5.44
MK656402|LASV_3711|Mn|CIV|2015-9-7,MK656402,CIV,,,9.38,6.29
MN275172|LF2384-NS-DIA-1|Human|SLE|2012,MN275172,SLE,,,NA,NA
LASV|NGA|2019|IRR_0029|2019-01-18,LASV|NGA|2019|IRR_0029|2019-01-18,NGA,Ondo,Owo,7.19744,5.58653
LASV|NGA|2019|IRR_0063|2018-12-31,LASV|NGA|2019|IRR_0063|2018-12-31,NGA,Ondo,Owo,7.19744,5.58653
AY693637|Nig04-010|Human|Nigeria|2004,AY693637,NGA,,,NA,NA
AY693639|las806791|Human|Nigeria|1993,AY693639,NGA,Plateau,Jos,9.916667,8.890278
AY693640|las803213|Human|Nigeria|1974-02,AY693640,NGA,Anambra,Onitsha,6.166667,6.783333
AY870334|Lib04-2739|Human|Liberia|2004,AY870334,LBR,,,NA,NA
GU481075|Nig08_A37|Human|Nigeria|2008-02,GU481075,NGA,Edo,Irrua,6.738429,6.221953
GU481077|Nig08_A41|Human|Nigeria|2008-02,GU481077,NGA,Edo,Irrua,6.738429,6.221953
GU481079|Nig08_A47|Human|Nigeria|2008-02,GU481079,NGA,Edo,Uromi,6.712259,6.329005
GU573541|Soromba_R240|Mouse|Mali|2009,GU573541,MLI,,Soromba,10.5891,-7.1558
GU573545|Soromba_R245|Mouse|Mali|2009,GU573545,MLI,,Soromba,10.5891,-7.1558
GU573546|Soromba_R249|Mouse|Mali|2009,GU573546,MLI,,Soromba,10.5891,-7.1558
GU979510|Lib05-2096/127|Human|Liberia|2005,GU979510,LBR,,,NA,NA
GU979513|BA366|Mouse|Guinea|2003,GU979513,GIN,Faranah,Bantou,10.059767,-10.58615
KF478760|Komina_R16|Mouse|Mali|2012-03-03,KF478760,MLI,,Komina,10.6164,-7.1583
KF478761|Bamba_R114|Mouse|Mali|2012-03,KF478761,MLI,,Bamba,10.3831,-7.1517
KM821772|G502_SLE_2009|Human|Sierra_Leone|2009-04-29,KM821772,SLE,Kenema,Kenema,7.862212,-11.196247
KM821774|G503_SLE_2009|Human|Sierra_Leone|2009-04-30,KM821774,SLE,Kenema,Tongo,8.2188562,-11.0604289
KM821776|G610_SLE_2009|Human|Sierra_Leone|2009-08-28,KM821776,SLE,Kenema,Tongo,8.2188562,-11.0604289
KM821778|G636_SLE_2009|Human|Sierra_Leone|2009-10-09,KM821778,SLE,Kenema,Kono Gorama,8.38727,-11.0879
KM821780|G676_SLE_2009|Human|Sierra_Leone|2009-12-09,KM821780,SLE,Kenema,Dodo,8.154893,-11.171735
KM821782|G692_SLE_2009|Human|Sierra_Leone|2009-12-31,KM821782,SLE,Kenema,,NA,NA
KM821784|G693_SLE_2009|Human|Sierra_Leone|2010-01-01,KM821784,SLE,Kenema,Tongo,8.2188562,-11.0604289
KM821786|G733_SLE_2010|Human|Sierra_Leone|2010-01-17,KM821786,SLE,Kenema,Panguma,8.184479,-11.134313
KM821788|G771_SLE_2010|Human|Sierra_Leone|2010-02-08,KM821788,SLE,Kenema,Blama,7.874519,-11.342483
KM821791|G808_SLE_2010|Human|Sierra_Leone|2010-02-27,KM821791,SLE,Kenema,Panguma,8.184479,-11.134313
KM821793|G1180_SLE_2010|Human|Sierra_Leone|2010-09-02,KM821793,SLE,Kenema,Melegohun,NA,NA
KM821795|G1190_SLE_2010|Human|Sierra_Leone|2010-09-09,KM821795,SLE,Kenema,Melegohun,NA,NA
KM821797|G1200_LIB_2010|Human|Liberia|2010,KM821797,LBR,,,NA,NA
KM821799|G1442_SLE_2011|Human|Sierra_Leone|2011-01-20,KM821799,SLE,Kenema,Tongo,8.2188562,-11.0604289
KM821801|G1529_SLE_2011|Human|Sierra_Leone|2011-03-02,KM821801,SLE,Bo,Gondama,7.86688,-11.70931
KM821803|G1618_SLE_2011|Human|Sierra_Leone|2011-03-26,KM821803,SLE,Kailahun,Segbwema,7.997399,-10.950236
KM821805|G1646_SLE_2011|Human|Sierra_Leone|2011-04-13,KM821805,SLE,Kenema,Daabu,NA,NA
KM821807|G1647_SLE_2011|Human|Sierra_Leone|2011-04-15,KM821807,SLE,Kenema,Kenema,7.862212,-11.196247
KM821809|G1727_SLE_2011|Human|Sierra_Leone|2011-05-31,KM821809,SLE,Kenema,Lalehun,NA,NA
KM821811|G1774_SLE_2011|Human|Sierra_Leone|2011-06-11,KM821811,SLE,Kenema,Largo,8.05,-11.11
KM821813|G1792_SLE_2011|Human|Sierra_Leone|2011-06-17,KM821813,SLE,Kenema,Tongo,8.2188562,-11.0604289
KM821817|G1959_SLE_2011|Human|Sierra_Leone|2011-09-09,KM821817,SLE,Kenema,Kenema,7.862212,-11.196247
KM821819|G1960_SLE_2011|Human|Sierra_Leone|2011-09-11,KM821819,SLE,Kenema,Tongo Field,NA,NA
KM821821|G2141_SLE_2011|Human|Sierra_Leone|2011-11-11,KM821821,SLE,Kenema,Ngomba Wandoh,NA,NA
KM821823|G2147_SLE_2011|Human|Sierra_Leone|2011-11-16,KM821823,SLE,Kenema,Tongo Tongola old town,8.21154,-11.05124
KM821825|G2165_SLE_2011|Human|Sierra_Leone|2011-11-18,KM821825,SLE,Kenema,Panguma,8.184479,-11.134313
KM821827|G2184_SLE_2011|Human|Sierra_Leone|2011-11-26,KM821827,SLE,Bo,Gondama,7.86688,-11.70931
KM821829|G2197_SLE_2011|Human|Sierra_Leone|2011-12-04,KM821829,SLE,Kenema,Panguma,8.184479,-11.134313
KM821831|G2222_SLE_2011|Human|Sierra_Leone|2011-12-19,KM821831,SLE,Kenema,Largo,8.05,-11.11
KM821834|G2259_SLE_2012|Human|Sierra_Leone|2012-01-16,KM821834,SLE,Bo,Gondama,7.86688,-11.70931
KM821836|G2263_SLE_2012|Human|Sierra_Leone|2012-01-17,KM821836,SLE,Kailahun,Borbohun,NA,NA
KM821838|G2280_SLE_2012|Human|Sierra_Leone|2012-01-23,KM821838,SLE,Kenema,Pegama,8.116599,-11.174797
KM821840|G2295_SLE_2012|Human|Sierra_Leone|2012-01-31,KM821840,SLE,Kenema,Lalehun,8.1978275,-11.0803252
KM821842|G2315_SLE_2012|Human|Sierra_Leone|2012-02-10,KM821842,SLE,Kenema,Panguma,8.184479,-11.134313
KM821844|G2318_SLE_2012|Human|Sierra_Leone|2012-02-12,KM821844,SLE,Kenema,Ngiehun,8.18,-11.08
KM821846|G2363_SLE_2012|Human|Sierra_Leone|2012-02-27,KM821846,SLE,Bo,Gondama,7.86688,-11.70931
KM821849|G2392_SLE_2012|Human|Sierra_Leone|2012-03-14,KM821849,SLE,Kenema,Patama,NA,NA
KM821851|G2405_SLE_2012|Human|Sierra_Leone|2012-03-27,KM821851,SLE,Kenema,Kenema,7.862212,-11.196247
KM821853|G2427_SLE_2012|Human|Sierra_Leone|2012-03-31,KM821853,SLE,Kenema,Nekabu,7.925974,-11.054267
KM821855|G2431_SLE_2012|Human|Sierra_Leone|2012-04-02,KM821855,SLE,Bo,Gondama,7.86688,-11.70931
KM821858|G2554_SLE_2012|Human|Sierra_Leone|2012-06-24,KM821858,SLE,Kenema,Kenema,7.862212,-11.196247
KM821860|G2557_SLE_2012|Human|Sierra_Leone|2012-06-26,KM821860,SLE,Bo,Taninahun Malin,7.891162,-12.086255
KM821862|G2565_SLE_2012|Human|Sierra_Leone|2012-07-02,KM821862,SLE,Kenema,Tongo Field,NA,NA
KM821866|G2612_SLE_2012|Human|Sierra_Leone|2012-07-23,KM821866,SLE,Kenema,Kenema,7.862212,-11.196247
KM821868|G2615_SLE_2012|Human|Sierra_Leone|2012-07-24,KM821868,SLE,Bo,Gondama,7.86688,-11.70931
KM821870|G2723_SLE_2012|Human|Sierra_Leone|2012-08-21,KM821870,SLE,Bo,Gondama,7.86688,-11.70931
KM821873|G2868_SLE_2012|Human|Sierra_Leone|2012-10-08,KM821873,SLE,Kenema,Kpetema-Brewaya,8.355083,-11.324278
KM821875|G2903_SLE_2012|Human|Sierra_Leone|2012-10-30,KM821875,SLE,Bo,Gondama,7.86688,-11.70931
KM821879|G2944_SLE_2012|Human|Sierra_Leone|2012-12-05,KM821879,SLE,Kenema,Seleima,NA,NA
KM821881|G3010_SLE_2013|Human|Sierra_Leone|2013-02-05,KM821881,SLE,Kenema,Nyadeyama,8.3188107,-11.3151104
KM821883|G3016_SLE_2013|Human|Sierra_Leone|2013-02-14,KM821883,SLE,Kenema,Panguma,8.184479,-11.134313
KM821891|G3148_SLE_2013|Human|Sierra_Leone|2013-06-01,KM821891,SLE,Kenema,Panguma,8.184479,-11.134313
KM821893|G3151_SLE_2013|Human|Sierra_Leone|2013-06-05,KM821893,SLE,Kenema,Kebawana,7.65,-11.133333
KM821898|G3206_SLE_2013|Human|Sierra_Leone|2013-07-01,KM821898,SLE,Kenema,Panguma,8.184479,-11.134313
KM821901|G3229_SLE_2013|Human|Sierra_Leone|2013-07-13,KM821901,SLE,Kenema,Kenema,7.862212,-11.196247
KM821903|G3234_SLE_2013|Human|Sierra_Leone|2013-07-15,KM821903,SLE,Bo,Upper Saama,7.666711,-11.859363
KM821908|G3278_SLE_2013|Human|Sierra_Leone|2013-08-02,KM821908,SLE,Bo,Torpkoi Town,7.9538763,-11.7132483
KM821911|ISTH0009_NIG_2011|Human|Nigeria|2011,KM821911,NGA,,,NA,NA
KM821913|ISTH0012_NIG_2011|Human|Nigeria|2011,KM821913,NGA,,,NA,NA
KM821915|ISTH0047_NIG_2011|Human|Nigeria|2011,KM821915,NGA,,,NA,NA
KM821917|ISTH0073_NIG_2011|Human|Nigeria|2011,KM821917,NGA,,,NA,NA
KM821919|ISTH0230_NIG_2011|Human|Nigeria|2011,KM821919,NGA,,,NA,NA
KM821921|ISTH0531_NIG_2011|Human|Nigeria|2011,KM821921,NGA,,,NA,NA
KM821923|ISTH0595_NIG_2011|Human|Nigeria|2011,KM821923,NGA,,,NA,NA
KM821926|ISTH1003_NIG_2011|Human|Nigeria|2011,KM821926,NGA,,,NA,NA
KM821928|ISTH1038_NIG_2011|Human|Nigeria|2011,KM821928,NGA,,,NA,NA
KM821930|ISTH1048_NIG_2011|Human|Nigeria|2011,KM821930,NGA,,,NA,NA
KM821932|ISTH1058_NIG_2011|Human|Nigeria|2011,KM821932,NGA,,,NA,NA
KM821934|ISTH1064_NIG_2011|Human|Nigeria|2011,KM821934,NGA,,,NA,NA
KM821936|ISTH1069_NIG_2011|Human|Nigeria|2011,KM821936,NGA,,,NA,NA
KM821938|ISTH1096_NIG_2012|Human|Nigeria|2012,KM821938,NGA,,,NA,NA
KM821940|ISTH1107_NIG_2012|Human|Nigeria|2012,KM821940,NGA,,,NA,NA
KM821942|ISTH1111_NIG_2011|Human|Nigeria|2011,KM821942,NGA,,,NA,NA
KM821944|ISTH1121_NIG_2012|Human|Nigeria|2012,KM821944,NGA,,,NA,NA
KM821946|ISTH1129_NIG_2012|Human|Nigeria|2012,KM821946,NGA,,,NA,NA
KM821948|ISTH1137_NIG_2011|Human|Nigeria|2011,KM821948,NGA,,,NA,NA
KM821950|ISTH2010_NIG_2012|Human|Nigeria|2012,KM821950,NGA,,,NA,NA
KM821952|ISTH2016_NIG_2012|Human|Nigeria|2012,KM821952,NGA,,,NA,NA
KM821954|ISTH2020_NIG_2012|Human|Nigeria|2012,KM821954,NGA,,,NA,NA
KM821956|ISTH2025_NIG_2012|Human|Nigeria|2012,KM821956,NGA,,,NA,NA
KM821958|ISTH2031_NIG_2012|Human|Nigeria|2012,KM821958,NGA,,,NA,NA
KM821960|ISTH2037_NIG_2012|Human|Nigeria|2012,KM821960,NGA,,,NA,NA
KM821962|ISTH2042_NIG_2012|Human|Nigeria|2012,KM821962,NGA,,,NA,NA
KM821964|ISTH2046_NIG_2012|Human|Nigeria|2012,KM821964,NGA,,,NA,NA
KM821966|ISTH2050_NIG_2012|Human|Nigeria|2012,KM821966,NGA,,,NA,NA
KM821968|ISTH2057_NIG_2012|Human|Nigeria|2012,KM821968,NGA,,,NA,NA
KM821970|ISTH2061_NIG_2012|Human|Nigeria|2012,KM821970,NGA,,,NA,NA
KM821978|ISTH2094_NIG_2012|Human|Nigeria|2012,KM821978,NGA,,,NA,NA
KM821981|ISTH2129_NIG_2012|Human|Nigeria|2012,KM821981,NGA,,,NA,NA
KM821983|ISTH2217_NIG_2012|Human|Nigeria|2012,KM821983,NGA,,,NA,NA
KM821985|ISTH2271_NIG_2012|Human|Nigeria|2012,KM821985,NGA,,,NA,NA
KM821987|ISTH2304_NIG_2012|Human|Nigeria|2012,KM821987,NGA,,,NA,NA
KM821989|ISTH2312_NIG_2012|Human|Nigeria|2012,KM821989,NGA,,,NA,NA
KM821991|ISTH2316_NIG_2012|Human|Nigeria|2012,KM821991,NGA,,,NA,NA
KM821993|ISTH2334_NIG_2012|Human|Nigeria|2012,KM821993,NGA,,,NA,NA
KM821995|ISTH2358_NIG_2012|Human|Nigeria|2012,KM821995,NGA,,,NA,NA
KM821997|ISTH2376_NIG_2012|Human|Nigeria|2012,KM821997,NGA,,,NA,NA
KM821999|LASV003_NIG_2008|Human|Nigeria|2008,KM821999,NGA,,,NA,NA
KM822001|LASV006_NIG_2008|Human|Nigeria|2008,KM822001,NGA,,,NA,NA
KM822003|LASV035_NIG_2009|Human|Nigeria|2009,KM822003,NGA,,,NA,NA
KM822005|LASV042_NIG_2009|Human|Nigeria|2009,KM822005,NGA,,,NA,NA
KM822007|LASV045_NIG_2009|Human|Nigeria|2009,KM822007,NGA,,,NA,NA
KM822009|LASV046_NIG_2009|Human|Nigeria|2009,KM822009,NGA,,,NA,NA
KM822011|LASV049_NIG_2009|Human|Nigeria|2009,KM822011,NGA,,,NA,NA
KM822013|LASV052_NIG_2008|Human|Nigeria|2008,KM822013,NGA,,,NA,NA
KM822015|LASV056_NIG_2008|Human|Nigeria|2008,KM822015,NGA,,,NA,NA
KM822017|LASV058_NIG_2008|Human|Nigeria|2008,KM822017,NGA,,,NA,NA
KM822019|LASV063_NIG_2009|Human|Nigeria|2009,KM822019,NGA,,,NA,NA
KM822021|LASV221_NIG_2010|Human|Nigeria|2010,KM822021,NGA,,,NA,NA
KM822024|LASV225_NIG_2010|Human|Nigeria|2010,KM822024,NGA,,,NA,NA
KM822026|LASV229_NIG_2010|Human|Nigeria|2010,KM822026,NGA,,,NA,NA
KM822028|LASV237_NIG_2010|Human|Nigeria|2010,KM822028,NGA,,,NA,NA
KM822030|LASV239_NIG_2010|Human|Nigeria|2010,KM822030,NGA,,,NA,NA
KM822032|LASV241_NIG_2011|Human|Nigeria|2011,KM822032,NGA,,,NA,NA
KM822034|LASV242_NIG_2010|Human|Nigeria|2010,KM822034,NGA,,,NA,NA
KM822036|LASV245_NIG_2011|Human|Nigeria|2011,KM822036,NGA,,,NA,NA
KM822038|LASV246_NIG_2010|Human|Nigeria|2010,KM822038,NGA,,,NA,NA
KM822040|LASV250_NIG_2011|Human|Nigeria|2011,KM822040,NGA,,,NA,NA
KM822042|LASV251_NIG_2010|Human|Nigeria|2010,KM822042,NGA,,,NA,NA
KM822044|LASV253_NIG_2011|Human|Nigeria|2011,KM822044,NGA,,,NA,NA
KM822046|LASV254_NIG_2011|Human|Nigeria|2011,KM822046,NGA,,,NA,NA
KM822048|LASV256_NIG_2010|Human|Nigeria|2010,KM822048,NGA,,,NA,NA
KM822050|LASV263_NIG_2011|Human|Nigeria|2011,KM822050,NGA,,,NA,NA
KM822052|LASV267_NIG_2010|Human|Nigeria|2010,KM822052,NGA,,,NA,NA
KM822054|LASV271_NIG_2010|Human|Nigeria|2010,KM822054,NGA,,,NA,NA
KM822056|LASV274_NIG_2010|Human|Nigeria|2010,KM822056,NGA,,,NA,NA
KM822058|LASV711_NIG_2009|Human|Nigeria|2009,KM822058,NGA,,,NA,NA
KM822061|LASV719_NIG_2009|Human|Nigeria|2009,KM822061,NGA,,,NA,NA
KM822064|LASV737_NIG_2009|Human|Nigeria|2009,KM822064,NGA,,,NA,NA
KM822068|LASV966_NIG_2009|Human|Nigeria|2009,KM822068,NGA,,,NA,NA
KM822070|LASV967_NIG_2009|Human|Nigeria|2009,KM822070,NGA,,,NA,NA
KM822073|LASV971_NIG_2009|Human|Nigeria|2009,KM822073,NGA,,,NA,NA
KM822075|LASV975_NIG_2009|Human|Nigeria|2009,KM822075,NGA,,,NA,NA
KM822077|LASV976_NIG_2009|Human|Nigeria|2009,KM822077,NGA,,,NA,NA
KM822079|LASV977_NIG_2009|Human|Nigeria|2009,KM822079,NGA,,,NA,NA
KM822081|LASV978_NIG_2009|Human|Nigeria|2009,KM822081,NGA,,,NA,NA
KM822083|LASV979_NIG_2009|Human|Nigeria|2009,KM822083,NGA,,,NA,NA
KM822085|LASV981_NIG_2009|Human|Nigeria|2009,KM822085,NGA,,,NA,NA
KM822087|LASV982_NIG_2009|Human|Nigeria|2009,KM822087,NGA,,,NA,NA
KM822090|LASV989_NIG_2009|Human|Nigeria|2009,KM822090,NGA,,,NA,NA
KM822092|LASV990_NIG_2009|Human|Nigeria|2009,KM822092,NGA,,,NA,NA
KM822094|LASV991_NIG_2009|Human|Nigeria|2009,KM822094,NGA,,,NA,NA
KM822096|LASV992_NIG_2009|Human|Nigeria|2009,KM822096,NGA,,,NA,NA
KM822098|LASV993_NIG_2009|Human|Nigeria|2009,KM822098,NGA,,,NA,NA
KM822100|LASV1000_NIG_2009|Human|Nigeria|2009,KM822100,NGA,,,NA,NA
KM822102|LASV1008_NIG_2009|Human|Nigeria|2009,KM822102,NGA,,,NA,NA
KM822104|LASV1011_NIG_2009|Human|Nigeria|2009,KM822104,NGA,,,NA,NA
KM822106|LASV1015_NIG_2009|Human|Nigeria|2009,KM822106,NGA,,,NA,NA
KM822108|LASV1016_NIG_2009|Human|Nigeria|2009,KM822108,NGA,,,NA,NA
KM822110|LM032_SLE_2010|Mouse|Sierra_Leone|2010,KM822110,SLE,,,NA,NA
KM822112|LM222_SLE_2010|Mouse|Sierra_Leone|2010,KM822112,SLE,,,NA,NA
KM822114|LM395_SLE_2009|Mouse|Sierra_Leone|2009,KM822114,SLE,,,NA,NA
KM822116|LM765-SLE-2012Mouse|Sierra_Leone|2012,KM822116,SLE,,,NA,NA
KM822119|LM774_SLE_2012|Mouse|Sierra_Leone|2012,KM822119,SLE,,,NA,NA
KM822121|LM776_SLE_2012|Mouse|Sierra_Leone|2012,KM822121,SLE,,,NA,NA
KM822123|LM778_SLE_2012|Mouse|Sierra_Leone|2012,KM822123,SLE,,,NA,NA
KM822125|LM779_SLE_2012|Mouse|Sierra_Leone|2012,KM822125,SLE,,,NA,NA
pinneo_NGA-Borno_Lassa_LS_1969,KM822127,NGA,Borno,Lassa,10.686987,13.272643
KM822129|Z0947_SLE_2011|Mouse|Sierra_Leone|2011,KM822129,SLE,,,NA,NA
KM822131|Z0948_SLE_2011|Mouse|Sierra_Leone|2011,KM822131,SLE,,,NA,NA
KT992426|Mad39|Mouse|Guinea|2014-05-08,KT992426,GIN,Kindia,MadinaOula,9.87,-12.43
KT992427|Mad41|Mouse|Guinea|2014-05-08,KT992427,GIN,Kindia,MadinaOula,9.87,-12.43
KT992428|Mad62|Mouse|Guinea|2014-05-09,KT992428,GIN,Kindia,MadinaOula,9.87,-12.43
KT992429|Mad63|Mouse|Guinea|2014-05-09,KT992429,GIN,Kindia,MadinaOula,9.87,-12.43
KT992430|Mad69|Mouse|Guinea|2014-05-09,KT992430,GIN,Kindia,MadinaOula,9.87,-12.43
KT992431|Mad83|Mouse|Guinea|2014-05-10,KT992431,GIN,Kindia,MadinaOula,9.87,-12.43
ONM-299_NGA-Benue_COORDINATES_Me_2011-10-23,KT992432,NGA,Benue,COORDINATES,7.6333,8.4
ONM-314_NGA-Benue_COORDINATES_Me_2011-10-24,KT992433,NGA,Benue,COORDINATES,7.6333,8.4
ONM-700_NGA-Benue_COORDINATES_Me_2012-10-29,KT992434,NGA,Benue,COORDINATES,7.6333,8.4
Kak-428_NGA-Osun_COORDINATES_Hp_2012-03-15,KT992435,NGA,Osun,COORDINATES,7.6833,4.6167
KU961972|Togo/2016/7082|Human|Togo|2016-02-26,KU961972,TGO,,,NA,NA
LASV|NGA|2019|IRR_0098|2019-03-03,LASV|NGA|2019|IRR_0098|2019-03-03,NGA,Ondo,Owo,7.19744,5.58653
LASV|NGA|2019|IRR_0100|2019-03-03,LASV|NGA|2019|IRR_0100|2019-03-03,NGA,Ondo,Owo,7.19744,5.58653
LASV|NGA|2019|IRR_0001|2019-01-15,LASV|NGA|2019|IRR_0001|2019-01-15,NGA,Edo,Jattu,7.083333,6.283333
LASV|NGA|2019|IRR_0002|2019-01-16,LASV|NGA|2019|IRR_0002|2019-01-16,NGA,Edo,Okpella,7.272099,6.346321
LASV|NGA|2019|IRR_0003|2019-01-15,LASV|NGA|2019|IRR_0003|2019-01-15,NGA,Ondo,Owo,7.19744,5.58653
LASV|NGA|2019|IRR_0004|2019-01-17,LASV|NGA|2019|IRR_0004|2019-01-17,NGA,Ondo,Ifon,6.926767,5.773787
LASV|NGA|2019|IRR_0005|2019-01-18,LASV|NGA|2019|IRR_0005|2019-01-18,NGA,Edo,Auchi,7.066667,6.266667
LASV|NGA|2019|IRR_0006|2019-01-20,LASV|NGA|2019|IRR_0006|2019-01-20,NGA,Edo,Iruekpen,6.754196,6.054167
LASV|NGA|2019|IRR_0008|2019-01-20,LASV|NGA|2019|IRR_0008|2019-01-20,NGA,Edo,Jattu,7.083333,6.283333
LASV|NGA|2019|IRR_0009|2019-01-21,LASV|NGA|2019|IRR_0009|2019-01-21,NGA,Kogi,Ibaji,NA,NA
LASV|NGA|2019|IRR_0010|2019-01-22,LASV|NGA|2019|IRR_0010|2019-01-22,NGA,Ondo,Ifon,6.926767,5.773787
LASV|NGA|2019|IRR_0011|2019-01-22,LASV|NGA|2019|IRR_0011|2019-01-22,NGA,Ondo,Owo,7.19744,5.58653
LASV|NGA|2019|IRR_0017|2018-12-31,LASV|NGA|2019|IRR_0017|2018-12-31,NGA,Ondo,Owo,7.19744,5.58653
LASV|NGA|2019|IRR_0019|2019-01-08,LASV|NGA|2019|IRR_0019|2019-01-08,NGA,Edo,Uromi,6.712259,6.329005
LASV|NGA|2019|IRR_0020|2019-01-09,LASV|NGA|2019|IRR_0020|2019-01-09,NGA,Ondo,Akoko,7.457113,5.799837
LASV|NGA|2019|IRR_0021|2019-01-18,LASV|NGA|2019|IRR_0021|2019-01-18,NGA,Ondo,Owo,7.19744,5.58653
LASV|NGA|2019|IRR_0022|2019-01-25,LASV|NGA|2019|IRR_0022|2019-01-25,NGA,Edo,Ekpoma,6.75,6.133333
LASV|NGA|2019|IRR_0023|2019-01-26,LASV|NGA|2019|IRR_0023|2019-01-26,NGA,Ondo,Owo,7.19744,5.58653
LASV|NGA|2019|IRR_0024|2019-01-27,LASV|NGA|2019|IRR_0024|2019-01-27,NGA,Edo,Benin,6.333333,5.622222
LASV|NGA|2019|IRR_0025|2019-02-02,LASV|NGA|2019|IRR_0025|2019-02-02,NGA,Edo,Irrua,6.738429,6.221953
LASV|NGA|2019|IRR_0026|2019-02-02,LASV|NGA|2019|IRR_0026|2019-02-02,NGA,Ondo,Owo,7.19744,5.58653
LASV|NGA|2019|IRR_0027|2019-01-05,LASV|NGA|2019|IRR_0027|2019-01-05,NGA,Ondo,Ose,NA,NA
LASV|NGA|2019|IRR_0028|2019-01-25,LASV|NGA|2019|IRR_0028|2019-01-25,NGA,Ondo,Owo,7.19744,5.58653
LASV|NGA|2019|IRR_0049|2019-01-04,LASV|NGA|2019|IRR_0049|2019-01-04,NGA,Edo,Jattu,7.083333,6.283333
LASV|NGA|2019|IRR_0050|2019-01-16,LASV|NGA|2019|IRR_0050|2019-01-16,NGA,Edo,Jattu,7.083333,6.283333
LASV|NGA|2019|IRR_0053|2019-01-23,LASV|NGA|2019|IRR_0053|2019-01-23,NGA,Ondo,Owo,7.19744,5.58653
LASV|NGA|2019|IRR_0055|2019-01-24,LASV|NGA|2019|IRR_0055|2019-01-24,NGA,Edo,Jattu,7.083333,6.283333
LASV|NGA|2019|IRR_0057|2019-01-29,LASV|NGA|2019|IRR_0057|2019-01-29,NGA,Ondo,Owo,7.19744,5.58653
LASV|NGA|2019|IRR_0058|2019-02-13,LASV|NGA|2019|IRR_0058|2019-02-13,NGA,Kogi,Ibaji,NA,NA
LASV|NGA|2019|IRR_0059|2019-02-17,LASV|NGA|2019|IRR_0059|2019-02-17,NGA,Edo,Irrua,6.738429,6.221953
LASV|NGA|2019|IRR_0060|2019-02-06,LASV|NGA|2019|IRR_0060|2019-02-06,NGA,Edo,Auchi,7.066667,6.266667
LASV|NGA|2019|IRR_0062|2019-02-12,LASV|NGA|2019|IRR_0062|2019-02-12,NGA,Ondo,Owo,7.19744,5.58653
LASV|NGA|2019|IRR_0064|2019-01-03,LASV|NGA|2019|IRR_0064|2019-01-03,NGA,Edo,Ubiaja,6.659722,6.382222
LASV|NGA|2019|IRR_0065|2019-01-02,LASV|NGA|2019|IRR_0065|2019-01-02,NGA,Ondo,Okeluse,6.784077,5.589279
LASV|NGA|2019|IRR_0067|2019-02-08,LASV|NGA|2019|IRR_0067|2019-02-08,NGA,Edo,Auchi,7.066667,6.266667
LASV|NGA|2019|IRR_0068|2019-01-08,LASV|NGA|2019|IRR_0068|2019-01-08,NGA,Edo,Sobe,6.850844,5.777564
LASV|NGA|2019|IRR_0070|2019-02-08,LASV|NGA|2019|IRR_0070|2019-02-08,NGA,Benue,Gboko,7.336619,9.002272
LASV|NGA|2019|IRR_0071|2019-01-07,LASV|NGA|2019|IRR_0071|2019-01-07,NGA,Edo,Ekpoma,6.75,6.133333
LASV|NGA|2019|IRR_0073|2019-01-21,LASV|NGA|2019|IRR_0073|2019-01-21,NGA,Edo,Auchi,7.066667,6.266667
LASV|NGA|2019|IRR_0074|2019-01-31,LASV|NGA|2019|IRR_0074|2019-01-31,NGA,Edo,Agbede,6.678119,3.51526
LASV|NGA|2019|IRR_0075|2019-02-15,LASV|NGA|2019|IRR_0075|2019-02-15,NGA,Edo,Auchi,7.066667,6.266667
LASV|NGA|2019|IRR_0076|2019-02-05,LASV|NGA|2019|IRR_0076|2019-02-05,NGA,Ondo,Owo,7.19744,5.58653
LASV|NGA|2019|IRR_0077|2019-01-19,LASV|NGA|2019|IRR_0077|2019-01-19,NGA,Edo,Usen,6.733367,5.401827
LASV|NGA|2019|IRR_0078|2019-02-06,LASV|NGA|2019|IRR_0078|2019-02-06,NGA,Ondo,Ugboka,NA,NA
LASV|NGA|2019|IRR_0079|2019-02-04,LASV|NGA|2019|IRR_0079|2019-02-04,NGA,Edo,Auchi,7.066667,6.266667
LASV|NGA|2019|IRR_0080|2019-01-17,LASV|NGA|2019|IRR_0080|2019-01-17,NGA,Edo,Uromi,6.712259,6.329005
LASV|NGA|2019|IRR_0081|2019-02-03,LASV|NGA|2019|IRR_0081|2019-02-03,NGA,Edo,Uromi,6.712259,6.329005
LASV|NGA|2019|IRR_0082|2019-01-17,LASV|NGA|2019|IRR_0082|2019-01-17,NGA,Ondo,Ikare Akoko,7.525829,5.762072
LASV|NGA|2019|IRR_0083|2019-01-11,LASV|NGA|2019|IRR_0083|2019-01-11,NGA,Edo,Ekpoma,6.75,6.133333
LASV|NGA|2019|IRR_0092|2019-01-25,LASV|NGA|2019|IRR_0092|2019-01-25,NGA,Edo,Afuze,6.94089,5.984769
LASV|NGA|2019|IRR_0093|2019-02-15,LASV|NGA|2019|IRR_0093|2019-02-15,NGA,Edo,Esan Central,NA,NA
LASV|NGA|2019|IRR_0094|2019-02-18,LASV|NGA|2019|IRR_0094|2019-02-18,NGA,Ebonyi,Afikpo,5.889345,7.953555
LASV|NGA|2019|IRR_0096|2019-02-26,LASV|NGA|2019|IRR_0096|2019-02-26,NGA,Edo,Ovia North East,NA,NA
LASV|NGA|2019|IRR_0097|2019-02-24,LASV|NGA|2019|IRR_0097|2019-02-24,NGA,Ondo,Ondo,7.088923,4.799094
LASV|NGA|2019|IRR_0099|2019-03-01,LASV|NGA|2019|IRR_0099|2019-03-01,NGA,Kogi,Ekirin-Ade,7.839884,5.857344
LASV|NGA|2019|IRR_0101|2019-02-28,LASV|NGA|2019|IRR_0101|2019-02-28,NGA,Ondo,Owo,7.19744,5.58653
LASV|NGA|2019|IRR_0102|2019-02-28,LASV|NGA|2019|IRR_0102|2019-02-28,NGA,Delta,Asaba,6.197842,6.728467
LASV|NGA|2019|IRR_0103|2019-02-28,LASV|NGA|2019|IRR_0103|2019-02-28,NGA,Edo,Jattu,7.083333,6.283333
LASV|NGA|2019|IRR_0105|2019-02-26,LASV|NGA|2019|IRR_0105|2019-02-26,NGA,Edo,Auchi,7.066667,6.266667
LASV|NGA|2019|IRR_0106|2019-02-28,LASV|NGA|2019|IRR_0106|2019-02-28,NGA,Ondo,Ute,6.849914,5.600172
LASV|NGA|2019|IRR_0107|2019-02-26,LASV|NGA|2019|IRR_0107|2019-02-26,NGA,Edo,Jattu,7.083333,6.283333
LASV|NGA|2019|IRR_0112|2019-03-05,LASV|NGA|2019|IRR_0112|2019-03-05,NGA,Edo,Auchi,7.066667,6.266667
LASV|NGA|2019|IRR_0113|2019-03-06,LASV|NGA|2019|IRR_0113|2019-03-06,NGA,Ondo,Owo,7.19744,5.58653
LASV|NGA|2019|IRR_0114|2019-03-07,LASV|NGA|2019|IRR_0114|2019-03-07,NGA,Edo,Uromi,6.712259,6.329005
MG812630|807987|Human|Liberia|1981,MG812630,LBR,,,NA,NA
MG812633|807978|Human|Liberia|1981,MG812633,LBR,,,NA,NA
MG812634|807876|Human|Nigeria|1981,MG812634,NGA,,,NA,NA
MG812640|806593|Human|Nigeria|1989,MG812640,NGA,,,NA,NA
MG812642|806568|Human|SierraLeone|1979,MG812642,SLE,,,NA,NA
MG812651|812673|Human|Liberia|2015,MG812651,LBR,,,NA,NA
MG812652|LF11003|Human|Liberia_Bong|2011-02-20,MG812652,LBR,Bong,Suakoko,6.98986,-9.580031
MG812654|LF11011|Human|Liberia_Bong|2011-04-14,MG812654,LBR,Bong,Jorquelleh,6.99556,-9.47222
MG812656|LF13006|Human|Liberia_Nimba|2013-04-29,MG812656,LBR,Nimba,Saclepea-Mah,NA,NA
MG812659|812337|Human|Liberia|2014,MG812659,LBR,,,NA,NA
MG812660|LF13007|Human|Liberia_Nimba|2013-04-29,MG812660,LBR,Nimba,Saclepea-Mah,NA,NA
MG812662|LF16004|Human|Liberia_Bong|2016-02-26,MG812662,LBR,Bong,Jorquelleh,6.99556,-9.47222
MG812664|LF16016|Human|Liberia_Nimba|2016-04-13,MG812664,LBR,Nimba,Garr bain,7.24306,-8.87194
MG812666|LF17007|Human|Liberia_Nimba|2017-01-09,MG812666,LBR,Nimba,Saclepea-Mah,NA,NA
MG812668|LF17019|Human|Liberia_Bong|2017-05-04,MG812668,LBR,Bong,Jorquelleh,6.99556,-9.47222
MG812671|LF17020|Human|Liberia_Nimba|2017-05-02,MG812671,LBR,Nimba,Saclepea-Mah,NA,NA
MG812672|LF17001|Human|Liberia_Nimba|2017-01-09,MG812672,LBR,Nimba,,NA,NA
MG812676|LF17013|Human|Liberia_Bong|2017-02-13,MG812676,LBR,Bong,Jorquelleh,6.99556,-9.47222
MG812678|811606|Human|Liberia|2010,MG812678,LBR,,,NA,NA
MG812682|808714|Human|SierraLeone|1980,MG812682,SLE,,,NA,NA
MH053464|ISTH_0831|Human|Nigeria|2015-12-30,MH053464,NGA,Nasarawa,,NA,NA
MH053465|ISTH_1541|Human|Nigeria|2016-10-13,MH053465,NGA,Bauchi,,NA,NA
MH053466|ISTH_1546|Human|Nigeria|2016-10-16,MH053466,NGA,Bauchi,,NA,NA
MH053467|ISTH_0789|Human|Nigeria|2015-12-15,MH053467,NGA,Bauchi,,NA,NA
MH053469|ISTH_1604|Human|Nigeria|2016-11-05,MH053469,NGA,Nasarawa,,NA,NA
MH053471|ISTH_0187|Human|Nigeria|2016-01-17,MH053471,NGA,Plateau,,NA,NA
MH053486|ISTH_0133|Human|Nigeria|2016-01-14,MH053486,NGA,Anambra,,NA,NA
MH053489|ISTH_1069|Human|Nigeria|2016-04-13,MH053489,NGA,Edo,EsanWest,NA,NA
MH053492|ISTH_0547|Human|Nigeria|2015-09-14,MH053492,NGA,Edo,EtsakoWe,NA,NA
MH053494|ISTH_1207|Human|Nigeria|2016-05-03,MH053494,NGA,Ondo,,NA,NA
MH053495|ISTH_0199|Human|Nigeria|2016-01-18,MH053495,NGA,Edo,EtsakoWe,NA,NA
MH053496|ISTH_0687|Human|Nigeria|2015-11-10,MH053496,NGA,Edo,EtsakoWe,NA,NA
MH053499|ISTH_1423|Human|Nigeria|2016-08-16,MH053499,NGA,Anambra,,NA,NA
MH053500|ISTH_1610|Human|Nigeria|2016-11-07,MH053500,NGA,Edo,EsanSout,NA,NA
MH053503|ISTH_1462|Human|Nigeria|2016-09-04,MH053503,NGA,Ondo,,NA,NA
MH053505|ISTH_1496|Human|Nigeria|2016-09-21,MH053505,NGA,Edo,EsanCent,NA,NA
MH053507|ISTH_0141|Human|Nigeria|2016-01-14,MH053507,NGA,Edo,Oredo Edo,NA,NA
MH053508|ISTH_0736|Human|Nigeria|2015-11-27,MH053508,NGA,Delta,,NA,NA
MH053509|ISTH_1306|Human|Nigeria|2016-06-08,MH053509,NGA,Edo,Oredo Edo,NA,NA
MH053512|ISTH_1123|Human|Nigeria|2016-04-21,MH053512,NGA,Edo,EsanCent,NA,NA
MH053515|ISTH_0703|Human|Nigeria|2016-02-24,MH053515,NGA,Ondo,,NA,NA
MH053516|ISTH_0146|Human|Nigeria|2016-01-15,MH053516,NGA,Edo,EsanWest,NA,NA
MH053519|ISTH_1591|Human|Nigeria|2016-11-02,MH053519,NGA,Edo,EtsakoWe,NA,NA
MH053520|ISTH_1568|Human|Nigeria|2016-10-27,MH053520,NGA,Edo,EtsakoWe,NA,NA
MH053525|ISTH_1174|Human|Nigeria|2016-04-29,MH053525,NGA,Edo,OviaNort,NA,NA
MH053529|ISTH_1398|Human|Nigeria|2016-07-31,MH053529,NGA,Edo,EsanWest,NA,NA
MH053530|ISTH_0701|Human|Nigeria|2016-02-23,MH053530,NGA,Ondo,,NA,NA
MH053534|ISTH_0447|Human|Nigeria|2016-02-02,MH053534,NGA,Edo,EtsakoWe,NA,NA
MH053535|ISTH_1472|Human|Nigeria|2016-09-13,MH053535,NGA,Ondo,,NA,NA
MH053539|ISTH_0777|Human|Nigeria|2016-02-28,MH053539,NGA,Ebonyi,,NA,NA
MH053540|ISTH_0572|Human|Nigeria|2016-02-11,MH053540,NGA,Ondo,,NA,NA
MH053541|ISTH_0314|Human|Nigeria|2016-01-23,MH053541,NGA,Ondo,,NA,NA
MH053542|ISTH_0035|Human|Nigeria|2016-01-06,MH053542,NGA,Edo,EtsakoWe,NA,NA
MH053543|ISTH_1150|Human|Nigeria|2016-04-25,MH053543,NGA,Ebonyi,,NA,NA
MH053546|ISTH_0759|Human|Nigeria|2016-02-28,MH053546,NGA,Edo,EsanNort,NA,NA
MH053548|ISTH_1311|Human|Nigeria|2016-06-10,MH053548,NGA,Ebonyi,,NA,NA
MH053550|ISTH_0702|Human|Nigeria|2016-02-23,MH053550,NGA,Ondo,,NA,NA
MH053556|ISTH_0779|Human|Nigeria|2016-02-29,MH053556,NGA,Ebonyi,,NA,NA
MH053558|ISTH_0543|Human|Nigeria|2016-02-08,MH053558,NGA,Ebonyi,,NA,NA
MH053565|ISTH_1006|Human|Nigeria|2016-03-24,MH053565,NGA,Ondo,,NA,NA
MH053566|ISTH_0681|Human|Nigeria|2015-11-06,MH053566,NGA,Edo,Etsako Central,NA,NA
MH053568|ISTH_1070|Human|Nigeria|2016-04-13,MH053568,NGA,Edo,Ikpoba-Okha,NA,NA
MH053569|ISTH_0009|Human|Nigeria|2016-01-02,MH053569,NGA,Edo,EtsakoWe,NA,NA
MH053570|ISTH_0543|Human|Nigeria|2015-09-14,MH053570,NGA,Edo,EsanWest,NA,NA
MH053571|ISTH_0919|Human|Nigeria|2016-03-16,MH053571,NGA,Ondo,,NA,NA
MH053579|ISTH_1026|Human|Nigeria|2016-04-04,MH053579,NGA,Edo,EsanWest,NA,NA
MH053581|ISTH_0821|Human|Nigeria|2015-12-27,MH053581,NGA,Edo,EtsakoWe,NA,NA
MH053583|ISTH_0565|Human|Nigeria|2016-02-11,MH053583,NGA,Ebonyi,,NA,NA
MH053585|ISTH_0089|Human|Nigeria|2016-01-10,MH053585,NGA,Ondo,,NA,NA
MH053590|ISTH_1609|Human|Nigeria|2016-11-01,MH053590,NGA,Bauchi,,NA,NA
MH157029|ISTH_1079|Human|Nigeria|2018-02-15,MH157029,NGA,Ondo,,NA,NA
MH157033|ISTH_1375|Human|Nigeria|2018-02-23,MH157033,NGA,Ondo,,NA,NA
MH157040|ISTH_1381|Human|Nigeria|2018-02-23,MH157040,NGA,Kogi,,NA,NA
MH157043|ISTH_0026|Human|Nigeria|2018-01-07,MH157043,NGA,Edo,EsanWest,NA,NA
MH157048|ISTH_0541|Human|Nigeria|2018-02-01,MH157048,NGA,Edo,EtsakoWe,NA,NA
MH215278|LF18001|Human|Liberia_Bong|2018-01-10,MH215278,LBR,Bong,,NA,NA
MH215280|LF18002|Human|Liberia_Nimba|2018-01-10,MH215280,GIN,Yomou,,NA,NA
MH215282|LF18037|Human|Liberia_Nimba|2018-02-13,MH215282,LBR,Nimba,,NA,NA
MH215284|LF18040|Human|Liberia_Monsterrado|2018-03-02,MH215284,LBR,Montserrado,,NA,NA
MH215286|LF18041|Human|Liberia_Monsterrado|2018-03-03,MH215286,LBR,Montserrado,,NA,NA
MH215288|LF18042|Human|Liberia_Nimba|2018-03-01,MH215288,LBR,Nimba,,NA,NA
MH887898|LASV0065-ONDO-2017|Human|Nigeria|2017-01-09,MH887898,NGA,Ondo,,NA,NA
MH887900|LASV0194-EDO-2018|Human|Nigeria|2018-02-17,MH887900,NGA,Edo,EsanNort,NA,NA
MH887901|LASV0078-ONDO-2017|Human|Nigeria|2017-05-07,MH887901,NGA,Ondo,,NA,NA
MH887905|LASV0075-EDO-2017|Human|Nigeria|2017-03-15,MH887905,NGA,Edo,EtsakoWe,NA,NA
MH887907|LASV0068-ONDO-2017|Human|Nigeria|2017-01-26,MH887907,NGA,Ondo,,NA,NA
MH887909|LASV0111-ONDO-2017|Human|Nigeria|2017-12-28,MH887909,NGA,Ondo,,NA,NA
MH887912|LASV0215-ONDO-2018|Human|Nigeria|2018-03-21,MH887912,NGA,Ondo,,NA,NA
MH887913|LASV0103-EDO-2017|Human|Nigeria|2017-11-29,MH887913,NGA,Edo,Ikpoba-Okha,NA,NA
MH887914|LASV0080-ONDO-2017|Human|Nigeria|2017-05-16,MH887914,NGA,Ondo,,NA,NA
MH887916|LASV0070-ONDO-2017|Human|Nigeria|2017-02-10,MH887916,NGA,Ondo,,NA,NA
MH887917|LASV0096-ONDO-2017|Human|Nigeria|2017-09-18,MH887917,NGA,Ondo,,NA,NA
MH887918|LASV0216-EDO-2018|Human|Nigeria|2018-03-23,MH887918,NGA,Edo,,NA,NA
MH887919|LASV0088-EDO-2017|Human|Nigeria|2017-06-27,MH887919,NGA,Edo,EtsakoWe,NA,NA
MH887920|LASV0126-EBONYI-2018|Human|Nigeria|2018-01-13,MH887920,NGA,Ebonyi,,NA,NA
MH887921|LASV0141-EDO-2018|Human|Nigeria|2018-01-19,MH887921,NGA,Edo,EtsakoEa,NA,NA
MH887922|LASV0101-EDO-2017|Human|Nigeria|2017-11-10,MH887922,NGA,Edo,EsanWest,NA,NA
MH887923|LASV0066-EDO-2017|Human|Nigeria|2017-01-21,MH887923,NGA,Edo,EsanWest,NA,NA
MH887924|LASV0151-EDO-2018|Human|Nigeria|2018-02-02,MH887924,NGA,Edo,EtsakoWe,NA,NA
MH887925|LASV0112-ONDO-2017|Human|Nigeria|2017-12-29,MH887925,NGA,Ondo,,NA,NA
MH887926|LASV0117-ONDO-2018|Human|Nigeria|2018-01-07,MH887926,NGA,Ondo,,NA,NA
MH887927|LASV0099-EDO-2017|Human|Nigeria|2017-10-17,MH887927,NGA,Edo,EsanWest,NA,NA
MH887928|LASV0175-EDO-2018|Human|Nigeria|2018-02-12,MH887928,NGA,Edo,Uhunmwonde,NA,NA
MH887929|LASV0177-EDO-2018|Human|Nigeria|2018-02-12,MH887929,NGA,Edo,EsanNort,NA,NA
MH887931|LASV0067-EDO-2017|Human|Nigeria|2017-01-24,MH887931,NGA,Edo,EtsakoWe,NA,NA
MH887932|LASV0071-EDO-2017|Human|Nigeria|2017-02-14,MH887932,NGA,Edo,Akoko-Ed,NA,NA
MH887934|LASV0142-IMO-2018|Human|Nigeria|2018-01-19,MH887934,NGA,Imo,,NA,NA
MH887936|LASV0201-ONDO-2018|Human|Nigeria|2018-02-21,MH887936,NGA,Ondo,,NA,NA
MH887938|LASV0167-ONDO-2018|Human|Nigeria|2018-02-10,MH887938,NGA,Ondo,,NA,NA
MH887939|LASV0072-ONDO-2017|Human|Nigeria|2017-02-14,MH887939,NGA,Ondo,,NA,NA
MH887940|LASV0104-ONDO-2017|Human|Nigeria|2017-12-12,MH887940,NGA,Ondo,,NA,NA
MH887941|LASV0182-EDO-2018|Human|Nigeria|2018-02-13,MH887941,NGA,Edo,EtsakoWe,NA,NA
MH887942|LASV0154-TARABA-2018|Human|Nigeria|2018-02-04,MH887942,NGA,Taraba,Jalingo,8.89369,11.35765
MH887944|LASV0210-EDO-2018|Human|Nigeria|2018-03-03,MH887944,NGA,Edo,Uhunmwonde,NA,NA
MH887945|LASV0135-ONDO-2018|Human|Nigeria|2018-01-17,MH887945,NGA,Ondo,,NA,NA
MH887946|LASV0110-ONDO-2017|Human|Nigeria|2017-12-26,MH887946,NGA,Ondo,,NA,NA
MH887949|LASV0108-ONDO-2017|Human|Nigeria|2017-12-17,MH887949,NGA,Ondo,,NA,NA
MH887950|LASV0092-EDO-2017|Human|Nigeria|2017-08-04,MH887950,NGA,Edo,EsanWest,NA,NA
MH887951|LASV0085-EDO-2017|Human|Nigeria|2017-06-17,MH887951,NGA,Edo,OwanWest,NA,NA
MH887955|LASV0136-ONDO-2018|Human|Nigeria|2018-01-17,MH887955,NGA,Ondo,,NA,NA
MH887959|LASV0125-EBONYI-2018|Human|Nigeria|2018-01-13,MH887959,NGA,Ebonyi,,NA,NA
MH887962|LASV0091-EDO-2017|Human|Nigeria|2017-08-03,MH887962,NGA,Edo,,NA,NA
MH887964|LASV0098-EDO-2017|Human|Nigeria|2017-10-16,MH887964,NGA,Edo,Oredo Edo,NA,NA
MH887965|LASV0083-ONDO-2017|Human|Nigeria|2017-06-13,MH887965,NGA,Ondo,,NA,NA
MH887966|LASV0090-ONDO-2017|Human|Nigeria|2017-07-19,MH887966,NGA,Ondo,,NA,NA
MH887968|LASV0079-EDO-2017|Human|Nigeria|2017-05-15,MH887968,NGA,Edo,EtsakoWe,NA,NA
MH887970|LASV0093-EDO-2017|Human|Nigeria|2017-08-19,MH887970,NGA,Edo,EsanSout,NA,NA
MH887971|LASV0089-ONDO-2017|Human|Nigeria|2017-07-05,MH887971,NGA,Ondo,,NA,NA
MH887972|LASV0105-ONDO-2017|Human|Nigeria|2017-12-17,MH887972,NGA,Ondo,,NA,NA
MH887973|LASV0166-ONDO-2018|Human|Nigeria|2018-02-10,MH887973,NGA,Ondo,,NA,NA
MH887974|LASV0102-ONDO-2017|Human|Nigeria|2017-11-26,MH887974,NGA,Ondo,,NA,NA
MH887976|LASV0095-EDO-2017|Human|Nigeria|2017-09-14,MH887976,NGA,Edo,EtsakoWe,NA,NA
MH887978|LASV0132-ONDO-2018|Human|Nigeria|2018-01-15,MH887978,NGA,Ondo,,NA,NA
MH887981|LASV0106-ONDO-2017|Human|Nigeria|2017-12-17,MH887981,NGA,Ondo,,NA,NA
MH887983|LASV0190-ONDO-2018|Human|Nigeria|2018-02-15,MH887983,NGA,Ondo,Owo,7.19744,5.58653
MH887984|LASV0074-EDO-2017|Human|Nigeria|2017-03-12,MH887984,NGA,Edo,EtsakoWe,NA,NA
MH887985|LASV0180-UNKNOWN-2018|Human|Nigeria|2018-02-13,MH887985,NGA,,,NA,NA
MH887986|LASV0144-ONDO-2018|Human|Nigeria|2018-01-23,MH887986,NGA,Ondo,,NA,NA
MH887987|LASV0160-KOGI-2018|Human|Nigeria|2018-02-06,MH887987,NGA,Kogi,,NA,NA
MH887988|LASV0209-KOGI-2018|Human|Nigeria|2018-03-02,MH887988,NGA,Kogi,,NA,NA
MH887989|LASV0086-EDO-2017|Human|Nigeria|2017-06-25,MH887989,NGA,Edo,EsanWest,NA,NA
MH887991|LASV0094-KOGI-2017|Human|Nigeria|2017-09-02,MH887991,NGA,Kogi,,NA,NA
MH887992|LASV0118-EDO-2018|Human|Nigeria|2018-01-09,MH887992,NGA,Edo,OwanWest,NA,NA
MH887993|LASV0217-DELTA-2018|Human|Nigeria|2018-03-27,MH887993,NGA,Delta,,NA,NA
MH887995|LASV0076-EDO-2017|Human|Nigeria|2017-03-16,MH887995,NGA,Edo,OviaNort,NA,NA
MH887996|LASV0082-EDO-2017|Human|Nigeria|2017-06-07,MH887996,NGA,Edo,OviaNort,NA,NA
MH887999|LASV0081-EDO-2017|Human|Nigeria|2017-06-05,MH887999,NGA,Edo,OviaNort,NA,NA
MH888000|LASV0214-KOGI-2018|Human|Nigeria|2018-03-18,MH888000,NGA,Kogi,,NA,NA
MH888002|LASV0069-EDO-2017|Human|Nigeria|2017-02-07,MH888002,NGA,Edo,EsanWest,NA,NA
MH888004|LASV0073-EDO-2017|Human|Nigeria|2017-03-07,MH888004,NGA,Edo,EtsakoWe,NA,NA
MH888006|LASV0145-EDO-2018|Human|Nigeria|2018-01-23,MH888006,NGA,Edo,EsanWest,NA,NA
MH888008|LASV0097-EDO-2017|Human|Nigeria|2017-10-06,MH888008,NGA,Edo,EsanWest,NA,NA
LASV_NGA_2011_IRR_001_NGA-Ondo_Ose_Hs_2011-08-02,MK107842,NGA,Ondo,Ose,NA,NA
LASV_NGA_2012_IRR_010_NGA-Delta_Asaba_Hs_2012-05-28,MK107843,NGA,Delta,Asaba,6.197842,6.728467
LASV_NGA_2013_IRR_014_NGA-Bauchi_Bauchi_Hs_2013-11-23,MK107844,NGA,Bauchi,Bauchi,10.314159,9.846282
LASV_NGA_2013_IRR_016_NGA-Bauchi_Bauchi_Hs_2013-12-08,MK107845,NGA,Bauchi,Bauchi,10.314159,9.846282
LASV_NGA_2013_IRR_008_NGA-Taraba_Jalingo_Hs_2013-03-06,MK107846,NGA,Taraba,Jalingo,8.89369,11.35765
LASV_NGA_2014_IRR_005_NGA-Ebonyi_Abakaliki_Hs_2014-05-14,MK107847,NGA,Ebonyi,Abakaliki,6.333333,8.1
LASV_NGA_2014_IRR_010_NGA-Ondo_Okeluse_Hs_2014-05-17,MK107852,NGA,Ondo,Okeluse,6.784077,5.589279
LASV_NGA_2014_IRR_011_NGA-Ondo_Okeluse_Hs_2014-08-01,MK107853,NGA,Ondo,Okeluse,6.784077,5.589279
LASV_NGA_2014_IRR_012_NGA-Ondo_Ifon_Hs_2014-08-10,MK107854,NGA,Ondo,Ifon,6.926767,5.773787
LASV_NGA_2014_IRR_002_NGA-Nassarawa_Lafia_Hs_2014-01-20,MK107855,NGA,Nassarawa,Lafia,8.49575,8.52155
LASV_NGA_2015_IRR_009_NGA-Bauchi_Mbal_Hs_2015-04-25,MK107856,NGA,Bauchi,Mbal,9.595820427,9.617159843
LASV_NGA_2015_IRR_008_NGA-Bauchi_Alkaleri_Hs_2015-04-10,MK107857,NGA,Bauchi,Alkaleri,10.26878,10.33279
LASV_NGA_2015_IRR_010_NGA-Kogi_Ibaji_Hs_2015-07-02,MK107858,NGA,Kogi,Ibaji,NA,NA
LASV_NGA_2015_IRR_014_NGA-Nassarawa_Agyaragu_Hs_2015-12-30,MK107859,NGA,Nassarawa,Agyaragu,8.4,8.55
LASV_NGA_2015_IRR_011_NGA-Ondo_Owo_Hs_2015-09-16,MK107860,NGA,Ondo,Owo,7.19744,5.58653
LASV_NGA_2015_IRR_012_NGA-Ondo_Ifon_Hs_2015-11-06,MK107861,NGA,Ondo,Ifon,6.926767,5.773787
LASV_NGA_2016_IRR_012_NGA-Bauchi_TafawaBalewa_Hs_2016-01-25,MK107862,NGA,Bauchi,TafawaBalewa,9.755908,9.553992
LASV_NGA_2016_IRR_014_NGA-Bauchi_Alkaleri_Hs_2016-01-28,MK107863,NGA,Bauchi,Alkaleri,10.26878,10.33279
LASV_NGA_2016_IRR_019_NGA-Bauchi_LimanKatagum_Hs_2016-01-12,MK107864,NGA,Bauchi,LimanKatagum,10.093735,9.767931
LASV_NGA_2016_IRR_028_NGA-Bauchi_SabonGari_Hs_2016-02-29,MK107865,NGA,Bauchi,SabonGari,10.675453,9.122348
LASV_NGA_2016_IRR_025_NGA-Benue_Oiji_Hs_2016-02-26,MK107866,NGA,Benue,Oiji,7.565864,7.917972
LASV_NGA_2016_IRR_018_NGA-Ebonyi_Ikwo_Hs_2016-02-09,MK107868,NGA,Ebonyi,Ikwo,6.0767,8.0701
LASV_NGA_2016_IRR_021_NGA-Ebonyi_NA_Hs_2016-02-18,MK107869,NGA,Ebonyi,,NA,NA
LASV_NGA_2016_IRR_006_NGA-Ekiti_IdoEkiti_Hs_2016-01-14,MK107872,NGA,Ekiti,IdoEkiti,7.845422,5.182916
LASV_NGA_2016_IRR_013_NGA-Imo_Owerri_Hs_2016-01-27,MK107873,NGA,Imo,Owerri,5.485,7.035
LASV_NGA_2016_IRR_023_NGA-Kaduna_Kaduna_Hs_2016-02-23,MK107874,NGA,Kaduna,Kaduna,10.523056,7.440278
LASV_NGA_2016_IRR_016_NGA-Nassarawa_Kwarra_Hs_2016-02-06,MK107875,NGA,Nassarawa,Kwarra,8.325363,8.450158
LASV_NGA_2016_IRR_008_NGA-Nassarawa_Lafia_Hs_2016-01-20,MK107876,NGA,Nassarawa,Lafia,8.49575,8.52155
LASV_NGA_2016_IRR_015_NGA-Nassarawa_Lafia_Hs_2016-02-03,MK107878,NGA,Nassarawa,Lafia,8.49575,8.52155
LASV_NGA_2016_IRR_032_NGA-Nassarawa_Lafia_Hs_2016-03-13,MK107879,NGA,Nassarawa,Lafia,8.49575,8.52155
LASV_NGA_2016_IRR_020_NGA-Nassarawa_Lafia_Hs_2016-02-15,MK107880,NGA,Nassarawa,Lafia,8.49575,8.52155
LASV_NGA_2016_IRR_017_NGA-Ondo_Ifon_Hs_2016-02-06,MK107881,NGA,Ondo,Ifon,6.926767,5.773787
LASV_NGA_2016_IRR_033_NGA-Ondo_Ondo_Hs_2016-03-14,MK107882,NGA,Ondo,Ondo,7.088923,4.799094
LASV_NGA_2016_IRR_029_NGA-Ondo_Owo_Hs_2016-03-01,MK107883,NGA,Ondo,Owo,7.19744,5.58653
LASV_NGA_2016_IRR_009_NGA-Plateau_Shendam_Hs_2016-01-20,MK107884,NGA,Plateau,Shendam,8.87931,9.53879
LASV_NGA_2016_IRR_003_NGA-Plateau_Kumbul_Hs_2016-01-04,MK107885,NGA,Plateau,Kumbul,9.383,9.133
LASV_NGA_2016_IRR_010_NGA-Taraba_Kwesati_Hs_2016-01-22,MK107886,NGA,Taraba,Kwesati,7.213958,10.183256
LASV_NGA_2016_IRR_004_NGA-Taraba_Takun_Hs_2016-01-05,MK107887,NGA,Taraba,Takun,7.251211,9.976395
LASV_NGA_2012_IRR_001_NGA-Taraba_Jalingo_Hs_2012-02-08,MK107890,NGA,Taraba,Jalingo,8.89369,11.35765
LASV_NGA_2012_IRR_003_NGA-Taraba_Jalingo_Hs_2012-02-10,MK107892,NGA,Taraba,Jalingo,8.89369,11.35765
LASV_NGA_2013_IRR_005_NGA-Ebonyi_Abakaliki_Hs_2013-01-25,MK107893,NGA,Ebonyi,Abakaliki,6.333333,8.1
LASV_NGA_2013_IRR_007_NGA-Enugu_Enugu_Hs_2013-02-03,MK107894,NGA,Enugu,Enugu,6.452667,7.510333
LASV_NGA_2013_IRR_001_NGA-Ondo_Imoru_Hs_2013-01-16,MK107895,NGA,Ondo,Imoru,6.87224,5.75412
LASV_NGA_2013_IRR_006_NGA-Ondo_Ifon_Hs_2013-01-30,MK107896,NGA,Ondo,Ifon,6.926767,5.773787
LASV_NGA_2014_IRR_001_NGA-Edo_NA_Hs_2014-01-25,MK117826,NGA,Edo,NA,6.75,6.221953
LASV_NGA_2016_IRR_001_NGA-Edo_NA_Hs_2016-01-04,MK117827,NGA,Edo,NA,6.75,6.221953
LASV_NGA_2016_IRR_002_NGA-Edo_NA_Hs_2016-02-15,MK117828,NGA,Edo,NA,6.75,6.221953
LASV_NGA_2017_IRR_001_NGA-Nassarawa_NA_Hs_2017-01-24,MK117829,NGA,Nassarawa,NA,8.49575,8.52155
LASV_NGA_2017_IRR_003_NGA-Edo_NA_Hs_2017-04-03,MK117830,NGA,Edo,NA,6.75,6.221953
LASV_NGA_2017_IRR_004_NGA-Edo_Uzairue_Hs_2017,MK117831,NGA,Edo,Uzairue,7.088383,6.290372
LASV_NGA_2017_IRR_006_NGA-Ondo_Owo_Hs_2017-01-19,MK117866,NGA,Ondo,Owo,7.19744,5.58653
LASV_NGA_2017_IRR_008_NGA-Ebonyi_EzzaNorth_Hs_2017-02-02,MK117867,NGA,Ebonyi,EzzaNorth,NA,NA
LASV_NGA_2017_IRR_014_NGA-Ondo_Owo_Hs_2017-04-28,MK117868,NGA,Ondo,Owo,7.19744,5.58653
LASV_NGA_2018_IRR_001_NGA-Bauchi_LimanKatagum_Hs_2018-01-02,MK117869,NGA,Bauchi,LimanKatagum,10.093735,9.767931
LASV_NGA_2018_IRR_005_NGA-Edo_OwanWest_Hs_2018-01-09,MK117872,NGA,Edo,OwanWest,NA,NA
LASV_NGA_2018_IRR_006_NGA-Edo_Auchi_Hs_2018-01-09,MK117873,NGA,Edo,Auchi,7.066667,6.266667
LASV_NGA_2018_IRR_007_NGA-Ondo_Iyere_Hs_2018-01-09,MK117874,NGA,,,NA,NA
LASV_NGA_2018_IRR_008_NGA-Ondo_IjebuOwo_Hs_2018-01-11,MK117875,NGA,Ondo,IjebuOwo,7.182869,5.581471
LASV_NGA_2018_IRR_009_NGA-Anambra_AnambraWest_Hs_2018-01-13,MK117876,NGA,Anambra,AnambraWest,NA,NA
LASV_NGA_2018_IRR_010_NGA-Ondo_Owo_Hs_2018-01-12,MK117877,NGA,Ondo,Owo,7.19744,5.58653
LASV_NGA_2018_IRR_011_NGA-Ebonyi_Amauro_Hs_2018-01-13,MK117878,NGA,Ebonyi,Amauro,5.967,7.867
LASV_NGA_2018_IRR_013_NGA-Imo_Obowo_Hs_2018-01-13,MK117879,NGA,Imo,Obowo,NA,NA
LASV_NGA_2018_IRR_014_NGA-Ondo_Owo_Hs_2018-01-15,MK117880,NGA,Ondo,Owo,7.19744,5.58653
LASV_NGA_2018_IRR_015_NGA-Ondo_Owo_Hs_2018-01-16,MK117881,NGA,Ondo,Owo,7.19744,5.58653
LASV_NGA_2018_IRR_017_NGA-Ondo_Owo_Hs_2018-01-15,MK117882,NGA,Ondo,Owo,7.19744,5.58653
LASV_NGA_2018_IRR_019_NGA-Ondo_Owo_Hs_2018-01-17,MK117883,NGA,Ondo,Owo,7.19744,5.58653
LASV_NGA_2018_IRR_020_NGA-Ondo_Owo_Hs_2018-01-17,MK117884,NGA,Ondo,Owo,7.19744,5.58653
LASV_NGA_2018_IRR_021_NGA-Nassarawa_Keffi_Hs_2018-01-18,MK117885,NGA,Nassarawa,Keffi,8.84538,7.87839
LASV_NGA_2018_IRR_022_NGA-Kogi_Lokoja_Hs_2018-01-17,MK117886,NGA,Kogi,Lokoja,7.80207,6.74365
LASV_NGA_2018_IRR_023_NGA-Edo_Uzebba_Hs_2018-01-18,MK117887,NGA,Edo,Uzebba,6.997077,5.904454
LASV_NGA_2018_IRR_024_NGA-Edo_Agenegbode_Hs_2018-01-19,MK117888,NGA,Edo,Agenegbode,7.098654,6.678859
LASV_NGA_2018_IRR_025_NGA-Imo_Orlu_Hs_2018-01-19,MK117889,NGA,Imo,Orlu,5.79449,7.03589
LASV_NGA_2018_IRR_031_NGA-Edo_Uromi_Hs_2018-01-24,MK117890,NGA,Edo,Uromi,6.712259,6.329005
LASV_NGA_2018_IRR_033_NGA-Edo_Jattu_Hs_2018-01-25,MK117891,NGA,Edo,Jattu,7.083333,6.283333
LASV_NGA_2018_IRR_034_NGA-Ebonyi_Iboko_Hs_2018-01-25,MK117892,NGA,Ebonyi,Iboko,6.556183,8.303293
LASV_NGA_2018_IRR_035_NGA-Ebonyi_Okposi-Okwa_Hs_2018-01-23,MK117893,NGA,Ebonyi,Okposi-Okwa,6.032415,7.850118
LASV_NGA_2018_IRR_036_NGA-Edo_Ekpoma_Hs_2018-01-26,MK117894,NGA,Edo,Ekpoma,6.75,6.133333
LASV_NGA_2018_IRR_037_NGA-Edo_Ubiaja_Hs_2018-01-26,MK117895,NGA,Edo,Ubiaja,6.659722,6.382222
LASV_NGA_2018_IRR_042_NGA-Anambra_Nzam_Hs_2018-01-29,MK117896,NGA,Anambra,Nzam,6.452245,6.728375
LASV_NGA_2018_IRR_044_NGA-Ebonyi_AgbajaAzumili_Hs_2018-01-30,MK117897,NGA,Ebonyi,AgbajaAzumili,6.340038,8.129261
LASV_NGA_2018_IRR_046_NGA-Edo_Ekpoma_Hs_2018-02-05,MK117898,NGA,Edo,Ekpoma,6.75,6.133333
LASV_NGA_2018_IRR_047_NGA-Ondo_Owo_Hs_2018-02-05,MK117899,NGA,Ondo,Owo,7.19744,5.58653
LASV_NGA_2018_IRR_048_NGA-Ondo_Owo_Hs_2018-02-04,MK117900,NGA,Ondo,Owo,7.19744,5.58653
LASV_NGA_2018_IRR_050_NGA-Ondo_Ifon_Hs_2018-02-05,MK117901,NGA,Ondo,Ifon,6.926767,5.773787
LASV_NGA_2018_IRR_051_NGA-Edo_Uromi_Hs_2018-02-06,MK117902,NGA,Edo,Uromi,6.712259,6.329005
LASV_NGA_2018_IRR_052_NGA-Ondo_Owo_Hs_2018-02-07,MK117903,NGA,Ondo,Owo,7.19744,5.58653
LASV_NGA_2018_IRR_053_NGA-Edo_Uromi_Hs_2018-02-08,MK117904,NGA,Edo,Uromi,6.712259,6.329005
LASV_NGA_2018_IRR_056_NGA-Ondo_Owo_Hs_2018-02-09,MK117906,NGA,Ondo,Owo,7.19744,5.58653
LASV_NGA_2018_IRR_057_NGA-Ondo_Owo_Hs_2018-02-09,MK117907,NGA,Ondo,Owo,7.19744,5.58653
LASV_NGA_2018_IRR_060_NGA-Ebonyi_Isiama_Hs_2018-02-03,MK117909,NGA,Ebonyi,Isiama,6.065463,7.81309
LASV_NGA_2018_IRR_061_NGA-Ebonyi_Abakaliki_Hs_2018-02-07,MK117910,NGA,Ebonyi,Abakaliki,6.333333,8.1
LASV_NGA_2018_IRR_063_NGA-Ebonyi_Amogwe_Hs_2018-02-07,MK117911,NGA,Ebonyi,Amogwe,6.1878,8.1189
LASV_NGA_2018_IRR_065_NGA-Ebonyi_Abakaliki_Hs_2018-02-10,MK117912,NGA,Ebonyi,Abakaliki,6.333333,8.1
LASV_NGA_2018_IRR_066_NGA-Edo_Auchi_Hs_2018-02-10,MK117913,NGA,Edo,Auchi,7.066667,6.266667
LASV_NGA_2018_IRR_071_NGA-Ondo_Ifon_Hs_2018-02-11,MK117914,NGA,Ondo,Ifon,6.926767,5.773787
LASV_NGA_2018_IRR_072_NGA-Ondo_Owo_Hs_2018-02-12,MK117915,NGA,Ondo,Owo,7.19744,5.58653
LASV_NGA_2018_IRR_073_NGA-Anambra_Ode-Nzam_Hs_2018-02-12,MK117916,NGA,Anambra,Ode-Nzam,6.452608,6.726605
LASV_NGA_2018_IRR_074_NGA-Edo_Sobe_Hs_2018-02-12,MK117917,NGA,Edo,Sobe,6.850844,5.777564
LASV_NGA_2018_IRR_075_NGA-Edo_BeninCity_Hs_2018-02-12,MK117918,NGA,Edo,BeninCity,6.333333,5.622222
LASV_NGA_2018_IRR_082_NGA-Ondo_Owo_Hs_2018-02-13,MK117920,NGA,Ondo,Owo,7.19744,5.58653
LASV_NGA_2018_IRR_083_NGA-Ondo_Owo_Hs_2018-02-13,MK117921,NGA,Ondo,Owo,7.19744,5.58653
LASV_NGA_2018_IRR_084_NGA-Ondo_Owo_Hs_2018-02-13,MK117922,NGA,Ondo,Owo,7.19744,5.58653
LASV_NGA_2018_IRR_085_NGA-Edo_Sabongida-Ora_Hs_2018-02-14,MK117923,NGA,Edo,Sabongida-Ora,6.947775,5.91429
LASV_NGA_2018_IRR_086_NGA-Bauchi_Wandi_Hs_2018-02-08,MK117924,NGA,Bauchi,Wandi,9.960813,9.502202
LASV_NGA_2018_IRR_088_NGA-Anambra_Amansea_Hs_2018-02-14,MK117925,NGA,,,NA,NA
LASV_NGA_2018_IRR_091_NGA-Edo_Afowa_Hs_2018-02-15,MK117926,NGA,Edo,Afowa,7.113571,6.327094
LASV_NGA_2018_IRR_092_NGA-Ondo_Owo_Hs_2018-02-15,MK117927,NGA,Ondo,Owo,7.19744,5.58653
LASV_NGA_2018_IRR_095_NGA-Ekiti_Ado-Ekiti_Hs_2018-02-15,MK117928,NGA,Ekiti,Ado-Ekiti,7.62692,5.21561
LASV_NGA_2018_IRR_096_NGA-Delta_Asaba_Hs_2018-02-17,MK117929,NGA,Delta,Asaba,6.197842,6.728467
LASV_NGA_2018_IRR_099_NGA-Ebonyi_UmunwaguIdembia_Hs_2018-02-15,MK117930,NGA,Ebonyi,UmunwaguIdembia,6.128725,8.00679
LASV_NGA_2018_IRR_100_NGA-Ebonyi_Ohaozara_Hs_2018-02-12,MK117931,NGA,Ebonyi,Ohaozara,NA,NA
LASV_NGA_2018_IRR_101_NGA-Ebonyi_Abakaliki_Hs_2018-02-12,MK117932,NGA,Ebonyi,Abakaliki,6.333333,8.1
LASV_NGA_2018_IRR_103_NGA-Edo_Uromi_Hs_2018-02-18,MK117933,NGA,Edo,Uromi,6.712259,6.329005
LASV_NGA_2018_IRR_106_NGA-Edo_Uromi_Hs_2018-02-20,MK117934,NGA,Edo,Uromi,6.712259,6.329005
LASV_NGA_2018_IRR_110_NGA-Edo_Iyamho_Hs_2018-02-20,MK117935,NGA,Edo,Iyamho,7.218593,6.334514
LASV_NGA_2018_IRR_114_NGA-Edo_Ekpoma_Hs_2018-02-21,MK117936,NGA,Edo,Ekpoma,6.75,6.133333
LASV_NGA_2018_IRR_115_NGA-Delta_Asaba_Hs_2018-02-21,MK117937,NGA,Delta,Asaba,6.197842,6.728467
LASV_NGA_2018_IRR_117_NGA-Edo_Afuze_Hs_2018-02-24,MK117938,NGA,Edo,Afuze,6.94089,5.984769
LASV_NGA_2018_IRR_119_NGA-Edo_Auchi_Hs_2018-02-25,MK117939,NGA,Edo,Auchi,7.066667,6.266667
LASV_NGA_2018_IRR_120_NGA-Edo_Ehor_Hs_2018-02-25,MK117940,NGA,Edo,Ehor,6.615948,5.986347
LASV_NGA_2018_IRR_121_NGA-Edo_Uhiele_Hs_2018-02-26,MK117941,NGA,Edo,Uhiele,6.713854,6.154398
LASV_NGA_2018_IRR_126_NGA-Ondo_Ute_Hs_2018-02-28,MK117942,NGA,Ondo,Ute,6.849914,5.600172
LASV_NGA_2018_IRR_131_NGA-Edo_BeninCity_Hs_2018-03-01,MK117943,NGA,Edo,BeninCity,6.333333,5.622222
LASV_NGA_2018_IRR_135_NGA-Edo_Ekpoma_Hs_2018-03-05,MK117945,NGA,Edo,Ekpoma,6.75,6.133333
LASV_NGA_2018_IRR_137_NGA-Edo_Uromi_Hs_2018-03-08,MK117946,NGA,Edo,Uromi,6.712259,6.329005
LASV_NGA_2018_IRR_142_NGA-Edo_Uromi_Hs_2018-03-09,MK117947,NGA,Edo,Uromi,6.712259,6.329005
KF478763|Soromba-R30|Mn|NGA|2012-03-03,KF478763,MLI,,Soromba,10.5891,-7.1558
KF478764|Ouoma-R123|Mn|NGA|2012-03,KF478764,MLI,,Ouoma,10.397222,-7.259167
MG812646|las803209|Human|Sierra_Leone|1975,MG812646,SLE,Kailahun,Segbwema,7.997399,-10.950236
MG812639|las806827|Human|Sierra_Leone|1977,MG812638,SLE,Kenema,Gondama,NA,NA
